{"type":"FeatureCollection","features":[{"type":"Feature","properties":{"kdkec":"1403030","nmkec":"ENOK","kddesa":"1403030012","nmdesa":"SUNGAI LOKAN","idsubsls":"1403030012000300","kdsubsls":"00"},"geometry":{"type":"Polygon","coordinates":[[[103.169235,-0.434896],[103.169904,-0.436782],[103.170831,-0.438149],[103.179437,-0.447207],[103.181488,-0.447486],[103.186474,-0.447714],[103.189816,-0.447663],[103.191486,-0.447536],[103.192727,-0.447131],[103.193862,-0.44653],[103.195349,-0.447187],[103.196321,-0.447232],[103.192872,-0.448903],[103.186528,-0.448998],[103.180568,-0.448666],[103.176143,-0.448729],[103.172786,-0.443792],[103.161951,-0.426265],[103.164815,-0.424458],[103.166865,-0.427875],[103.169235,-0.434896]]]}}]}