{"type":"FeatureCollection","features":[{"type":"Feature","properties":{"kdkec":"1403030","nmkec":"ENOK","kddesa":"1403030012","nmdesa":"SUNGAI LOKAN","idsubsls":"1403030012001200","kdsubsls":"00"},"geometry":{"type":"Polygon","coordinates":[[[103.178831,-0.433426],[103.182361,-0.434828],[103.184431,-0.43642],[103.188374,-0.440889],[103.192561,-0.442462],[103.192671,-0.444516],[103.192342,-0.44552],[103.192411,-0.445982],[103.191631,-0.446324],[103.18921,-0.446427],[103.186996,-0.44635],[103.184292,-0.445964],[103.181666,-0.445938],[103.179837,-0.444908],[103.177237,-0.442539],[103.171247,-0.433562],[103.174562,-0.431234],[103.17504,-0.432017],[103.178831,-0.433426]]]}}]}