{"type":"FeatureCollection","features":[{"type":"Feature","properties":{"kdkec":"1403030","nmkec":"ENOK","kddesa":"1403030012","nmdesa":"SUNGAI LOKAN","idsubsls":"1403030012000700","kdsubsls":"00"},"geometry":{"type":"Polygon","coordinates":[[[103.18629,-0.423339],[103.186415,-0.428038],[103.18597,-0.438164],[103.184431,-0.43642],[103.182361,-0.434828],[103.180102,-0.433924],[103.179773,-0.426459],[103.179901,-0.42472],[103.179951,-0.414773],[103.179801,-0.409569],[103.18609,-0.409435],[103.185997,-0.412319],[103.18629,-0.423339]]]}}]}