{"type":"FeatureCollection","features":[{"type":"Feature","properties":{"kdkec":"1403030","nmkec":"ENOK","kddesa":"1403030012","nmdesa":"SUNGAI LOKAN","idsubsls":"1403030012000800","kdsubsls":"00"},"geometry":{"type":"Polygon","coordinates":[[[103.191329,-0.410774],[103.195081,-0.422477],[103.198536,-0.434129],[103.198734,-0.437647],[103.199701,-0.438406],[103.200308,-0.439723],[103.200359,-0.44357],[103.200688,-0.446861],[103.200612,-0.447899],[103.200156,-0.448709],[103.199404,-0.449369],[103.198812,-0.448661],[103.197318,-0.448146],[103.1969,-0.447451],[103.196321,-0.447232],[103.195349,-0.447187],[103.192445,-0.446035],[103.192329,-0.445855],[103.192671,-0.444516],[103.191953,-0.423063],[103.18629,-0.423339],[103.185997,-0.412319],[103.18609,-0.409435],[103.190699,-0.407699],[103.191329,-0.410774]]]}}]}