{"type":"FeatureCollection","features":[{"type":"Feature","properties":{"kdkec":"1403110","nmkec":"MANDAH","kddesa":"1403110016","nmdesa":"BELARAS BARAT","idsubsls":"1403110016000300","kdsubsls":"00"},"geometry":{"type":"Polygon","coordinates":[[[103.612872,0.039869],[103.621663,0.039763],[103.621792,0.034416],[103.619993,0.0348],[103.618571,0.031689],[103.617515,0.032276],[103.616251,0.032577],[103.614677,0.033238],[103.612965,0.034259],[103.608344,0.034642],[103.61028,0.040054],[103.612872,0.039869]]]}}]}