{"type":"FeatureCollection","features":[{"type":"Feature","properties":{"kdkec":"1403110","nmkec":"MANDAH","kddesa":"1403110016","nmdesa":"BELARAS BARAT","idsubsls":"1403110016000600","kdsubsls":"00"},"geometry":{"type":"Polygon","coordinates":[[[103.613533,0.050263],[103.612872,0.039869],[103.61028,0.040054],[103.608344,0.034642],[103.611115,0.034434],[103.604995,0.017431],[103.604306,0.019497],[103.604168,0.021563],[103.602958,0.022443],[103.605394,0.028045],[103.601425,0.029471],[103.599589,0.030433],[103.602727,0.036844],[103.603378,0.040825],[103.605026,0.046468],[103.606437,0.052253],[103.613533,0.050263]]]}}]}