{"type":"FeatureCollection","features":[{"type":"Feature","properties":{"kdkec":"1403110","nmkec":"MANDAH","kddesa":"1403110016","nmdesa":"BELARAS BARAT","idsubsls":"1403110016000100","kdsubsls":"00"},"geometry":{"type":"Polygon","coordinates":[[[103.611912,0.014011],[103.608163,0.015089],[103.606497,0.015922],[103.611775,0.024024],[103.616251,0.032577],[103.617515,0.032276],[103.618571,0.031689],[103.619993,0.0348],[103.621792,0.034416],[103.623124,0.03264],[103.621417,0.030232],[103.616722,0.021936],[103.612032,0.014473],[103.611912,0.014011]]]}}]}