{"type":"FeatureCollection","features":[{"type":"Feature","properties":{"kdkec":"1403110","nmkec":"MANDAH","kddesa":"1403110016","nmdesa":"BELARAS BARAT","idsubsls":"1403110016000900","kdsubsls":"00"},"geometry":{"type":"Polygon","coordinates":[[[103.582974,0.062239],[103.598555,0.040271],[103.599771,0.039413],[103.599155,0.038394],[103.594453,0.033635],[103.592185,0.032306],[103.591084,0.03506],[103.589844,0.036713],[103.588053,0.036989],[103.585987,0.038779],[103.584748,0.038779],[103.583234,0.038174],[103.584043,0.045661],[103.584056,0.050869],[103.58272,0.054222],[103.583735,0.057189],[103.581392,0.060723],[103.582974,0.062239]]]}}]}