{"type":"FeatureCollection","features":[{"type":"Feature","properties":{"kdkec":"1403120","nmkec":"KATEMAN","kddesa":"1403120004","nmdesa":"TAGARAJA","idsubsls":"1403120004003000","kdsubsls":"00"},"geometry":{"type":"Polygon","coordinates":[[[103.609913,0.295755],[103.609756,0.296071],[103.609653,0.295977],[103.609132,0.296552],[103.610383,0.297714],[103.610833,0.297101],[103.61059,0.296866],[103.610915,0.296664],[103.610505,0.296079],[103.610697,0.295899],[103.610271,0.295399],[103.609913,0.295755]]]}}]}