{"type":"FeatureCollection","features":[{"type":"Feature","properties":{"kdkec":"1403120","nmkec":"KATEMAN","kddesa":"1403120004","nmdesa":"TAGARAJA","idsubsls":"1403120004001300","kdsubsls":"00"},"geometry":{"type":"Polygon","coordinates":[[[103.617428,0.294651],[103.617306,0.294415],[103.617076,0.294582],[103.616455,0.293764],[103.615957,0.294114],[103.615832,0.293946],[103.615389,0.294278],[103.616331,0.295145],[103.616085,0.295319],[103.616663,0.296273],[103.617691,0.295622],[103.617245,0.29492],[103.617482,0.294769],[103.617428,0.294651]]]}}]}