{"type":"FeatureCollection","features":[{"type":"Feature","properties":{"kdkec":"1403120","nmkec":"KATEMAN","kddesa":"1403120008","nmdesa":"SUNGAI TERITIP","idsubsls":"1403120008001200","kdsubsls":"00"},"geometry":{"type":"Polygon","coordinates":[[[103.679393,0.297107],[103.679509,0.297561],[103.680071,0.29746],[103.680252,0.298412],[103.683447,0.297864],[103.685812,0.298268],[103.685888,0.299927],[103.691425,0.299541],[103.692812,0.297715],[103.687903,0.294083],[103.684453,0.290759],[103.682736,0.291703],[103.680003,0.292662],[103.680603,0.295061],[103.677038,0.295927],[103.677365,0.297637],[103.679393,0.297107]]]}}]}