{"type":"FeatureCollection","features":[{"type":"Feature","properties":{"kdkec":"1403120","nmkec":"KATEMAN","kddesa":"1403120008","nmdesa":"SUNGAI TERITIP","idsubsls":"1403120008001100","kdsubsls":"00"},"geometry":{"type":"Polygon","coordinates":[[[103.684529,0.301608],[103.688963,0.303435],[103.692681,0.305761],[103.695224,0.307848],[103.696355,0.309174],[103.696822,0.310359],[103.706084,0.303677],[103.713295,0.295758],[103.717943,0.289235],[103.710472,0.282932],[103.709895,0.282846],[103.707512,0.281679],[103.70637,0.280918],[103.705977,0.280428],[103.705235,0.281518],[103.705081,0.283129],[103.700111,0.290418],[103.692812,0.297715],[103.691425,0.299541],[103.683466,0.300136],[103.683562,0.300897],[103.68382,0.301008],[103.683747,0.301506],[103.684529,0.301608]]]}}]}