{"type":"FeatureCollection","features":[{"type":"Feature","properties":{"kdkec":"1403120","nmkec":"KATEMAN","kddesa":"1403120008","nmdesa":"SUNGAI TERITIP","idsubsls":"1403120008001300","kdsubsls":"00"},"geometry":{"type":"Polygon","coordinates":[[[103.675922,0.284734],[103.676992,0.293532],[103.681606,0.292161],[103.684453,0.290759],[103.687903,0.294083],[103.692812,0.297715],[103.700111,0.290418],[103.705081,0.283129],[103.705235,0.281518],[103.705977,0.280428],[103.705502,0.279605],[103.697696,0.27716],[103.696082,0.269674],[103.700685,0.268349],[103.700847,0.268116],[103.702131,0.264929],[103.704357,0.26038],[103.706068,0.254317],[103.704345,0.254233],[103.697813,0.252196],[103.689076,0.243603],[103.680485,0.252246],[103.668368,0.267002],[103.66817,0.273194],[103.668875,0.281967],[103.67578,0.281001],[103.675922,0.284734]]]}}]}