{"type":"FeatureCollection","features":[{"type":"Feature","properties":{"kdkec":"1403120","nmkec":"KATEMAN","kddesa":"1403120008","nmdesa":"SUNGAI TERITIP","idsubsls":"1403120008000200","kdsubsls":"00"},"geometry":{"type":"Polygon","coordinates":[[[103.670142,0.298335],[103.677174,0.296681],[103.677038,0.295927],[103.680603,0.295061],[103.680003,0.292662],[103.66046,0.298555],[103.654429,0.300691],[103.654291,0.300305],[103.65078,0.300783],[103.638306,0.303942],[103.638726,0.305471],[103.64925,0.303776],[103.649569,0.304773],[103.655719,0.303879],[103.661327,0.302127],[103.66412,0.301072],[103.664322,0.30162],[103.665389,0.30123],[103.66523,0.300264],[103.670207,0.29898],[103.670142,0.298335]]]}}]}