{"type":"FeatureCollection","features":[{"type":"Feature","properties":{"kdkec":"1403120","nmkec":"KATEMAN","kddesa":"1403120008","nmdesa":"SUNGAI TERITIP","idsubsls":"1403120008000900","kdsubsls":"00"},"geometry":{"type":"Polygon","coordinates":[[[103.670889,0.3137],[103.669248,0.314493],[103.661988,0.322531],[103.657834,0.325604],[103.660593,0.332386],[103.677334,0.323882],[103.681248,0.32255],[103.683066,0.321025],[103.68171,0.319653],[103.68031,0.317538],[103.671468,0.315099],[103.670889,0.3137]]]}}]}