{"type":"FeatureCollection","features":[{"type":"Feature","properties":{"kdkec":"1403120","nmkec":"KATEMAN","kddesa":"1403120008","nmdesa":"SUNGAI TERITIP","idsubsls":"1403120008001000","kdsubsls":"00"},"geometry":{"type":"Polygon","coordinates":[[[103.685018,0.299988],[103.685888,0.299927],[103.685812,0.298268],[103.683447,0.297864],[103.680252,0.298412],[103.680071,0.29746],[103.679509,0.297561],[103.679393,0.297107],[103.677365,0.297637],[103.677594,0.298994],[103.674954,0.299427],[103.675178,0.303791],[103.683265,0.303046],[103.68382,0.301008],[103.683562,0.300897],[103.683466,0.300136],[103.685018,0.299988]]]}}]}