{"type":"FeatureCollection","features":[{"type":"Feature","properties":{"kdkec":"1403100","nmkec":"GAUNG","kddesa":"1403100010","nmdesa":"LAHANG HULU","idsubsls":"1403100010000700","kdsubsls":"00"},"geometry":{"type":"Polygon","coordinates":[[[103.273982,-0.036183],[103.27568,-0.036794],[103.277479,-0.037701],[103.274904,-0.038901],[103.274716,-0.038658],[103.272835,-0.038307],[103.269465,-0.038609],[103.268613,-0.038455],[103.253378,-0.043051],[103.249877,-0.039994],[103.263326,-0.036249],[103.268282,-0.032675],[103.272233,-0.035772],[103.273982,-0.036183]]]}}]}