{"type":"FeatureCollection","features":[{"type":"Feature","properties":{"kdkec":"1403100","nmkec":"GAUNG","kddesa":"1403100010","nmdesa":"LAHANG HULU","idsubsls":"1403100010000100","kdsubsls":"00"},"geometry":{"type":"Polygon","coordinates":[[[103.197293,0.005913],[103.220961,0.007388],[103.230426,0.003346],[103.234155,0.002191],[103.235085,0.001641],[103.23598,0.000627],[103.236462,0.000334],[103.236621,-0.000151],[103.236873,-0.000389],[103.237284,-0.002096],[103.236784,-0.004041],[103.237175,-0.005026],[103.238239,-0.005589],[103.240887,-0.00514],[103.242075,-0.00564],[103.242992,-0.006252],[103.239504,-0.008979],[103.238548,-0.009524],[103.235643,-0.007354],[103.217803,-0.011993],[103.197293,0.005913]]]}}]}