{"type":"FeatureCollection","features":[{"type":"Feature","properties":{"kdkec":"1403020","nmkec":"RETEH","kddesa":"1403020018","nmdesa":"SUNGAI MAHANG","idsubsls":"1403020018000900","kdsubsls":"00"},"geometry":{"type":"Polygon","coordinates":[[[103.363635,-0.795843],[103.35754,-0.798685],[103.355565,-0.799852],[103.353599,-0.800305],[103.351708,-0.800003],[103.350725,-0.799398],[103.349742,-0.797507],[103.34859,-0.794188],[103.34828,-0.791257],[103.35509,-0.790149],[103.358286,-0.78872],[103.35863,-0.788781],[103.361121,-0.787508],[103.363635,-0.795843]]]}}]}