{"type":"FeatureCollection","features":[{"type":"Feature","properties":{"kdkec":"1403020","nmkec":"RETEH","kddesa":"1403020003","nmdesa":"PULAU KIJANG","idsubsls":"1403020003004800","kdsubsls":"00"},"geometry":{"type":"Polygon","coordinates":[[[103.20099,-0.698581],[103.20017,-0.69858],[103.200181,-0.69766],[103.199774,-0.697647],[103.19978,-0.697163],[103.199014,-0.697157],[103.198961,-0.696054],[103.197648,-0.696142],[103.197642,-0.695959],[103.197248,-0.695964],[103.197231,-0.695431],[103.197623,-0.695424],[103.197582,-0.694298],[103.200172,-0.694267],[103.200158,-0.694989],[103.20065,-0.694932],[103.200655,-0.696146],[103.201038,-0.696148],[103.20099,-0.698581]]]}}]}