{"type":"FeatureCollection","features":[{"type":"Feature","properties":{"kdkec":"1403020","nmkec":"RETEH","kddesa":"1403020003","nmdesa":"PULAU KIJANG","idsubsls":"1403020003001000","kdsubsls":"00"},"geometry":{"type":"Polygon","coordinates":[[[103.208054,-0.689113],[103.208072,-0.689387],[103.207844,-0.689421],[103.207865,-0.689632],[103.208026,-0.689609],[103.208108,-0.689981],[103.20849,-0.689882],[103.208981,-0.691244],[103.207911,-0.691401],[103.207951,-0.69172],[103.206819,-0.691733],[103.206833,-0.692246],[103.206631,-0.692257],[103.206559,-0.690437],[103.20573,-0.690478],[103.205706,-0.690018],[103.206188,-0.690008],[103.206156,-0.68918],[103.208054,-0.689113]]]}}]}