{"type":"FeatureCollection","features":[{"type":"Feature","properties":{"kdkec":"1403020","nmkec":"RETEH","kddesa":"1403020003","nmdesa":"PULAU KIJANG","idsubsls":"1403020003004700","kdsubsls":"00"},"geometry":{"type":"Polygon","coordinates":[[[103.200238,-0.690979],[103.199761,-0.690944],[103.199758,-0.690761],[103.19823,-0.690738],[103.198214,-0.690114],[103.197855,-0.689976],[103.198104,-0.689692],[103.19884,-0.689698],[103.198838,-0.689032],[103.200367,-0.688823],[103.200218,-0.689323],[103.200238,-0.690979]]]}}]}