{"type":"FeatureCollection","features":[{"type":"Feature","properties":{"kdkec":"1403020","nmkec":"RETEH","kddesa":"1403020003","nmdesa":"PULAU KIJANG","idsubsls":"1403020003003600","kdsubsls":"00"},"geometry":{"type":"Polygon","coordinates":[[[103.20267,-0.69293],[103.202937,-0.695373],[103.201039,-0.695454],[103.201038,-0.696148],[103.200655,-0.696146],[103.20065,-0.694932],[103.200158,-0.694989],[103.200192,-0.692698],[103.200748,-0.692692],[103.200751,-0.692884],[103.2011,-0.692864],[103.201103,-0.693098],[103.202134,-0.693097],[103.20267,-0.69293]]]}}]}