{"type":"FeatureCollection","features":[{"type":"Feature","properties":{"kdkec":"1403010","nmkec":"KERITANG","kddesa":"1403010010","nmdesa":"TELUK KELASA","idsubsls":"1403010010001900","kdsubsls":"00"},"geometry":{"type":"Polygon","coordinates":[[[102.835324,-0.671154],[102.830577,-0.682482],[102.824206,-0.698668],[102.820927,-0.706552],[102.819491,-0.705945],[102.81642,-0.703664],[102.815885,-0.702724],[102.834232,-0.66747],[102.839498,-0.658664],[102.840094,-0.65893],[102.835324,-0.671154]]]}}]}