{"type":"FeatureCollection","features":[{"type":"Feature","properties":{"kdkec":"1403010","nmkec":"KERITANG","kddesa":"1403010010","nmdesa":"TELUK KELASA","idsubsls":"1403010010000200","kdsubsls":"00"},"geometry":{"type":"Polygon","coordinates":[[[102.82407,-0.677899],[102.810279,-0.698994],[102.809209,-0.698564],[102.807206,-0.697357],[102.804563,-0.694922],[102.815178,-0.683551],[102.81958,-0.676507],[102.834898,-0.656748],[102.838495,-0.658204],[102.833082,-0.666427],[102.82407,-0.677899]]]}}]}