{"type":"FeatureCollection","features":[{"type":"Feature","properties":{"kdkec":"1403010","nmkec":"KERITANG","kddesa":"1403010010","nmdesa":"TELUK KELASA","idsubsls":"1403010010001300","kdsubsls":"00"},"geometry":{"type":"Polygon","coordinates":[[[102.846244,-0.637695],[102.846272,-0.637317],[102.845685,-0.635335],[102.845139,-0.634371],[102.844794,-0.631602],[102.847962,-0.633204],[102.848901,-0.632629],[102.849216,-0.637139],[102.849682,-0.640894],[102.847623,-0.646552],[102.84717,-0.649284],[102.845111,-0.651537],[102.84335,-0.652676],[102.841913,-0.654036],[102.839498,-0.658664],[102.836677,-0.657468],[102.845454,-0.646008],[102.846671,-0.641256],[102.846244,-0.637695]]]}}]}