{"type":"FeatureCollection","features":[{"type":"Feature","properties":{"kdkec":"1403120","nmkec":"KATEMAN","kddesa":"1403120004","nmdesa":"TAGARAJA","idsubsls":"1403120004000100","kdsubsls":"00"},"geometry":{"type":"Polygon","coordinates":[[[103.613199,0.300344],[103.61424,0.299475],[103.613832,0.298828],[103.613287,0.299307],[103.612682,0.2986],[103.612177,0.299094],[103.612275,0.299208],[103.610984,0.300445],[103.611444,0.301227],[103.612884,0.300197],[103.613089,0.300431],[103.613199,0.300344]]]}}]}