{"type":"FeatureCollection","features":[{"type":"Feature","properties":{"kdkec":"1403120","nmkec":"KATEMAN","kddesa":"1403120004","nmdesa":"TAGARAJA","idsubsls":"1403120004003400","kdsubsls":"00"},"geometry":{"type":"Polygon","coordinates":[[[103.615284,0.292993],[103.615957,0.294114],[103.616455,0.293764],[103.617076,0.294582],[103.617306,0.294415],[103.617428,0.294651],[103.618962,0.293432],[103.61837,0.2927],[103.618627,0.292495],[103.617818,0.291514],[103.617058,0.292012],[103.616753,0.29154],[103.615466,0.292349],[103.615401,0.292498],[103.615588,0.292786],[103.615284,0.292993]]]}}]}