{"type":"FeatureCollection","features":[{"type":"Feature","properties":{"kdkec":"1403120","nmkec":"KATEMAN","kddesa":"1403120004","nmdesa":"TAGARAJA","idsubsls":"1403120004003300","kdsubsls":"00"},"geometry":{"type":"Polygon","coordinates":[[[103.614275,0.292123],[103.61508,0.291588],[103.614132,0.29041],[103.613857,0.289783],[103.613708,0.289822],[103.6134,0.289394],[103.613085,0.289598],[103.613257,0.28984],[103.611311,0.290761],[103.611594,0.291364],[103.612746,0.29079],[103.614275,0.292123]]]}}]}