{"type":"FeatureCollection","features":[{"type":"Feature","properties":{"kdkec":"1403120","nmkec":"KATEMAN","kddesa":"1403120004","nmdesa":"TAGARAJA","idsubsls":"1403120004002400","kdsubsls":"00"},"geometry":{"type":"Polygon","coordinates":[[[103.612508,0.287804],[103.613783,0.286806],[103.613464,0.286411],[103.611416,0.285461],[103.609746,0.284453],[103.60855,0.285822],[103.607114,0.287924],[103.608233,0.288797],[103.609287,0.290364],[103.610504,0.289497],[103.611755,0.288362],[103.611684,0.288277],[103.612508,0.287804]]]}}]}