{"type":"FeatureCollection","features":[{"type":"Feature","properties":{"kdkec":"1403110","nmkec":"MANDAH","kddesa":"1403110015","nmdesa":"CAHAYA BARU","idsubsls":"1403110015000100","kdsubsls":"00"},"geometry":{"type":"Polygon","coordinates":[[[103.641504,0.014475],[103.640631,0.014012],[103.639945,0.013326],[103.639583,0.012661],[103.639522,0.012016],[103.640006,0.010867],[103.639643,0.009234],[103.639381,0.008811],[103.637466,0.007561],[103.63626,0.006412],[103.635828,0.006535],[103.635962,0.011227],[103.63642,0.01718],[103.636625,0.024344],[103.635828,0.024344],[103.636768,0.032696],[103.638714,0.03736],[103.639623,0.041136],[103.642833,0.041147],[103.64603,0.040926],[103.644301,0.025213],[103.641504,0.014475]]]}}]}