{"type":"FeatureCollection","features":[{"type":"Feature","properties":{"kdkec":"1403010","nmkec":"KERITANG","kddesa":"1403010016","nmdesa":"NYIUR PERMAI","idsubsls":"1403010016001200","kdsubsls":"00"},"geometry":{"type":"Polygon","coordinates":[[[102.816909,-0.704024],[102.817299,-0.704311],[102.816117,-0.707447],[102.813332,-0.717321],[102.802423,-0.743232],[102.800031,-0.743646],[102.79767,-0.74349],[102.813457,-0.706197],[102.815626,-0.702405],[102.81642,-0.703664],[102.816909,-0.704024]]]}}]}