{"type":"FeatureCollection","features":[{"type":"Feature","properties":{"kdkec":"1403020","nmkec":"RETEH","kddesa":"1403020010","nmdesa":"SEBERANG SANGLAR","idsubsls":"1403020010000400","kdsubsls":"00"},"geometry":{"type":"Polygon","coordinates":[[[103.054235,-0.679543],[103.055278,-0.679548],[103.055306,-0.679127],[103.056481,-0.679244],[103.05648,-0.679622],[103.05615,-0.679617],[103.056133,-0.681002],[103.053284,-0.68159],[103.053189,-0.680149],[103.05249,-0.680151],[103.052437,-0.67961],[103.054235,-0.679543]]]}}]}