{"type":"FeatureCollection","features":[{"type":"Feature","properties":{"kdkec":"1403020","nmkec":"RETEH","kddesa":"1403020010","nmdesa":"SEBERANG SANGLAR","idsubsls":"1403020010002900","kdsubsls":"00"},"geometry":{"type":"Polygon","coordinates":[[[103.104148,-0.683777],[103.10031,-0.683543],[103.099138,-0.683717],[103.099129,-0.682773],[103.098307,-0.682741],[103.098237,-0.678553],[103.09981,-0.678455],[103.099698,-0.668519],[103.100578,-0.626283],[103.104514,-0.625041],[103.104514,-0.656248],[103.105238,-0.683929],[103.104148,-0.683777]]]}}]}