{"type":"FeatureCollection","features":[{"type":"Feature","properties":{"kdkec":"1403020","nmkec":"RETEH","kddesa":"1403020010","nmdesa":"SEBERANG SANGLAR","idsubsls":"1403020010001900","kdsubsls":"00"},"geometry":{"type":"Polygon","coordinates":[[[103.10509,-0.678756],[103.104514,-0.656248],[103.104514,-0.625041],[103.108594,-0.623824],[103.109157,-0.655101],[103.110405,-0.680219],[103.111335,-0.680226],[103.111508,-0.683074],[103.111441,-0.684702],[103.105238,-0.683929],[103.10509,-0.678756]]]}}]}