{"type":"FeatureCollection","features":[{"type":"Feature","properties":{"kdkec":"1403020","nmkec":"RETEH","kddesa":"1403020010","nmdesa":"SEBERANG SANGLAR","idsubsls":"1403020010002800","kdsubsls":"00"},"geometry":{"type":"Polygon","coordinates":[[[103.060543,-0.679779],[103.056133,-0.681002],[103.05615,-0.679617],[103.05648,-0.679622],[103.056494,-0.676631],[103.059677,-0.613583],[103.061611,-0.613576],[103.06537,-0.613257],[103.064213,-0.651204],[103.063226,-0.659236],[103.062047,-0.664363],[103.060543,-0.679779]]]}}]}