{"type":"FeatureCollection","features":[{"type":"Feature","properties":{"kdkec":"1403020","nmkec":"RETEH","kddesa":"1403020010","nmdesa":"SEBERANG SANGLAR","idsubsls":"1403020010001100","kdsubsls":"00"},"geometry":{"type":"Polygon","coordinates":[[[103.071991,-0.625659],[103.071985,-0.624212],[103.076637,-0.624043],[103.075922,-0.619689],[103.078275,-0.61993],[103.08087,-0.619896],[103.081778,-0.626655],[103.084988,-0.627656],[103.080273,-0.645513],[103.070879,-0.64383],[103.071991,-0.625659]]]}}]}