{"type":"FeatureCollection","features":[{"type":"Feature","properties":{"kdkec":"1403070","nmkec":"TEMPULING","kddesa":"1403070009","nmdesa":"TEMPULING","idsubsls":"1403070009000600","kdsubsls":"00"},"geometry":{"type":"Polygon","coordinates":[[[103.002163,-0.424985],[103.000862,-0.425855],[102.994769,-0.41668],[102.989222,-0.403736],[102.989151,-0.399256],[102.989697,-0.397299],[102.993231,-0.394891],[102.993627,-0.400314],[102.991851,-0.401307],[103.001812,-0.418355],[102.999034,-0.419827],[103.002163,-0.424985]]]}}]}