{"type":"FeatureCollection","features":[{"type":"Feature","properties":{"kdkec":"1403070","nmkec":"TEMPULING","kddesa":"1403070009","nmdesa":"TEMPULING","idsubsls":"1403070009001800","kdsubsls":"00"},"geometry":{"type":"Polygon","coordinates":[[[103.055604,-0.445755],[103.053242,-0.4471],[103.053073,-0.446625],[103.047844,-0.449481],[103.048231,-0.450146],[103.047172,-0.450747],[103.045531,-0.451374],[103.043009,-0.451963],[103.041907,-0.447996],[103.041769,-0.447334],[103.04202,-0.447164],[103.041874,-0.446656],[103.041333,-0.44538],[103.040776,-0.443079],[103.039824,-0.44115],[103.03963,-0.439907],[103.040082,-0.439543],[103.040114,-0.43876],[103.039566,-0.437541],[103.039436,-0.436694],[103.038863,-0.436161],[103.038169,-0.433884],[103.037539,-0.433319],[103.037493,-0.432948],[103.049316,-0.428553],[103.055446,-0.44322],[103.055604,-0.445755]]]}}]}