{"type":"FeatureCollection","features":[{"type":"Feature","properties":{"kdkec":"1403030","nmkec":"ENOK","kddesa":"1403030012","nmdesa":"SUNGAI LOKAN","idsubsls":"1403030012001400","kdsubsls":"00"},"geometry":{"type":"Polygon","coordinates":[[[103.169235,-0.434896],[103.171247,-0.433562],[103.177237,-0.442539],[103.179837,-0.444908],[103.181666,-0.445938],[103.184292,-0.445964],[103.186996,-0.44635],[103.18921,-0.446427],[103.191631,-0.446324],[103.192411,-0.445982],[103.193862,-0.44653],[103.192727,-0.447131],[103.191486,-0.447536],[103.189816,-0.447663],[103.186474,-0.447714],[103.181488,-0.447486],[103.179437,-0.447207],[103.170831,-0.438149],[103.169904,-0.436782],[103.169235,-0.434896]]]}}]}