{"type":"FeatureCollection","features":[{"type":"Feature","properties":{"kdkec":"1403020","nmkec":"RETEH","kddesa":"1403020001","nmdesa":"SANGLAR","idsubsls":"1403020001002000","kdsubsls":"00"},"geometry":{"type":"Polygon","coordinates":[[[103.062263,-0.685408],[103.06497,-0.685788],[103.061681,-0.695595],[103.060573,-0.700234],[103.059629,-0.710631],[103.059057,-0.729583],[103.059632,-0.758587],[103.059623,-0.771408],[103.059346,-0.772333],[103.055614,-0.774002],[103.05481,-0.729637],[103.053604,-0.696667],[103.055612,-0.68945],[103.057397,-0.690447],[103.058254,-0.691159],[103.060436,-0.685322],[103.062263,-0.685408]]]}}]}