{"type":"FeatureCollection","features":[{"type":"Feature","properties":{"kdkec":"1403020","nmkec":"RETEH","kddesa":"1403020001","nmdesa":"SANGLAR","idsubsls":"1403020001003600","kdsubsls":"00"},"geometry":{"type":"Polygon","coordinates":[[[103.098793,-0.690422],[103.097751,-0.695262],[103.09645,-0.702743],[103.096191,-0.705554],[103.09268,-0.71524],[103.092367,-0.720518],[103.092795,-0.758467],[103.092609,-0.7585],[103.090579,-0.758013],[103.089705,-0.713969],[103.092775,-0.697055],[103.092991,-0.690218],[103.098793,-0.690422]]]}}]}