{"type":"FeatureCollection","features":[{"type":"Feature","properties":{"kdkec":"1403020","nmkec":"RETEH","kddesa":"1403020001","nmdesa":"SANGLAR","idsubsls":"1403020001003300","kdsubsls":"00"},"geometry":{"type":"Polygon","coordinates":[[[103.088272,-0.687449],[103.088124,-0.693742],[103.087925,-0.695584],[103.089906,-0.712855],[103.089705,-0.713969],[103.090579,-0.758013],[103.087333,-0.757565],[103.08757,-0.740392],[103.086479,-0.70122],[103.085932,-0.697018],[103.085806,-0.693094],[103.086361,-0.690031],[103.086645,-0.687343],[103.088272,-0.687449]]]}}]}