{"type":"FeatureCollection","features":[{"type":"Feature","properties":{"kdkec":"1403020","nmkec":"RETEH","kddesa":"1403020001","nmdesa":"SANGLAR","idsubsls":"1403020001002200","kdsubsls":"00"},"geometry":{"type":"Polygon","coordinates":[[[103.068968,-0.684584],[103.06477,-0.696053],[103.063172,-0.702838],[103.062256,-0.711237],[103.061088,-0.729767],[103.061949,-0.768023],[103.061496,-0.767955],[103.059623,-0.771408],[103.059632,-0.758587],[103.059057,-0.729583],[103.059629,-0.710631],[103.060573,-0.700234],[103.061681,-0.695595],[103.065031,-0.685605],[103.06667,-0.682807],[103.068968,-0.684584]]]}}]}