{"type":"FeatureCollection","features":[{"type":"Feature","properties":{"kdkec":"1403080","nmkec":"BATANG TUAKA","kddesa":"1403080013","nmdesa":"SIMPANG JAYA","idsubsls":"1403080013000500","kdsubsls":"00"},"geometry":{"type":"Polygon","coordinates":[[[103.159703,-0.257268],[103.159724,-0.25804],[103.160632,-0.258312],[103.160541,-0.260639],[103.153662,-0.26431],[103.152468,-0.261749],[103.150483,-0.256775],[103.156173,-0.252992],[103.158538,-0.254171],[103.159686,-0.255206],[103.159703,-0.257268]]]}}]}