{"type":"FeatureCollection","features":[{"type":"Feature","properties":{"kdkec":"1403080","nmkec":"BATANG TUAKA","kddesa":"1403080013","nmdesa":"SIMPANG JAYA","idsubsls":"1403080013000600","kdsubsls":"00"},"geometry":{"type":"Polygon","coordinates":[[[103.161804,-0.25293],[103.162614,-0.254307],[103.163016,-0.256142],[103.161868,-0.256539],[103.160632,-0.258312],[103.159724,-0.25804],[103.159686,-0.255206],[103.158538,-0.254171],[103.156173,-0.252992],[103.154991,-0.251274],[103.158463,-0.248934],[103.158743,-0.248527],[103.159662,-0.24792],[103.16373,-0.243398],[103.165273,-0.240713],[103.165973,-0.23704],[103.166674,-0.23153],[103.168276,-0.207159],[103.168995,-0.198921],[103.170535,-0.198742],[103.175829,-0.198606],[103.176267,-0.207061],[103.171445,-0.231246],[103.170744,-0.235908],[103.171026,-0.239581],[103.170606,-0.242548],[103.169765,-0.245939],[103.167987,-0.24783],[103.16388,-0.250519],[103.163459,-0.251114],[103.163695,-0.251296],[103.161804,-0.25293]]]}}]}