{"type":"FeatureCollection","features":[{"type":"Feature","properties":{"kdkec":"1403080","nmkec":"BATANG TUAKA","kddesa":"1403080013","nmdesa":"SIMPANG JAYA","idsubsls":"1403080013000200","kdsubsls":"00"},"geometry":{"type":"Polygon","coordinates":[[[103.167283,-0.198922],[103.165275,-0.227748],[103.164482,-0.236059],[103.162853,-0.241571],[103.159267,-0.245846],[103.154887,-0.248717],[103.154507,-0.248195],[103.157059,-0.246447],[103.15826,-0.245153],[103.16137,-0.240562],[103.163499,-0.229112],[103.16553,-0.203136],[103.166068,-0.198923],[103.167283,-0.198922]]]}}]}