{"type":"FeatureCollection","features":[{"type":"Feature","properties":{"kdkec":"1403080","nmkec":"BATANG TUAKA","kddesa":"1403080013","nmdesa":"SIMPANG JAYA","idsubsls":"1403080013000900","kdsubsls":"00"},"geometry":{"type":"Polygon","coordinates":[[[103.150973,-0.239094],[103.150801,-0.238196],[103.151096,-0.237468],[103.15073,-0.236479],[103.150777,-0.235983],[103.150249,-0.235172],[103.150713,-0.234735],[103.150371,-0.234202],[103.15122,-0.233005],[103.152249,-0.229758],[103.153681,-0.224079],[103.155656,-0.198968],[103.158739,-0.199136],[103.158091,-0.215197],[103.154958,-0.23282],[103.151136,-0.239322],[103.150973,-0.239094]]]}}]}