{"type":"FeatureCollection","features":[{"type":"Feature","properties":{"kdkec":"1403080","nmkec":"BATANG TUAKA","kddesa":"1403080013","nmdesa":"SIMPANG JAYA","idsubsls":"1403080013000400","kdsubsls":"00"},"geometry":{"type":"Polygon","coordinates":[[[103.15609,-0.24961],[103.156589,-0.250159],[103.154991,-0.251274],[103.156173,-0.252992],[103.150483,-0.256775],[103.149483,-0.254269],[103.149761,-0.254115],[103.149129,-0.252639],[103.154196,-0.249952],[103.154068,-0.249304],[103.154652,-0.249114],[103.154942,-0.250215],[103.15609,-0.24961]]]}}]}