{"type":"FeatureCollection","features":[{"type":"Feature","properties":{"kdkec":"1403121","nmkec":"PELANGIRAN","kddesa":"1403121002","nmdesa":"SIMPANG KATEMAN","idsubsls":"1403121002000800","kdsubsls":"00"},"geometry":{"type":"Polygon","coordinates":[[[103.361544,0.139605],[103.362475,0.139876],[103.365561,0.141328],[103.367267,0.142414],[103.368402,0.145285],[103.375124,0.15424],[103.377417,0.152745],[103.382305,0.149157],[103.373893,0.134058],[103.373485,0.135057],[103.372622,0.136153],[103.371216,0.136967],[103.369713,0.136909],[103.365037,0.135798],[103.364103,0.135736],[103.363012,0.135915],[103.36163,0.137404],[103.360941,0.139004],[103.360903,0.139285],[103.361544,0.139605]]]}}]}