{"type":"FeatureCollection","features":[{"type":"Feature","properties":{"kdkec":"1403121","nmkec":"PELANGIRAN","kddesa":"1403121002","nmdesa":"SIMPANG KATEMAN","idsubsls":"1403121002001800","kdsubsls":"00"},"geometry":{"type":"Polygon","coordinates":[[[103.326819,0.152068],[103.325706,0.149756],[103.324455,0.14599],[103.323099,0.14278],[103.321818,0.138591],[103.319897,0.118801],[103.314661,0.1198],[103.315395,0.136146],[103.316678,0.146062],[103.319102,0.153316],[103.320819,0.155721],[103.321488,0.154873],[103.324329,0.159017],[103.328373,0.156954],[103.329349,0.156698],[103.326819,0.152068]]]}}]}