{"type":"FeatureCollection","features":[{"type":"Feature","properties":{"kdkec":"1403121","nmkec":"PELANGIRAN","kddesa":"1403121002","nmdesa":"SIMPANG KATEMAN","idsubsls":"1403121002002100","kdsubsls":"00"},"geometry":{"type":"Polygon","coordinates":[[[103.303572,0.159873],[103.305356,0.160056],[103.308638,0.160034],[103.305797,0.140966],[103.301639,0.122896],[103.293114,0.12526],[103.29464,0.15512],[103.296057,0.154892],[103.297637,0.155334],[103.299659,0.156578],[103.302679,0.159553],[103.303572,0.159873]]]}}]}