{"type":"FeatureCollection","features":[{"type":"Feature","properties":{"kdkec":"1403121","nmkec":"PELANGIRAN","kddesa":"1403121002","nmdesa":"SIMPANG KATEMAN","idsubsls":"1403121002002300","kdsubsls":"00"},"geometry":{"type":"Polygon","coordinates":[[[103.394213,0.09875],[103.394207,0.111017],[103.393319,0.121639],[103.391828,0.132534],[103.391579,0.133192],[103.392018,0.133442],[103.393405,0.134994],[103.394549,0.138534],[103.39634,0.139818],[103.399372,0.111162],[103.399805,0.098497],[103.394213,0.09875]]]}}]}