{"type":"FeatureCollection","features":[{"type":"Feature","properties":{"kdkec":"1403021","nmkec":"SUNGAI BATANG","kddesa":"1403021006","nmdesa":"BENTENG UTARA","idsubsls":"1403021006100100","kdsubsls":"00"},"geometry":{"type":"Polygon","coordinates":[[[103.248938,-0.625291],[103.248934,-0.628415],[103.246967,-0.628928],[103.246792,-0.626928],[103.242589,-0.627182],[103.242745,-0.625996],[103.244064,-0.623108],[103.242064,-0.621842],[103.243172,-0.620294],[103.243525,-0.619174],[103.244443,-0.618256],[103.244655,-0.616411],[103.245836,-0.61553],[103.24628,-0.614441],[103.246703,-0.612434],[103.246612,-0.611718],[103.24686,-0.610619],[103.246618,-0.609156],[103.246386,-0.608697],[103.246444,-0.608231],[103.247758,-0.608078],[103.248992,-0.607516],[103.248938,-0.625291]]]}}]}