{"type":"FeatureCollection","features":[{"type":"Feature","properties":{"kdkec":"1403021","nmkec":"SUNGAI BATANG","kddesa":"1403021006","nmdesa":"BENTENG UTARA","idsubsls":"1403021006100400","kdsubsls":"00"},"geometry":{"type":"Polygon","coordinates":[[[103.223386,-0.585929],[103.223805,-0.584923],[103.227183,-0.5859],[103.22746,-0.586803],[103.231188,-0.589275],[103.23164,-0.590159],[103.225955,-0.596195],[103.236057,-0.605231],[103.225502,-0.61667],[103.223726,-0.619384],[103.204423,-0.60013],[103.174392,-0.612763],[103.151186,-0.598299],[103.180587,-0.582468],[103.196657,-0.573425],[103.21604,-0.587305],[103.218737,-0.588328],[103.219518,-0.584773],[103.223386,-0.585929]]]}}]}