{"type":"FeatureCollection","features":[{"type":"Feature","properties":{"kdkec":"1403021","nmkec":"SUNGAI BATANG","kddesa":"1403021006","nmdesa":"BENTENG UTARA","idsubsls":"1403021006100200","kdsubsls":"00"},"geometry":{"type":"Polygon","coordinates":[[[103.238783,-0.627202],[103.237839,-0.626259],[103.237516,-0.625651],[103.234857,-0.622629],[103.232139,-0.625275],[103.232191,-0.625414],[103.230664,-0.626305],[103.223726,-0.619384],[103.225502,-0.61667],[103.239577,-0.601319],[103.240349,-0.601912],[103.240449,-0.602482],[103.240918,-0.603213],[103.243097,-0.605108],[103.244055,-0.605066],[103.244509,-0.606014],[103.245678,-0.606689],[103.246444,-0.608231],[103.246386,-0.608697],[103.246618,-0.609156],[103.24686,-0.610619],[103.246612,-0.611718],[103.246703,-0.612434],[103.246522,-0.613553],[103.245836,-0.61553],[103.244655,-0.616411],[103.244443,-0.618256],[103.243525,-0.619174],[103.243172,-0.620294],[103.239364,-0.62566],[103.238783,-0.627202]]]}}]}