{"type":"FeatureCollection","features":[{"type":"Feature","properties":{"kdkec":"1403021","nmkec":"SUNGAI BATANG","kddesa":"1403021006","nmdesa":"BENTENG UTARA","idsubsls":"1403021006100300","kdsubsls":"00"},"geometry":{"type":"Polygon","coordinates":[[[103.223479,-0.579265],[103.243553,-0.583421],[103.242888,-0.586504],[103.240797,-0.599619],[103.240622,-0.599863],[103.239713,-0.599133],[103.238974,-0.597998],[103.237787,-0.594514],[103.2371,-0.593458],[103.233828,-0.591083],[103.23164,-0.590159],[103.231188,-0.589275],[103.22746,-0.586803],[103.227183,-0.5859],[103.223805,-0.584923],[103.223386,-0.585929],[103.219518,-0.584773],[103.218737,-0.588328],[103.21604,-0.587305],[103.196657,-0.573425],[103.198297,-0.572403],[103.208699,-0.576031],[103.223479,-0.579265]]]}}]}