{"type":"FeatureCollection","features":[{"type":"Feature","properties":{"kdkec":"1403010","nmkec":"KERITANG","kddesa":"1403010012","nmdesa":"PANCUR","idsubsls":"1403010012000600","kdsubsls":"00"},"geometry":{"type":"Polygon","coordinates":[[[102.729887,-0.624708],[102.731106,-0.634219],[102.732103,-0.643701],[102.732363,-0.649325],[102.731659,-0.651022],[102.731259,-0.650439],[102.730504,-0.650952],[102.729248,-0.652546],[102.727675,-0.640863],[102.72682,-0.62708],[102.725767,-0.621869],[102.727363,-0.621518],[102.729887,-0.624708]]]}}]}