{"type":"FeatureCollection","features":[{"type":"Feature","properties":{"kdkec":"1403010","nmkec":"KERITANG","kddesa":"1403010012","nmdesa":"PANCUR","idsubsls":"1403010012001900","kdsubsls":"00"},"geometry":{"type":"Polygon","coordinates":[[[102.719077,-0.667144],[102.719219,-0.666693],[102.719379,-0.658992],[102.720247,-0.659052],[102.720215,-0.656111],[102.722571,-0.655611],[102.722665,-0.659687],[102.722238,-0.667759],[102.722152,-0.67532],[102.721896,-0.679904],[102.720672,-0.691081],[102.715472,-0.69882],[102.715118,-0.697142],[102.716747,-0.690567],[102.71871,-0.680338],[102.719077,-0.667144]]]}}]}