{"type":"FeatureCollection","features":[{"type":"Feature","properties":{"kdkec":"1403010","nmkec":"KERITANG","kddesa":"1403010012","nmdesa":"PANCUR","idsubsls":"1403010012001200","kdsubsls":"00"},"geometry":{"type":"Polygon","coordinates":[[[102.706678,-0.591856],[102.708296,-0.600468],[102.709098,-0.642067],[102.7087,-0.648681],[102.707782,-0.653167],[102.706603,-0.650874],[102.705908,-0.650921],[102.704975,-0.654556],[102.704413,-0.655121],[102.702678,-0.655537],[102.699188,-0.654858],[102.69759,-0.654379],[102.695934,-0.65317],[102.700014,-0.641684],[102.700866,-0.639786],[102.701075,-0.635151],[102.700089,-0.595819],[102.700869,-0.590822],[102.706678,-0.591856]]]}}]}