{"type":"FeatureCollection","features":[{"type":"Feature","properties":{"kdkec":"1403010","nmkec":"KERITANG","kddesa":"1403010012","nmdesa":"PANCUR","idsubsls":"1403010012001700","kdsubsls":"00"},"geometry":{"type":"Polygon","coordinates":[[[102.680416,-0.591947],[102.680353,-0.59465],[102.673166,-0.611546],[102.672272,-0.610491],[102.671779,-0.610356],[102.671073,-0.61052],[102.670166,-0.611157],[102.669679,-0.611032],[102.669394,-0.610372],[102.669471,-0.609636],[102.66991,-0.608694],[102.669708,-0.608082],[102.66813,-0.60545],[102.667236,-0.604861],[102.665542,-0.60455],[102.66357,-0.603659],[102.662018,-0.603367],[102.663545,-0.591483],[102.667159,-0.591555],[102.666771,-0.58225],[102.669307,-0.582325],[102.669387,-0.576613],[102.651831,-0.576369],[102.651685,-0.557106],[102.677302,-0.557124],[102.680564,-0.563664],[102.680416,-0.591947]]]}}]}