{"type":"FeatureCollection","features":[{"type":"Feature","properties":{"kdkec":"1403010","nmkec":"KERITANG","kddesa":"1403010012","nmdesa":"PANCUR","idsubsls":"1403010012000800","kdsubsls":"00"},"geometry":{"type":"Polygon","coordinates":[[[102.725788,-0.650354],[102.726788,-0.654119],[102.726081,-0.654532],[102.722724,-0.655579],[102.719705,-0.656219],[102.719511,-0.653291],[102.720681,-0.645067],[102.721339,-0.634363],[102.717661,-0.622642],[102.716899,-0.611879],[102.715802,-0.606534],[102.719013,-0.606214],[102.723508,-0.626365],[102.724902,-0.634153],[102.725305,-0.645466],[102.725788,-0.650354]]]}}]}