{"type":"FeatureCollection","features":[{"type":"Feature","properties":{"kdkec":"1403010","nmkec":"KERITANG","kddesa":"1403010012","nmdesa":"PANCUR","idsubsls":"1403010012001800","kdsubsls":"00"},"geometry":{"type":"Polygon","coordinates":[[[102.694206,-0.541846],[102.717989,-0.550186],[102.733162,-0.556394],[102.733916,-0.568851],[102.734034,-0.581014],[102.728604,-0.579344],[102.713424,-0.575682],[102.715255,-0.592575],[102.709913,-0.592354],[102.703189,-0.591319],[102.695775,-0.589701],[102.681915,-0.589747],[102.681756,-0.589565],[102.680345,-0.589522],[102.680564,-0.563664],[102.675624,-0.553727],[102.687293,-0.539423],[102.694206,-0.541846]]]}}]}