{"type":"FeatureCollection","features":[{"type":"Feature","properties":{"kdkec":"1403090","nmkec":"GAUNG ANAK SERKA","kddesa":"1403090001","nmdesa":"RAMBAIAN","idsubsls":"1403090001000100","kdsubsls":"00"},"geometry":{"type":"Polygon","coordinates":[[[103.141265,-0.184681],[103.141574,-0.184907],[103.142627,-0.184902],[103.142671,-0.183965],[103.143301,-0.183993],[103.143286,-0.184214],[103.145302,-0.18419],[103.145585,-0.185333],[103.145223,-0.198406],[103.142657,-0.198256],[103.142674,-0.193167],[103.141181,-0.191072],[103.141155,-0.184819],[103.141265,-0.184681]]]}}]}