{"type":"FeatureCollection","features":[{"type":"Feature","properties":{"kdkec":"1403090","nmkec":"GAUNG ANAK SERKA","kddesa":"1403090001","nmdesa":"RAMBAIAN","idsubsls":"1403090001000700","kdsubsls":"00"},"geometry":{"type":"Polygon","coordinates":[[[103.149781,-0.176339],[103.15068,-0.177796],[103.1518,-0.177312],[103.155656,-0.198968],[103.153942,-0.198874],[103.152036,-0.192321],[103.150552,-0.18948],[103.148709,-0.181827],[103.147804,-0.178803],[103.148861,-0.177781],[103.149781,-0.176339]]]}}]}