{"type":"FeatureCollection","features":[{"type":"Feature","properties":{"kdkec":"1403090","nmkec":"GAUNG ANAK SERKA","kddesa":"1403090001","nmdesa":"RAMBAIAN","idsubsls":"1403090001200100","kdsubsls":"00"},"geometry":{"type":"Polygon","coordinates":[[[103.083462,-0.191801],[103.086562,-0.214067],[103.083474,-0.215676],[103.076362,-0.217725],[103.066023,-0.219312],[103.059638,-0.219465],[103.052138,-0.22426],[103.049676,-0.225283],[103.02899,-0.241108],[103.023895,-0.245454],[103.017089,-0.245475],[103.017325,-0.250487],[102.935234,-0.329904],[102.896109,-0.30418],[102.873448,-0.289777],[102.825407,-0.258006],[102.80409,-0.244571],[102.877614,-0.218582],[103.015394,-0.175628],[103.044466,-0.166988],[103.054509,-0.163653],[103.056616,-0.195969],[103.058681,-0.195563],[103.060143,-0.195617],[103.062487,-0.196457],[103.065357,-0.199526],[103.067539,-0.199761],[103.074622,-0.195432],[103.077067,-0.194659],[103.079163,-0.194307],[103.081084,-0.193728],[103.082347,-0.192868],[103.083462,-0.191801]]]}}]}