{"type":"FeatureCollection","features":[{"type":"Feature","properties":{"kdkec":"1403011","nmkec":"KEMUNING","kddesa":"1403011001","nmdesa":"SELENSEN","idsubsls":"1403011001001500","kdsubsls":"00"},"geometry":{"type":"Polygon","coordinates":[[[102.741604,-0.966788],[102.744788,-0.967807],[102.744385,-0.968679],[102.744024,-0.970572],[102.743537,-0.972012],[102.742101,-0.974868],[102.741254,-0.977077],[102.743461,-0.97974],[102.742401,-0.982019],[102.74166,-0.985172],[102.740997,-0.985464],[102.738374,-0.985358],[102.734797,-0.987849],[102.733366,-0.989068],[102.733339,-0.991293],[102.732783,-0.991956],[102.731617,-0.992274],[102.729312,-0.991426],[102.727828,-0.991293],[102.726535,-0.990801],[102.726539,-0.99052],[102.720476,-0.985325],[102.741312,-0.966727],[102.741604,-0.966788]]]}}]}