{"type":"FeatureCollection","features":[{"type":"Feature","properties":{"kdkec":"1403011","nmkec":"KEMUNING","kddesa":"1403011001","nmdesa":"SELENSEN","idsubsls":"1403011001002400","kdsubsls":"00"},"geometry":{"type":"Polygon","coordinates":[[[102.775194,-0.976636],[102.775805,-0.976925],[102.777616,-0.976577],[102.779427,-0.977574],[102.779328,-0.977832],[102.781428,-0.97864],[102.78158,-0.978336],[102.781898,-0.978508],[102.783311,-0.979641],[102.783812,-0.980466],[102.785016,-0.980767],[102.784421,-0.984559],[102.782165,-0.992598],[102.781723,-0.995032],[102.781745,-1.000655],[102.775368,-1.008869],[102.77371,-1.013842],[102.776998,-1.015866],[102.781099,-1.019773],[102.781965,-1.022682],[102.781023,-1.024609],[102.782874,-1.026726],[102.783157,-1.030446],[102.78274,-1.031941],[102.781788,-1.033076],[102.78041,-1.033326],[102.779198,-1.032656],[102.777405,-1.030992],[102.773663,-1.031205],[102.773376,-1.032831],[102.771047,-1.03393],[102.770571,-1.034001],[102.767094,-1.031615],[102.762436,-1.028817],[102.760524,-1.027476],[102.758112,-1.027725],[102.756993,-1.030655],[102.75591,-1.032783],[102.757857,-1.036085],[102.759555,-1.036876],[102.759934,-1.038885],[102.758886,-1.042185],[102.757685,-1.043643],[102.756602,-1.045604],[102.754654,-1.045949],[102.750983,-1.044225],[102.747167,-1.047511],[102.745005,-1.047342],[102.740216,-1.048008],[102.737684,-1.049429],[102.733202,-1.054066],[102.733152,-1.05763],[102.732912,-1.059675],[102.734156,-1.064711],[102.734937,-1.069746],[102.734852,-1.072377],[102.733233,-1.075725],[102.731034,-1.077601],[102.729037,-1.07864],[102.726744,-1.078136],[102.723668,-1.076674],[102.722421,-1.075669],[102.718799,-1.074195],[102.716981,-1.074289],[102.71352,-1.078329],[102.711605,-1.080971],[102.709751,-1.082464],[102.707636,-1.082678],[102.705391,-1.081875],[102.700352,-1.083198],[102.694874,-1.08494],[102.693565,-1.086578],[102.690987,-1.087245],[102.689859,-1.086156],[102.688291,-1.085449],[102.686961,-1.08436],[102.685666,-1.084515],[102.685,-1.085901],[102.685325,-1.095313],[102.683626,-1.095814],[102.681844,-1.094928],[102.679682,-1.094472],[102.676486,-1.09478],[102.674655,-1.096417],[102.672369,-1.10255],[102.671567,-1.110024],[102.66982,-1.111362],[102.66749,-1.112448],[102.663295,-1.114],[102.658483,-1.114785],[102.654074,-1.115822],[102.651756,-1.117016],[102.649577,-1.118523],[102.648745,-1.11858],[102.648161,-1.120532],[102.64681,-1.122276],[102.641664,-1.121011],[102.638335,-1.117297],[102.637793,-1.11589],[102.634206,-1.113809],[102.63384,-1.113091],[102.630353,-1.109977],[102.628758,-1.107267],[102.626363,-1.101674],[102.625937,-1.101167],[102.627966,-1.10069],[102.628793,-1.101359],[102.637023,-1.085962],[102.641081,-1.079278],[102.647049,-1.070923],[102.656836,-1.06233],[102.664475,-1.053259],[102.672443,-1.042606],[102.677127,-1.034878],[102.683333,-1.027716],[102.688346,-1.021271],[102.692428,-1.014611],[102.694338,-1.012129],[102.694911,-1.010601],[102.696439,-1.010028],[102.697012,-1.012129],[102.699494,-1.013083],[102.702932,-1.012702],[102.705605,-1.012702],[102.705796,-1.013847],[102.708088,-1.01442],[102.71057,-1.013274],[102.711239,-1.011842],[102.712643,-1.011985],[102.714695,-1.012548],[102.715886,-1.012395],[102.719299,-1.01143],[102.72227,-1.010231],[102.725997,-1.009132],[102.726485,-1.009329],[102.727506,-1.0102],[102.729007,-1.011861],[102.730393,-1.012764],[102.732358,-1.012362],[102.734219,-1.012332],[102.735506,-1.012634],[102.737872,-1.012864],[102.73873,-1.011937],[102.739787,-1.008904],[102.74135,-1.006714],[102.741985,-1.006399],[102.743027,-1.006445],[102.743617,-1.006882],[102.744574,-1.007119],[102.748749,-1.005932],[102.749415,-1.005427],[102.751039,-1.004967],[102.753114,-1.002953],[102.75411,-1.003014],[102.754585,-1.003412],[102.755887,-1.003596],[102.756821,-1.00293],[102.757848,-1.001337],[102.758392,-1.000877],[102.759456,-1.000617],[102.761706,-0.999278],[102.763228,-0.999382],[102.763787,-0.999039],[102.764848,-0.997427],[102.767115,-0.996645],[102.76952,-0.995083],[102.771006,-0.995068],[102.77263,-0.994608],[102.773879,-0.993226],[102.774206,-0.991373],[102.774438,-0.988342],[102.773047,-0.981934],[102.773096,-0.97998],[102.773668,-0.977206],[102.77433,-0.976304],[102.775194,-0.976636]]]}}]}