{"type":"FeatureCollection","features":[{"type":"Feature","properties":{"kdkec":"1403011","nmkec":"KEMUNING","kddesa":"1403011001","nmdesa":"SELENSEN","idsubsls":"1403011001002100","kdsubsls":"00"},"geometry":{"type":"Polygon","coordinates":[[[102.744788,-0.967807],[102.745077,-0.967946],[102.746571,-0.967975],[102.748327,-0.969014],[102.749262,-0.969379],[102.748551,-0.970616],[102.746491,-0.976459],[102.741552,-0.977182],[102.74141,-0.977308],[102.741273,-0.977197],[102.741306,-0.976913],[102.742101,-0.974868],[102.743537,-0.972012],[102.744024,-0.970572],[102.744385,-0.968679],[102.744788,-0.967807]]]}}]}