{"type":"FeatureCollection","features":[{"type":"Feature","properties":{"kdkec":"1403011","nmkec":"KEMUNING","kddesa":"1403011001","nmdesa":"SELENSEN","idsubsls":"1403011001001600","kdsubsls":"00"},"geometry":{"type":"Polygon","coordinates":[[[102.742437,-0.966989],[102.741094,-0.966681],[102.74029,-0.966159],[102.739966,-0.965657],[102.739365,-0.963819],[102.739097,-0.962356],[102.73719,-0.959748],[102.73811,-0.959254],[102.744877,-0.953089],[102.745423,-0.953729],[102.745632,-0.954236],[102.746132,-0.954433],[102.747019,-0.954234],[102.747415,-0.954405],[102.74498,-0.959297],[102.744794,-0.96042],[102.744951,-0.960973],[102.744653,-0.962359],[102.743085,-0.967185],[102.742437,-0.966989]]]}}]}