{"type":"FeatureCollection","features":[{"type":"Feature","properties":{"kdkec":"1403011","nmkec":"KEMUNING","kddesa":"1403011001","nmdesa":"SELENSEN","idsubsls":"1403011001001400","kdsubsls":"00"},"geometry":{"type":"Polygon","coordinates":[[[102.752343,-0.970986],[102.751225,-0.972601],[102.749914,-0.973955],[102.749751,-0.974487],[102.750163,-0.975642],[102.749653,-0.977729],[102.749031,-0.978486],[102.746491,-0.976459],[102.748551,-0.970616],[102.749262,-0.969379],[102.750121,-0.96978],[102.751808,-0.970218],[102.752343,-0.970986]]]}}]}