{"type":"FeatureCollection","features":[{"type":"Feature","properties":{"kdkec":"1403051","nmkec":"CONCONG","kddesa":"1403051002","nmdesa":"KAMPUNG BARU","idsubsls":"1403051002100300","kdsubsls":"00"},"geometry":{"type":"Polygon","coordinates":[[[103.581084,-0.265188],[103.586662,-0.277116],[103.585878,-0.303473],[103.563575,-0.306867],[103.562887,-0.304399],[103.561787,-0.297081],[103.561433,-0.2933],[103.557172,-0.283512],[103.544437,-0.259387],[103.548339,-0.257855],[103.548496,-0.258794],[103.553315,-0.257542],[103.555921,-0.256222],[103.558628,-0.254466],[103.559342,-0.255658],[103.560309,-0.255129],[103.561664,-0.257164],[103.565222,-0.254696],[103.564561,-0.253841],[103.566808,-0.252165],[103.564813,-0.249073],[103.568559,-0.247092],[103.572669,-0.252515],[103.574886,-0.253657],[103.575413,-0.253616],[103.581084,-0.265188]]]}}]}