{"type":"FeatureCollection","features":[{"type":"Feature","properties":{"kdkec":"1403051","nmkec":"CONCONG","kddesa":"1403051002","nmdesa":"KAMPUNG BARU","idsubsls":"1403051002100100","kdsubsls":"00"},"geometry":{"type":"Polygon","coordinates":[[[103.544489,-0.231527],[103.549417,-0.24189],[103.553957,-0.250205],[103.543707,-0.254949],[103.542939,-0.253689],[103.534755,-0.260158],[103.526876,-0.249053],[103.518444,-0.238635],[103.526682,-0.228274],[103.531348,-0.223034],[103.539088,-0.218049],[103.539832,-0.217886],[103.544489,-0.231527]]]}}]}