{"type":"FeatureCollection","features":[{"type":"Feature","properties":{"kdkec":"1403051","nmkec":"CONCONG","kddesa":"1403051002","nmdesa":"KAMPUNG BARU","idsubsls":"1403051002100200","kdsubsls":"00"},"geometry":{"type":"Polygon","coordinates":[[[103.601268,-0.230648],[103.600499,-0.230758],[103.598881,-0.231515],[103.596133,-0.23237],[103.589759,-0.234762],[103.578397,-0.244809],[103.574001,-0.251299],[103.572669,-0.252515],[103.568559,-0.247092],[103.56558,-0.240228],[103.558376,-0.244173],[103.550506,-0.22791],[103.544489,-0.231527],[103.539832,-0.217886],[103.547848,-0.216131],[103.551278,-0.216562],[103.556407,-0.216103],[103.564975,-0.21835],[103.584812,-0.219422],[103.590516,-0.2202],[103.591156,-0.220531],[103.602811,-0.221668],[103.60425,-0.230179],[103.602697,-0.230562],[103.601268,-0.230648]]]}}]}