{"type":"FeatureCollection","features":[{"type":"Feature","properties":{"kdkec":"1403071","nmkec":"KEMPAS","kddesa":"1403071003","nmdesa":"KEMPAS JAYA","idsubsls":"1403071003003900","kdsubsls":"00"},"geometry":{"type":"Polygon","coordinates":[[[102.772069,-0.558407],[102.767993,-0.556861],[102.768236,-0.555401],[102.768781,-0.554634],[102.769165,-0.553389],[102.770679,-0.551376],[102.771233,-0.549982],[102.772594,-0.548535],[102.773217,-0.547418],[102.773743,-0.546956],[102.774151,-0.54561],[102.774105,-0.544971],[102.780946,-0.534164],[102.784735,-0.536415],[102.772069,-0.558407]]]}}]}