{"type":"FeatureCollection","features":[{"type":"Feature","properties":{"kdkec":"1403071","nmkec":"KEMPAS","kddesa":"1403071003","nmdesa":"KEMPAS JAYA","idsubsls":"1403071003003700","kdsubsls":"00"},"geometry":{"type":"Polygon","coordinates":[[[102.802763,-0.514973],[102.793185,-0.531029],[102.793804,-0.531413],[102.791633,-0.535291],[102.790904,-0.534879],[102.79046,-0.535635],[102.789835,-0.535314],[102.790073,-0.534906],[102.788456,-0.533945],[102.790101,-0.53106],[102.784583,-0.527955],[102.786684,-0.524368],[102.788178,-0.523528],[102.790856,-0.524439],[102.792915,-0.524498],[102.793227,-0.524377],[102.793279,-0.523552],[102.793731,-0.522553],[102.794159,-0.520112],[102.79499,-0.519289],[102.795997,-0.517387],[102.796883,-0.517031],[102.799765,-0.516823],[102.800147,-0.51664],[102.800165,-0.515885],[102.800521,-0.515486],[102.801102,-0.515364],[102.801953,-0.514904],[102.802763,-0.514973]]]}}]}