{"type":"FeatureCollection","features":[{"type":"Feature","properties":{"kdkec":"1403090","nmkec":"GAUNG ANAK SERKA","kddesa":"1403090009","nmdesa":"KELUMPANG","idsubsls":"1403090009001200","kdsubsls":"00"},"geometry":{"type":"Polygon","coordinates":[[[103.151447,-0.177515],[103.15068,-0.177796],[103.149781,-0.176339],[103.149912,-0.173722],[103.149682,-0.169612],[103.150051,-0.167034],[103.15072,-0.166391],[103.151522,-0.166011],[103.152131,-0.165931],[103.154117,-0.166134],[103.156338,-0.166731],[103.158441,-0.167703],[103.158919,-0.168045],[103.159812,-0.16925],[103.161785,-0.172955],[103.163037,-0.174236],[103.163589,-0.174472],[103.163423,-0.175991],[103.162418,-0.17593],[103.161124,-0.175452],[103.158816,-0.175492],[103.156373,-0.175938],[103.156004,-0.175719],[103.156081,-0.175498],[103.154549,-0.175332],[103.153503,-0.17553],[103.151447,-0.177515]]]}}]}