{"type":"FeatureCollection","features":[{"type":"Feature","properties":{"kdkec":"1403090","nmkec":"GAUNG ANAK SERKA","kddesa":"1403090009","nmdesa":"KELUMPANG","idsubsls":"1403090009000400","kdsubsls":"00"},"geometry":{"type":"Polygon","coordinates":[[[103.158441,-0.167703],[103.158548,-0.166932],[103.158883,-0.166886],[103.157848,-0.1621],[103.155844,-0.141198],[103.157016,-0.130852],[103.159568,-0.129103],[103.160662,-0.167782],[103.160017,-0.168582],[103.159946,-0.168503],[103.159535,-0.168826],[103.158919,-0.168045],[103.158441,-0.167703]]]}}]}