{"type":"FeatureCollection","features":[{"type":"Feature","properties":{"kdkec":"1403090","nmkec":"GAUNG ANAK SERKA","kddesa":"1403090009","nmdesa":"KELUMPANG","idsubsls":"1403090009000300","kdsubsls":"00"},"geometry":{"type":"Polygon","coordinates":[[[103.167881,-0.163983],[103.165443,-0.16698],[103.165225,-0.167767],[103.165085,-0.170103],[103.163207,-0.169706],[103.1628,-0.170349],[103.160929,-0.169039],[103.160764,-0.169175],[103.160517,-0.168944],[103.15992,-0.169428],[103.159535,-0.168826],[103.159946,-0.168503],[103.160017,-0.168582],[103.160662,-0.167782],[103.159568,-0.129103],[103.160896,-0.128182],[103.162814,-0.138403],[103.162746,-0.150733],[103.165025,-0.158786],[103.167881,-0.163983]]]}}]}