{"type":"FeatureCollection","features":[{"type":"Feature","properties":{"kdkec":"1403110","nmkec":"MANDAH","kddesa":"1403110011","nmdesa":"BOLAK RAYA","idsubsls":"1403110011000400","kdsubsls":"00"},"geometry":{"type":"Polygon","coordinates":[[[103.516056,-0.016073],[103.513863,-0.017718],[103.511492,-0.016323],[103.517268,-0.010972],[103.518559,-0.010703],[103.520536,-0.009126],[103.520748,-0.009464],[103.520606,-0.009601],[103.520723,-0.009761],[103.520885,-0.009646],[103.521224,-0.010045],[103.521646,-0.009648],[103.522796,-0.01086],[103.524352,-0.013834],[103.525247,-0.014553],[103.522249,-0.018666],[103.521905,-0.018083],[103.519346,-0.017535],[103.517884,-0.01589],[103.516056,-0.016073]]]}}]}