{"type":"FeatureCollection","features":[{"type":"Feature","properties":{"kdkec":"1403110","nmkec":"MANDAH","kddesa":"1403110011","nmdesa":"BOLAK RAYA","idsubsls":"1403110011000800","kdsubsls":"00"},"geometry":{"type":"Polygon","coordinates":[[[103.546401,-0.026025],[103.542304,-0.026001],[103.543368,-0.024338],[103.545242,-0.023097],[103.545995,-0.022276],[103.547996,-0.016673],[103.54748,-0.014238],[103.55069,-0.015693],[103.552616,-0.017662],[103.552836,-0.019558],[103.552748,-0.022057],[103.551675,-0.024511],[103.548618,-0.025922],[103.546401,-0.026025]]]}}]}