{"type":"FeatureCollection","features":[{"type":"Feature","properties":{"kdkec":"1403070","nmkec":"TEMPULING","kddesa":"1403070016","nmdesa":"TANJUNG PIDADA","idsubsls":"1403070016000900","kdsubsls":"00"},"geometry":{"type":"Polygon","coordinates":[[[103.023771,-0.485862],[103.016134,-0.491036],[103.016134,-0.489397],[103.015069,-0.484973],[103.014261,-0.483811],[103.013034,-0.481486],[103.010225,-0.478256],[103.006479,-0.474866],[103.005704,-0.473929],[103.003702,-0.469247],[103.002136,-0.466345],[102.99808,-0.46068],[103.002007,-0.457082],[103.018258,-0.476171],[103.023771,-0.485862]]]}}]}