{"type":"FeatureCollection","features":[{"type":"Feature","properties":{"kdkec":"1403121","nmkec":"PELANGIRAN","kddesa":"1403121004","nmdesa":"ROTAN SEMELUR","idsubsls":"1403121004001000","kdsubsls":"00"},"geometry":{"type":"Polygon","coordinates":[[[103.538217,0.244946],[103.545043,0.247837],[103.548932,0.2415],[103.550798,0.238004],[103.545461,0.234304],[103.544765,0.235752],[103.54393,0.236267],[103.543735,0.237644],[103.543083,0.23884],[103.542476,0.239465],[103.542177,0.239573],[103.541343,0.239374],[103.541071,0.239537],[103.53954,0.241721],[103.538489,0.242228],[103.538145,0.243479],[103.538217,0.244946]]]}}]}