{"type":"FeatureCollection","features":[{"type":"Feature","properties":{"kdkec":"1403120","nmkec":"KATEMAN","kddesa":"1403120002","nmdesa":"KUALA SELAT","idsubsls":"1403120002002600","kdsubsls":"00"},"geometry":{"type":"Polygon","coordinates":[[[103.714578,0.161337],[103.74172,0.162253],[103.75753,0.164983],[103.766144,0.165047],[103.766412,0.162724],[103.767284,0.16087],[103.766957,0.151329],[103.767512,0.150012],[103.766993,0.149886],[103.766391,0.149039],[103.764883,0.149357],[103.764347,0.149251],[103.763791,0.148874],[103.763692,0.14847],[103.762541,0.148212],[103.761675,0.148146],[103.759002,0.148444],[103.758274,0.148053],[103.757646,0.147928],[103.75545,0.148139],[103.7532,0.147881],[103.751805,0.14802],[103.749549,0.147518],[103.7481,0.147577],[103.747326,0.14726],[103.74661,0.147475],[103.745413,0.147336],[103.745055,0.147131],[103.744156,0.146056],[103.742681,0.145963],[103.742383,0.145493],[103.740683,0.145096],[103.736423,0.143195],[103.728239,0.138121],[103.724681,0.135263],[103.719997,0.133464],[103.715732,0.132279],[103.712301,0.131935],[103.712518,0.161314],[103.714578,0.161337]]]}}]}