{"type":"FeatureCollection","features":[{"type":"Feature","properties":{"kdkec":"1403120","nmkec":"KATEMAN","kddesa":"1403120002","nmdesa":"KUALA SELAT","idsubsls":"1403120002200100","kdsubsls":"00"},"geometry":{"type":"Polygon","coordinates":[[[103.765443,0.174377],[103.765403,0.172347],[103.765737,0.171379],[103.765986,0.169037],[103.765839,0.16744],[103.766144,0.165047],[103.763097,0.165024],[103.762241,0.172097],[103.762641,0.180028],[103.763208,0.182996],[103.765041,0.182609],[103.765081,0.180353],[103.765503,0.175341],[103.765443,0.174377]]]}}]}