{"type":"FeatureCollection","features":[{"type":"Feature","properties":{"kdkec":"1403120","nmkec":"KATEMAN","kddesa":"1403120002","nmdesa":"KUALA SELAT","idsubsls":"1403120002001300","kdsubsls":"00"},"geometry":{"type":"Polygon","coordinates":[[[103.75176,0.224338],[103.747355,0.197006],[103.748041,0.192327],[103.748014,0.190243],[103.747705,0.187755],[103.742186,0.188645],[103.741177,0.188652],[103.741345,0.188836],[103.741493,0.189806],[103.742423,0.190268],[103.748659,0.232199],[103.751425,0.224871],[103.75176,0.224338]]]}}]}