{"type":"FeatureCollection","features":[{"type":"Feature","properties":{"kdkec":"1403120","nmkec":"KATEMAN","kddesa":"1403120002","nmdesa":"KUALA SELAT","idsubsls":"1403120002002100","kdsubsls":"00"},"geometry":{"type":"Polygon","coordinates":[[[103.724472,0.187599],[103.726402,0.187124],[103.726195,0.187057],[103.726164,0.161708],[103.712518,0.161314],[103.712676,0.182596],[103.712842,0.185472],[103.71556,0.186459],[103.717116,0.186313],[103.717843,0.186796],[103.720657,0.187521],[103.72147,0.187533],[103.722905,0.187841],[103.724472,0.187599]]]}}]}