{"type":"FeatureCollection","features":[{"type":"Feature","properties":{"kdkec":"1403050","nmkec":"KUALA INDRAGIRI","kddesa":"1403050002","nmdesa":"SUNGAI BULUH","idsubsls":"1403050002000600","kdsubsls":"00"},"geometry":{"type":"Polygon","coordinates":[[[103.595338,-0.418924],[103.594974,-0.418072],[103.594389,-0.41838],[103.593894,-0.417528],[103.59424,-0.417357],[103.594144,-0.417143],[103.594474,-0.416959],[103.594604,-0.417209],[103.595341,-0.416861],[103.596247,-0.418412],[103.595338,-0.418924]]]}}]}