{"type":"FeatureCollection","features":[{"type":"Feature","properties":{"kdkec":"1403071","nmkec":"KEMPAS","kddesa":"1403071003","nmdesa":"KEMPAS JAYA","idsubsls":"1403071003000100","kdsubsls":"00"},"geometry":{"type":"Polygon","coordinates":[[[102.863877,-0.549148],[102.865951,-0.570803],[102.865061,-0.571236],[102.861559,-0.54901],[102.860683,-0.546049],[102.860053,-0.544641],[102.85981,-0.542013],[102.859538,-0.541527],[102.861039,-0.540751],[102.863639,-0.546666],[102.863877,-0.549148]]]}}]}