{"type":"FeatureCollection","features":[{"type":"Feature","properties":{"kdkec":"1403071","nmkec":"KEMPAS","kddesa":"1403071003","nmdesa":"KEMPAS JAYA","idsubsls":"1403071003004100","kdsubsls":"00"},"geometry":{"type":"Polygon","coordinates":[[[102.788456,-0.533945],[102.790073,-0.534906],[102.789835,-0.535314],[102.79046,-0.535635],[102.790904,-0.534879],[102.791633,-0.535291],[102.790323,-0.537631],[102.789541,-0.5372],[102.789083,-0.537939],[102.78812,-0.537341],[102.788373,-0.536935],[102.786351,-0.535806],[102.787703,-0.533497],[102.788456,-0.533945]]]}}]}