{"type":"FeatureCollection","features":[{"type":"Feature","properties":{"kdkec":"1403071","nmkec":"KEMPAS","kddesa":"1403071003","nmdesa":"KEMPAS JAYA","idsubsls":"1403071003002600","kdsubsls":"00"},"geometry":{"type":"Polygon","coordinates":[[[102.820769,-0.528745],[102.819387,-0.531497],[102.818009,-0.536781],[102.817024,-0.539134],[102.818958,-0.540773],[102.817854,-0.542425],[102.813905,-0.540096],[102.812295,-0.540316],[102.809779,-0.539872],[102.810555,-0.538476],[102.807657,-0.536879],[102.813316,-0.52729],[102.814494,-0.527692],[102.820769,-0.528745]]]}}]}