{"type":"FeatureCollection","features":[{"type":"Feature","properties":{"kdkec":"1403030","nmkec":"ENOK","kddesa":"1403030007","nmdesa":"ENOK","idsubsls":"1403030007100100","kdsubsls":"00"},"geometry":{"type":"Polygon","coordinates":[[[103.234778,-0.521584],[103.231319,-0.520028],[103.22956,-0.51944],[103.228066,-0.518963],[103.224029,-0.518398],[103.222668,-0.517675],[103.220631,-0.508957],[103.219692,-0.508318],[103.218837,-0.508281],[103.217473,-0.508837],[103.21342,-0.513777],[103.211432,-0.514847],[103.207782,-0.516226],[103.203272,-0.518418],[103.20174,-0.518319],[103.200162,-0.516929],[103.197351,-0.511821],[103.196477,-0.511017],[103.197665,-0.509041],[103.200778,-0.501349],[103.236756,-0.501137],[103.236552,-0.506555],[103.234778,-0.521584]]]}}]}