{"type":"FeatureCollection","features":[{"type":"Feature","properties":{"kdkec":"1403030","nmkec":"ENOK","kddesa":"1403030007","nmdesa":"ENOK","idsubsls":"1403030007002200","kdsubsls":"00"},"geometry":{"type":"Polygon","coordinates":[[[103.181884,-0.512317],[103.181321,-0.515402],[103.180575,-0.515305],[103.179548,-0.514962],[103.176143,-0.511579],[103.174494,-0.510776],[103.174476,-0.510432],[103.178182,-0.511578],[103.179687,-0.511961],[103.179724,-0.511786],[103.180423,-0.511903],[103.181884,-0.512317]]]}}]}