{"type":"FeatureCollection","features":[{"type":"Feature","properties":{"kdkec":"1403030","nmkec":"ENOK","kddesa":"1403030007","nmdesa":"ENOK","idsubsls":"1403030007000700","kdsubsls":"00"},"geometry":{"type":"Polygon","coordinates":[[[103.19151,-0.505504],[103.191796,-0.504237],[103.192967,-0.504235],[103.192972,-0.503862],[103.193408,-0.50387],[103.193396,-0.503583],[103.194011,-0.503578],[103.193927,-0.506614],[103.192702,-0.506431],[103.192805,-0.506001],[103.191442,-0.50581],[103.19151,-0.505504]]]}}]}