{"type":"FeatureCollection","features":[{"type":"Feature","properties":{"kdkec":"1403030","nmkec":"ENOK","kddesa":"1403030007","nmdesa":"ENOK","idsubsls":"1403030007001200","kdsubsls":"00"},"geometry":{"type":"Polygon","coordinates":[[[103.189177,-0.504349],[103.189348,-0.507362],[103.189626,-0.508238],[103.189618,-0.508836],[103.18853,-0.50913],[103.188092,-0.509473],[103.187774,-0.50798],[103.187916,-0.507931],[103.187844,-0.507165],[103.188056,-0.507141],[103.187816,-0.505743],[103.187804,-0.504278],[103.18629,-0.504318],[103.186161,-0.501436],[103.188933,-0.501419],[103.189177,-0.504349]]]}}]}