{"type":"FeatureCollection","features":[{"type":"Feature","properties":{"kdkec":"1403020","nmkec":"RETEH","kddesa":"1403020017","nmdesa":"TANJUNG LABUH","idsubsls":"1403020017000100","kdsubsls":"00"},"geometry":{"type":"Polygon","coordinates":[[[103.371013,-0.76423],[103.371379,-0.764277],[103.371221,-0.764578],[103.371432,-0.765053],[103.372045,-0.765665],[103.37376,-0.764673],[103.375156,-0.767767],[103.371528,-0.769365],[103.370765,-0.766893],[103.371547,-0.766493],[103.371758,-0.766219],[103.371716,-0.765775],[103.371294,-0.765519],[103.370787,-0.76548],[103.369918,-0.764671],[103.370371,-0.763947],[103.371013,-0.76423]]]}}]}