{"type":"FeatureCollection","features":[{"type":"Feature","properties":{"kdkec":"1403050","nmkec":"KUALA INDRAGIRI","kddesa":"1403050009","nmdesa":"SAPAT","idsubsls":"1403050009001000","kdsubsls":"00"},"geometry":{"type":"Polygon","coordinates":[[[103.374798,-0.335496],[103.373868,-0.341852],[103.373248,-0.349604],[103.373093,-0.355185],[103.373433,-0.359843],[103.368298,-0.359314],[103.363594,-0.358498],[103.351629,-0.354727],[103.340965,-0.350011],[103.335465,-0.346201],[103.329585,-0.339864],[103.333249,-0.335496],[103.33945,-0.327279],[103.343171,-0.321697],[103.346117,-0.316271],[103.350923,-0.31162],[103.352318,-0.311775],[103.353868,-0.311],[103.354954,-0.308674],[103.356194,-0.307589],[103.358968,-0.307381],[103.363946,-0.313481],[103.366892,-0.316426],[103.368132,-0.318597],[103.374047,-0.323768],[103.373093,-0.325573],[103.373093,-0.329139],[103.374798,-0.335496]]]}}]}