{"type":"FeatureCollection","features":[{"type":"Feature","properties":{"kdkec":"1403110","nmkec":"MANDAH","kddesa":"1403110005","nmdesa":"IGAL","idsubsls":"1403110005001700","kdsubsls":"00"},"geometry":{"type":"Polygon","coordinates":[[[103.401104,0.065574],[103.401586,0.065058],[103.395933,0.060854],[103.391098,0.06548],[103.392347,0.067032],[103.388447,0.071077],[103.393333,0.076948],[103.39345,0.076856],[103.396237,0.080909],[103.403146,0.073781],[103.400664,0.072127],[103.401323,0.071145],[103.402166,0.070405],[103.399843,0.068336],[103.400655,0.066937],[103.400069,0.066629],[103.400187,0.066424],[103.400465,0.066565],[103.400688,0.066339],[103.401104,0.065574]]]}}]}