{"type":"FeatureCollection","features":[{"type":"Feature","properties":{"kdkec":"1403110","nmkec":"MANDAH","kddesa":"1403110005","nmdesa":"IGAL","idsubsls":"1403110005001900","kdsubsls":"00"},"geometry":{"type":"Polygon","coordinates":[[[103.409094,0.066145],[103.408643,0.066225],[103.407125,0.067443],[103.405903,0.067935],[103.405237,0.068506],[103.403967,0.068827],[103.402808,0.069491],[103.402166,0.070405],[103.401323,0.071145],[103.400664,0.072127],[103.403146,0.073781],[103.396237,0.080909],[103.400163,0.088021],[103.399372,0.111162],[103.407442,0.110651],[103.40752,0.103492],[103.407321,0.075954],[103.408146,0.068886],[103.409094,0.066145]]]}}]}