{"type":"FeatureCollection","features":[{"type":"Feature","properties":{"kdkec":"1403110","nmkec":"MANDAH","kddesa":"1403110005","nmdesa":"IGAL","idsubsls":"1403110005002600","kdsubsls":"00"},"geometry":{"type":"Polygon","coordinates":[[[103.461432,0.047025],[103.462213,0.04652],[103.462599,0.047132],[103.464733,0.045953],[103.461608,0.042098],[103.462961,0.04105],[103.462606,0.040657],[103.466844,0.037467],[103.459616,0.029884],[103.459289,0.029124],[103.459169,0.029364],[103.457372,0.029364],[103.456025,0.030246],[103.455575,0.03161],[103.454227,0.034306],[103.451981,0.034306],[103.449734,0.035205],[103.449734,0.0379],[103.448386,0.040147],[103.45635,0.048015],[103.458766,0.048473],[103.459291,0.04905],[103.461821,0.047674],[103.461432,0.047025]]]}}]}