{"type":"FeatureCollection","features":[{"type":"Feature","properties":{"kdkec":"1403120","nmkec":"KATEMAN","kddesa":"1403120001","nmdesa":"SUNGAI SIMBAR","idsubsls":"1403120001001000","kdsubsls":"00"},"geometry":{"type":"Polygon","coordinates":[[[103.754372,0.096043],[103.754737,0.095545],[103.755057,0.095706],[103.754889,0.096028],[103.755474,0.096034],[103.768882,0.068654],[103.762676,0.066802],[103.759468,0.075097],[103.751703,0.093882],[103.75259,0.094291],[103.752415,0.094692],[103.753324,0.095161],[103.752894,0.096034],[103.753718,0.096083],[103.754163,0.096278],[103.754372,0.096043]]]}}]}