{"type":"FeatureCollection","features":[{"type":"Feature","properties":{"kdkec":"1403120","nmkec":"KATEMAN","kddesa":"1403120001","nmdesa":"SUNGAI SIMBAR","idsubsls":"1403120001003200","kdsubsls":"00"},"geometry":{"type":"Polygon","coordinates":[[[103.751619,0.094481],[103.751843,0.094651],[103.752146,0.094094],[103.751703,0.093882],[103.759468,0.075097],[103.762676,0.066802],[103.753561,0.064175],[103.749942,0.06335],[103.743073,0.07728],[103.743781,0.083218],[103.743737,0.085414],[103.742736,0.090291],[103.745038,0.091186],[103.747091,0.092764],[103.747781,0.092788],[103.749201,0.093822],[103.751077,0.094599],[103.751224,0.094275],[103.751619,0.094481]]]}}]}