{"type":"FeatureCollection","features":[{"type":"Feature","properties":{"kdkec":"1403011","nmkec":"KEMUNING","kddesa":"1403011012","nmdesa":"SEKAYAN","idsubsls":"1403011012000900","kdsubsls":"00"},"geometry":{"type":"Polygon","coordinates":[[[102.72483,-0.795846],[102.725447,-0.796966],[102.726366,-0.797685],[102.721046,-0.802993],[102.730244,-0.811604],[102.72514,-0.811374],[102.72461,-0.811069],[102.722567,-0.811226],[102.72132,-0.811894],[102.719602,-0.813142],[102.71803,-0.812778],[102.717078,-0.812788],[102.716223,-0.813033],[102.714348,-0.8127],[102.713719,-0.813092],[102.713444,-0.813525],[102.711778,-0.813448],[102.711594,-0.810002],[102.710307,-0.8069],[102.709281,-0.805712],[102.710033,-0.803672],[102.709098,-0.802896],[102.722651,-0.794259],[102.724012,-0.794548],[102.72483,-0.795846]]]}}]}