{"type":"FeatureCollection","features":[{"type":"Feature","properties":{"kdkec":"1403123","nmkec":"PULAU BURUNG","kddesa":"1403123011","nmdesa":"KERAMAT JAYA","idsubsls":"1403123011100100","kdsubsls":"00"},"geometry":{"type":"Polygon","coordinates":[[[103.290821,0.392],[103.317715,0.423556],[103.335967,0.40932],[103.307313,0.377432],[103.290821,0.392]],[[103.321446,0.39563],[103.323336,0.397844],[103.319615,0.401434],[103.31753,0.399217],[103.316997,0.399701],[103.314693,0.397269],[103.319205,0.393003],[103.321446,0.39563]]]}}]}