{"type":"FeatureCollection","features":[{"type":"Feature","properties":{"kdkec":"1403110","nmkec":"MANDAH","kddesa":"1403110009","nmdesa":"BEKAWAN","idsubsls":"1403110009001500","kdsubsls":"00"},"geometry":{"type":"Polygon","coordinates":[[[103.737317,0.019711],[103.737215,0.019042],[103.738081,0.018439],[103.738075,0.015771],[103.737681,0.014877],[103.73797,0.012589],[103.737641,0.012287],[103.737365,0.011696],[103.736852,0.011433],[103.737326,0.010539],[103.737523,0.009329],[103.737983,0.008869],[103.738127,0.008409],[103.737707,0.00716],[103.738112,0.004523],[103.725152,0.001871],[103.723102,0.016068],[103.726702,0.017138],[103.730938,0.017764],[103.730694,0.019078],[103.731229,0.019187],[103.731357,0.018621],[103.732127,0.018861],[103.736807,0.019179],[103.736902,0.019683],[103.737317,0.019711]]]}}]}