{"type":"FeatureCollection","features":[{"type":"Feature","properties":{"kdkec":"1403110","nmkec":"MANDAH","kddesa":"1403110009","nmdesa":"BEKAWAN","idsubsls":"1403110009001700","kdsubsls":"00"},"geometry":{"type":"Polygon","coordinates":[[[103.710575,0.014867],[103.708841,0.014048],[103.708847,0.01388],[103.706127,0.014092],[103.70634,0.013197],[103.70524,0.014087],[103.704571,0.014214],[103.700517,0.0143],[103.700308,0.016328],[103.700075,0.01717],[103.698785,0.020103],[103.697512,0.023532],[103.689749,0.05928],[103.70841,0.060437],[103.706739,0.060334],[103.715441,0.015328],[103.71322,0.014948],[103.710575,0.014867]]]}}]}