{"type":"FeatureCollection","features":[{"type":"Feature","properties":{"kdkec":"1403110","nmkec":"MANDAH","kddesa":"1403110009","nmdesa":"BEKAWAN","idsubsls":"1403110009001200","kdsubsls":"00"},"geometry":{"type":"Polygon","coordinates":[[[103.755552,0.022665],[103.755444,0.022288],[103.738353,0.020597],[103.737375,0.020341],[103.737364,0.020115],[103.736267,0.019994],[103.735689,0.022143],[103.735794,0.022893],[103.735235,0.025206],[103.73538,0.026613],[103.735262,0.028427],[103.730782,0.061777],[103.748647,0.063054],[103.751898,0.050913],[103.756319,0.027828],[103.756208,0.024941],[103.755552,0.022665]]]}}]}