{"type":"FeatureCollection","features":[{"type":"Feature","properties":{"kdkec":"1403110","nmkec":"MANDAH","kddesa":"1403110009","nmdesa":"BEKAWAN","idsubsls":"1403110009100100","kdsubsls":"00"},"geometry":{"type":"Polygon","coordinates":[[[103.717678,-0.000245],[103.725152,0.001871],[103.738112,0.004523],[103.738776,0.000207],[103.739236,-0.001624],[103.739977,-0.003514],[103.737472,-0.004116],[103.742471,-0.016914],[103.741906,-0.017119],[103.736588,-0.017415],[103.727102,-0.019268],[103.715363,-0.02247],[103.70926,-0.023241],[103.705096,-0.024011],[103.700529,0.007299],[103.700402,0.010708],[103.700507,0.013482],[103.701905,0.013245],[103.70453,0.013117],[103.705481,0.01286],[103.706504,0.012335],[103.706746,0.011061],[103.715573,0.014335],[103.717678,-0.000245]]]}}]}