{"type":"FeatureCollection","features":[{"type":"Feature","properties":{"kdkec":"1403050","nmkec":"KUALA INDRAGIRI","kddesa":"1403050008","nmdesa":"PERIGI RAJA","idsubsls":"1403050008101100","kdsubsls":"00"},"geometry":{"type":"Polygon","coordinates":[[[103.427266,-0.254625],[103.432897,-0.258585],[103.434561,-0.262567],[103.435078,-0.268336],[103.43654,-0.276147],[103.436585,-0.279853],[103.437191,-0.286545],[103.438217,-0.289493],[103.438259,-0.294364],[103.439541,-0.298765],[103.439669,-0.300089],[103.440121,-0.301863],[103.431837,-0.300781],[103.424974,-0.302067],[103.424998,-0.297664],[103.42581,-0.293819],[103.426366,-0.285701],[103.42628,-0.281429],[103.426836,-0.277883],[103.423157,-0.251736],[103.427266,-0.254625]]]}}]}