{"type":"FeatureCollection","features":[{"type":"Feature","properties":{"kdkec":"1403050","nmkec":"KUALA INDRAGIRI","kddesa":"1403050008","nmdesa":"PERIGI RAJA","idsubsls":"1403050008001200","kdsubsls":"00"},"geometry":{"type":"Polygon","coordinates":[[[103.471291,-0.283666],[103.468714,-0.287835],[103.467679,-0.285715],[103.466269,-0.283899],[103.465457,-0.283343],[103.465906,-0.28125],[103.464602,-0.280182],[103.464325,-0.27843],[103.461275,-0.277561],[103.458589,-0.27639],[103.456698,-0.276636],[103.453857,-0.275525],[103.44497,-0.268518],[103.443987,-0.267407],[103.442561,-0.256224],[103.443368,-0.25553],[103.454763,-0.26259],[103.459326,-0.267492],[103.465906,-0.275397],[103.469153,-0.278985],[103.470349,-0.282233],[103.471291,-0.283666]]]}}]}