{"type":"FeatureCollection","features":[{"type":"Feature","properties":{"kdkec":"1403050","nmkec":"KUALA INDRAGIRI","kddesa":"1403050008","nmdesa":"PERIGI RAJA","idsubsls":"1403050008101200","kdsubsls":"00"},"geometry":{"type":"Polygon","coordinates":[[[103.415205,-0.264118],[103.424203,-0.259171],[103.426836,-0.277883],[103.42628,-0.281429],[103.426366,-0.285701],[103.42581,-0.293819],[103.424998,-0.297664],[103.424974,-0.302067],[103.424025,-0.302244],[103.419008,-0.301456],[103.416136,-0.299535],[103.417646,-0.29441],[103.418871,-0.281981],[103.417237,-0.272412],[103.415205,-0.264118]]]}}]}