{"type":"FeatureCollection","features":[{"type":"Feature","properties":{"kdkec":"1403050","nmkec":"KUALA INDRAGIRI","kddesa":"1403050008","nmdesa":"PERIGI RAJA","idsubsls":"1403050008000800","kdsubsls":"00"},"geometry":{"type":"Polygon","coordinates":[[[103.492718,-0.251133],[103.491696,-0.25243],[103.489404,-0.250152],[103.487358,-0.25291],[103.482436,-0.258494],[103.47933,-0.256263],[103.477827,-0.254535],[103.469493,-0.243259],[103.474915,-0.240623],[103.474959,-0.236185],[103.47942,-0.232561],[103.492024,-0.247527],[103.490467,-0.249066],[103.492174,-0.250139],[103.492179,-0.250822],[103.492718,-0.251133]]]}}]}