{"type":"FeatureCollection","features":[{"type":"Feature","properties":{"kdkec":"1403070","nmkec":"TEMPULING","kddesa":"1403070015","nmdesa":"HARAPAN JAYA","idsubsls":"1403070015000800","kdsubsls":"00"},"geometry":{"type":"Polygon","coordinates":[[[102.770191,-0.458006],[102.770449,-0.458039],[102.771253,-0.458785],[102.775394,-0.455975],[102.793749,-0.445332],[102.797761,-0.458759],[102.769766,-0.477279],[102.768097,-0.472978],[102.76706,-0.469024],[102.766131,-0.467571],[102.765718,-0.46662],[102.76588,-0.466547],[102.766079,-0.465826],[102.765665,-0.464532],[102.765894,-0.464263],[102.766488,-0.464403],[102.766946,-0.464301],[102.767594,-0.462934],[102.76827,-0.462438],[102.76849,-0.461265],[102.768789,-0.460842],[102.768967,-0.460146],[102.76996,-0.458849],[102.769958,-0.458103],[102.770191,-0.458006]]]}}]}