{"type":"FeatureCollection","features":[{"type":"Feature","properties":{"kdkec":"1403070","nmkec":"TEMPULING","kddesa":"1403070015","nmdesa":"HARAPAN JAYA","idsubsls":"1403070015000700","kdsubsls":"00"},"geometry":{"type":"Polygon","coordinates":[[[102.771253,-0.458785],[102.770449,-0.458039],[102.770116,-0.457962],[102.77055,-0.457572],[102.77037,-0.457291],[102.770122,-0.457317],[102.769815,-0.457026],[102.769778,-0.456806],[102.770153,-0.456354],[102.770239,-0.455796],[102.770114,-0.455324],[102.773413,-0.442028],[102.762458,-0.441508],[102.762892,-0.431124],[102.789209,-0.430242],[102.793749,-0.445332],[102.775394,-0.455975],[102.771253,-0.458785]]]}}]}