{"type":"FeatureCollection","features":[{"type":"Feature","properties":{"kdkec":"1403020","nmkec":"RETEH","kddesa":"1403020013","nmdesa":"SUNGAI ASAM","idsubsls":"1403020013001200","kdsubsls":"00"},"geometry":{"type":"Polygon","coordinates":[[[103.307612,-0.738741],[103.307956,-0.74132],[103.307812,-0.742004],[103.307992,-0.74683],[103.308532,-0.748451],[103.311305,-0.753565],[103.312026,-0.7554],[103.313057,-0.767526],[103.315638,-0.776618],[103.308473,-0.775557],[103.308075,-0.762024],[103.305328,-0.762024],[103.30403,-0.747911],[103.303778,-0.747083],[103.30068,-0.742364],[103.300644,-0.741824],[103.302121,-0.739915],[103.302913,-0.739195],[103.302949,-0.738259],[103.302517,-0.737538],[103.302373,-0.736206],[103.302949,-0.735053],[103.303007,-0.732756],[103.304364,-0.732045],[103.306822,-0.731342],[103.307612,-0.738741]]]}}]}