{"type":"FeatureCollection","features":[{"type":"Feature","properties":{"kdkec":"1403020","nmkec":"RETEH","kddesa":"1403020005","nmdesa":"SUNGAI TERAB","idsubsls":"1403020005000200","kdsubsls":"00"},"geometry":{"type":"Polygon","coordinates":[[[103.370062,-0.764802],[103.370787,-0.76548],[103.371294,-0.765519],[103.371716,-0.765775],[103.371758,-0.766219],[103.371547,-0.766493],[103.370765,-0.766893],[103.370411,-0.766877],[103.370283,-0.766566],[103.370647,-0.76622],[103.369637,-0.765421],[103.370062,-0.764802]]]}}]}