{"type":"FeatureCollection","features":[{"type":"Feature","properties":{"kdkec":"1403070","nmkec":"TEMPULING","kddesa":"1403070015","nmdesa":"HARAPAN JAYA","idsubsls":"1403070015000100","kdsubsls":"00"},"geometry":{"type":"Polygon","coordinates":[[[102.768719,-0.460833],[102.768367,-0.461701],[102.76827,-0.462438],[102.767594,-0.462934],[102.766946,-0.464301],[102.766488,-0.464403],[102.765894,-0.464263],[102.765681,-0.464419],[102.766079,-0.465826],[102.76588,-0.466547],[102.765718,-0.46662],[102.763304,-0.463284],[102.76764,-0.460706],[102.768719,-0.460833]]]}}]}