{"type":"FeatureCollection","features":[{"type":"Feature","properties":{"kdkec":"1403070","nmkec":"TEMPULING","kddesa":"1403070015","nmdesa":"HARAPAN JAYA","idsubsls":"1403070015001500","kdsubsls":"00"},"geometry":{"type":"Polygon","coordinates":[[[102.79087,-0.48924],[102.77887,-0.497045],[102.776381,-0.493699],[102.773715,-0.49105],[102.771792,-0.489684],[102.770449,-0.488472],[102.76999,-0.487641],[102.769881,-0.485347],[102.770198,-0.479907],[102.769766,-0.477279],[102.778973,-0.471151],[102.778827,-0.472522],[102.778941,-0.472884],[102.780085,-0.474378],[102.781703,-0.477325],[102.780971,-0.477626],[102.784114,-0.482988],[102.784595,-0.482801],[102.785046,-0.483454],[102.79087,-0.48924]]]}}]}