{"type":"FeatureCollection","features":[{"type":"Feature","properties":{"kdkec":"1403071","nmkec":"KEMPAS","kddesa":"1403071002","nmdesa":"PEKAN TUA","idsubsls":"1403071002000400","kdsubsls":"00"},"geometry":{"type":"Polygon","coordinates":[[[102.779186,-0.522421],[102.77926,-0.500363],[102.78131,-0.500747],[102.784977,-0.501084],[102.787985,-0.501023],[102.788883,-0.501209],[102.788395,-0.50247],[102.788071,-0.504608],[102.783501,-0.514197],[102.783565,-0.525259],[102.782082,-0.525234],[102.781229,-0.523893],[102.779186,-0.522421]]]}}]}