{"type":"FeatureCollection","features":[{"type":"Feature","properties":{"kdkec":"1403071","nmkec":"KEMPAS","kddesa":"1403071002","nmdesa":"PEKAN TUA","idsubsls":"1403071002001600","kdsubsls":"00"},"geometry":{"type":"Polygon","coordinates":[[[102.750222,-0.24466],[102.752045,-0.442939],[102.751774,-0.445763],[102.751036,-0.447738],[102.749908,-0.447468],[102.746541,-0.44748],[102.745458,-0.447093],[102.743509,-0.447405],[102.741964,-0.447397],[102.737561,-0.4478],[102.735747,-0.448417],[102.733538,-0.448527],[102.733707,-0.442071],[102.735361,-0.244674],[102.750222,-0.24466]]]}}]}