{"type":"FeatureCollection","features":[{"type":"Feature","properties":{"kdkec":"1403071","nmkec":"KEMPAS","kddesa":"1403071002","nmdesa":"PEKAN TUA","idsubsls":"1403071002000200","kdsubsls":"00"},"geometry":{"type":"Polygon","coordinates":[[[102.798361,-0.510744],[102.788442,-0.510997],[102.788381,-0.504671],[102.788076,-0.504577],[102.788395,-0.50247],[102.788883,-0.501209],[102.791024,-0.501652],[102.795474,-0.50354],[102.799909,-0.505826],[102.802502,-0.50753],[102.803076,-0.508501],[102.798361,-0.510744]]]}}]}