{"type":"FeatureCollection","features":[{"type":"Feature","properties":{"kdkec":"1403080","nmkec":"BATANG TUAKA","kddesa":"1403080011","nmdesa":"TASIK RAYA","idsubsls":"1403080011000100","kdsubsls":"00"},"geometry":{"type":"Polygon","coordinates":[[[103.223522,-0.192818],[103.222696,-0.193662],[103.226497,-0.198331],[103.220957,-0.203025],[103.200432,-0.202805],[103.19993,-0.191221],[103.222506,-0.191743],[103.222854,-0.191822],[103.222792,-0.192395],[103.223169,-0.192425],[103.223522,-0.192818]]]}}]}