{"type":"FeatureCollection","features":[{"type":"Feature","properties":{"kdkec":"1403080","nmkec":"BATANG TUAKA","kddesa":"1403080011","nmdesa":"TASIK RAYA","idsubsls":"1403080011001100","kdsubsls":"00"},"geometry":{"type":"Polygon","coordinates":[[[103.240124,-0.217972],[103.235477,-0.215562],[103.242126,-0.211006],[103.243392,-0.208548],[103.243679,-0.208613],[103.244403,-0.209399],[103.248024,-0.20983],[103.248461,-0.210434],[103.249397,-0.210836],[103.24737,-0.212742],[103.240124,-0.217972]]]}}]}