{"type":"FeatureCollection","features":[{"type":"Feature","properties":{"kdkec":"1403080","nmkec":"BATANG TUAKA","kddesa":"1403080011","nmdesa":"TASIK RAYA","idsubsls":"1403080011000800","kdsubsls":"00"},"geometry":{"type":"Polygon","coordinates":[[[103.230059,-0.197034],[103.229428,-0.196365],[103.227513,-0.195954],[103.227963,-0.194429],[103.228733,-0.185443],[103.243332,-0.185165],[103.232322,-0.200649],[103.230942,-0.199415],[103.230823,-0.198699],[103.230195,-0.19791],[103.230284,-0.197575],[103.230059,-0.197034]]]}}]}