{"type":"FeatureCollection","features":[{"type":"Feature","properties":{"kdkec":"1403080","nmkec":"BATANG TUAKA","kddesa":"1403080011","nmdesa":"TASIK RAYA","idsubsls":"1403080011000200","kdsubsls":"00"},"geometry":{"type":"Polygon","coordinates":[[[103.222792,-0.192395],[103.222854,-0.191822],[103.222506,-0.191743],[103.19993,-0.191221],[103.199738,-0.185996],[103.223317,-0.185546],[103.223286,-0.190926],[103.223643,-0.190931],[103.22364,-0.192381],[103.22338,-0.19266],[103.223169,-0.192425],[103.222792,-0.192395]]]}}]}