{"type":"FeatureCollection","features":[{"type":"Feature","properties":{"kdkec":"1403080","nmkec":"BATANG TUAKA","kddesa":"1403080011","nmdesa":"TASIK RAYA","idsubsls":"1403080011000500","kdsubsls":"00"},"geometry":{"type":"Polygon","coordinates":[[[103.224226,-0.194062],[103.225499,-0.195426],[103.227397,-0.196281],[103.227513,-0.195954],[103.229428,-0.196365],[103.230059,-0.197034],[103.230284,-0.197575],[103.230195,-0.19791],[103.230823,-0.198699],[103.226497,-0.198331],[103.222696,-0.193662],[103.223271,-0.193078],[103.224226,-0.194062]]]}}]}