{"type":"FeatureCollection","features":[{"type":"Feature","properties":{"kdkec":"1403090","nmkec":"GAUNG ANAK SERKA","kddesa":"1403090001","nmdesa":"RAMBAIAN","idsubsls":"1403090001000400","kdsubsls":"00"},"geometry":{"type":"Polygon","coordinates":[[[103.141996,-0.183942],[103.141155,-0.184819],[103.141181,-0.191072],[103.142674,-0.193167],[103.142657,-0.198256],[103.136654,-0.197927],[103.137056,-0.186417],[103.137716,-0.186294],[103.139326,-0.185546],[103.139978,-0.184729],[103.141608,-0.1832],[103.141996,-0.183942]]]}}]}