{"type":"FeatureCollection","features":[{"type":"Feature","properties":{"kdkec":"1403090","nmkec":"GAUNG ANAK SERKA","kddesa":"1403090001","nmdesa":"RAMBAIAN","idsubsls":"1403090001001200","kdsubsls":"00"},"geometry":{"type":"Polygon","coordinates":[[[103.093191,-0.17866],[103.093927,-0.191068],[103.092489,-0.190241],[103.089757,-0.189281],[103.087527,-0.189416],[103.084997,-0.190109],[103.082347,-0.192868],[103.081084,-0.193728],[103.079163,-0.194307],[103.077067,-0.194659],[103.074622,-0.195432],[103.067539,-0.199761],[103.065357,-0.199526],[103.062487,-0.196457],[103.060143,-0.195617],[103.058681,-0.195563],[103.056616,-0.195969],[103.054509,-0.163653],[103.065203,-0.160148],[103.08044,-0.155632],[103.080625,-0.157696],[103.089221,-0.157402],[103.090948,-0.169298],[103.093191,-0.17866]]]}}]}