{"type":"FeatureCollection","features":[{"type":"Feature","properties":{"kdkec":"1403090","nmkec":"GAUNG ANAK SERKA","kddesa":"1403090001","nmdesa":"RAMBAIAN","idsubsls":"1403090001001000","kdsubsls":"00"},"geometry":{"type":"Polygon","coordinates":[[[103.116464,-0.171512],[103.112391,-0.17593],[103.10851,-0.179404],[103.107743,-0.181161],[103.107759,-0.182814],[103.108675,-0.186424],[103.108641,-0.188635],[103.107821,-0.190332],[103.106085,-0.191362],[103.103832,-0.191973],[103.095771,-0.167233],[103.09152,-0.152222],[103.093054,-0.151751],[103.108813,-0.145347],[103.116464,-0.171512]]]}}]}