{"type":"FeatureCollection","features":[{"type":"Feature","properties":{"kdkec":"1403090","nmkec":"GAUNG ANAK SERKA","kddesa":"1403090001","nmdesa":"RAMBAIAN","idsubsls":"1403090001000500","kdsubsls":"00"},"geometry":{"type":"Polygon","coordinates":[[[103.127561,-0.171667],[103.129778,-0.172205],[103.132217,-0.173168],[103.133337,-0.17412],[103.134207,-0.175204],[103.134719,-0.176853],[103.133187,-0.183877],[103.133678,-0.184884],[103.134833,-0.185803],[103.136294,-0.18642],[103.137056,-0.186417],[103.136654,-0.197927],[103.131784,-0.197659],[103.086562,-0.214067],[103.083462,-0.191801],[103.084997,-0.190109],[103.087527,-0.189416],[103.089757,-0.189281],[103.092489,-0.190241],[103.094238,-0.191248],[103.095712,-0.192414],[103.096936,-0.192957],[103.098548,-0.193012],[103.100108,-0.192794],[103.102491,-0.192337],[103.106085,-0.191362],[103.107821,-0.190332],[103.108641,-0.188635],[103.108675,-0.186424],[103.107759,-0.182814],[103.107743,-0.181161],[103.10851,-0.179404],[103.112391,-0.17593],[103.114107,-0.173922],[103.116716,-0.171254],[103.119232,-0.17013],[103.127561,-0.171667]]]}}]}