{"type":"FeatureCollection","features":[{"type":"Feature","properties":{"kdkec":"1403090","nmkec":"GAUNG ANAK SERKA","kddesa":"1403090001","nmdesa":"RAMBAIAN","idsubsls":"1403090001000600","kdsubsls":"00"},"geometry":{"type":"Polygon","coordinates":[[[103.144936,-0.183005],[103.144985,-0.18203],[103.144499,-0.180864],[103.147804,-0.178803],[103.148709,-0.181827],[103.150552,-0.18948],[103.152036,-0.192321],[103.153942,-0.198874],[103.145223,-0.198406],[103.145585,-0.185333],[103.145302,-0.18419],[103.144971,-0.184207],[103.144936,-0.183005]]]}}]}