{"type":"FeatureCollection","features":[{"type":"Feature","properties":{"kdkec":"1403071","nmkec":"KEMPAS","kddesa":"1403071001","nmdesa":"BAYAS JAYA","idsubsls":"1403071001000400","kdsubsls":"00"},"geometry":{"type":"Polygon","coordinates":[[[102.743755,-0.466447],[102.7303,-0.488861],[102.725368,-0.498197],[102.721216,-0.509718],[102.717989,-0.550186],[102.714562,-0.548984],[102.715201,-0.539412],[102.718599,-0.506085],[102.721472,-0.496122],[102.725246,-0.488151],[102.740824,-0.464585],[102.743755,-0.466447]]]}}]}