{"type":"FeatureCollection","features":[{"type":"Feature","properties":{"kdkec":"1403071","nmkec":"KEMPAS","kddesa":"1403071001","nmdesa":"BAYAS JAYA","idsubsls":"1403071001001600","kdsubsls":"00"},"geometry":{"type":"Polygon","coordinates":[[[102.720265,-0.47268],[102.71639,-0.469638],[102.718178,-0.468621],[102.719267,-0.467501],[102.720311,-0.465567],[102.720674,-0.46377],[102.725145,-0.463802],[102.727483,-0.46597],[102.733214,-0.469516],[102.731419,-0.471761],[102.727661,-0.477214],[102.720265,-0.47268]]]}}]}