{"type":"FeatureCollection","features":[{"type":"Feature","properties":{"kdkec":"1403110","nmkec":"MANDAH","kddesa":"1403110002","nmdesa":"BATANG TUMU","idsubsls":"1403110002001000","kdsubsls":"00"},"geometry":{"type":"Polygon","coordinates":[[[103.368194,-0.032981],[103.367792,-0.034191],[103.3657,-0.033443],[103.365516,-0.031196],[103.365636,-0.027819],[103.365362,-0.027702],[103.369255,-0.018311],[103.367713,-0.007533],[103.369304,-0.008573],[103.380987,-0.014864],[103.375884,-0.023655],[103.368194,-0.032981]]]}}]}