{"type":"FeatureCollection","features":[{"type":"Feature","properties":{"kdkec":"1403110","nmkec":"MANDAH","kddesa":"1403110002","nmdesa":"BATANG TUMU","idsubsls":"1403110002001600","kdsubsls":"00"},"geometry":{"type":"Polygon","coordinates":[[[103.332793,-0.001028],[103.328095,-0.006448],[103.326369,-0.006068],[103.325531,-0.006512],[103.323986,-0.006667],[103.322494,-0.006134],[103.321788,-0.004865],[103.321614,-0.003535],[103.322429,-0.001038],[103.322195,0.000154],[103.320802,0.001407],[103.332328,0.013031],[103.334386,0.011796],[103.34065,0.008664],[103.332793,-0.001028]]]}}]}