{"type":"FeatureCollection","features":[{"type":"Feature","properties":{"kdkec":"1403010","nmkec":"KERITANG","kddesa":"1403010017","nmdesa":"PETALONGAN","idsubsls":"1403010017001500","kdsubsls":"00"},"geometry":{"type":"Polygon","coordinates":[[[102.6543,-0.710595],[102.653522,-0.710547],[102.653521,-0.71132],[102.651772,-0.711331],[102.651606,-0.708958],[102.651787,-0.708865],[102.651986,-0.698089],[102.655559,-0.699178],[102.65427,-0.700896],[102.658682,-0.70676],[102.656511,-0.709022],[102.656147,-0.708724],[102.656074,-0.711632],[102.656061,-0.710018],[102.654367,-0.710042],[102.6543,-0.710595]]]}}]}