{"type":"FeatureCollection","features":[{"type":"Feature","properties":{"kdkec":"1403010","nmkec":"KERITANG","kddesa":"1403010017","nmdesa":"PETALONGAN","idsubsls":"1403010017002000","kdsubsls":"00"},"geometry":{"type":"Polygon","coordinates":[[[102.68017,-0.77447],[102.685964,-0.762601],[102.68865,-0.758684],[102.694801,-0.762416],[102.696986,-0.761],[102.710036,-0.761839],[102.713706,-0.764261],[102.712409,-0.768621],[102.709816,-0.772865],[102.705454,-0.775695],[102.704063,-0.777137],[102.693047,-0.781476],[102.686695,-0.77752],[102.683843,-0.776491],[102.68017,-0.77447]]]}}]}