{"type":"FeatureCollection","features":[{"type":"Feature","properties":{"kdkec":"1403010","nmkec":"KERITANG","kddesa":"1403010017","nmdesa":"PETALONGAN","idsubsls":"1403010017001200","kdsubsls":"00"},"geometry":{"type":"Polygon","coordinates":[[[102.722876,-0.747345],[102.720445,-0.750872],[102.717549,-0.755914],[102.713518,-0.761981],[102.713111,-0.763868],[102.710036,-0.761839],[102.696986,-0.761],[102.694801,-0.762416],[102.68865,-0.758684],[102.686296,-0.750588],[102.686152,-0.74889],[102.683875,-0.747197],[102.687279,-0.742596],[102.693391,-0.740778],[102.722876,-0.747345]]]}}]}