{"type":"FeatureCollection","features":[{"type":"Feature","properties":{"kdkec":"1403010","nmkec":"KERITANG","kddesa":"1403010017","nmdesa":"PETALONGAN","idsubsls":"1403010017001600","kdsubsls":"00"},"geometry":{"type":"Polygon","coordinates":[[[102.651787,-0.708865],[102.651606,-0.708958],[102.651772,-0.711331],[102.652519,-0.711352],[102.652915,-0.71256],[102.655521,-0.712655],[102.655518,-0.715617],[102.6557,-0.71787],[102.65668,-0.725227],[102.6691,-0.736149],[102.664681,-0.740661],[102.650402,-0.728674],[102.650163,-0.721342],[102.649053,-0.712203],[102.649024,-0.709345],[102.645199,-0.705178],[102.643494,-0.696108],[102.64546,-0.689522],[102.652082,-0.68335],[102.652431,-0.691827],[102.651986,-0.698089],[102.651787,-0.708865]]]}}]}