{"type":"FeatureCollection","features":[{"type":"Feature","properties":{"kdkec":"1403010","nmkec":"KERITANG","kddesa":"1403010017","nmdesa":"PETALONGAN","idsubsls":"1403010017400100","kdsubsls":"00"},"geometry":{"type":"Polygon","coordinates":[[[102.673675,-0.769696],[102.679302,-0.773997],[102.683843,-0.776491],[102.686695,-0.77752],[102.693047,-0.781476],[102.688099,-0.780564],[102.68145,-0.780871],[102.678354,-0.781476],[102.674186,-0.780603],[102.674449,-0.778163],[102.676711,-0.777789],[102.67509,-0.772207],[102.674054,-0.770661],[102.673675,-0.769696]]]}}]}