{"type":"FeatureCollection","features":[{"type":"Feature","properties":{"kdkec":"1403010","nmkec":"KERITANG","kddesa":"1403010017","nmdesa":"PETALONGAN","idsubsls":"1403010017001400","kdsubsls":"00"},"geometry":{"type":"Polygon","coordinates":[[[102.656074,-0.711632],[102.655906,-0.711628],[102.655916,-0.712152],[102.655505,-0.712142],[102.655521,-0.712655],[102.652915,-0.71256],[102.652519,-0.711352],[102.653521,-0.71132],[102.653522,-0.710547],[102.6543,-0.710595],[102.654367,-0.710042],[102.656061,-0.710018],[102.656074,-0.711632]]]}}]}