{"type":"FeatureCollection","features":[{"type":"Feature","properties":{"kdkec":"1403011","nmkec":"KEMUNING","kddesa":"1403011005","nmdesa":"TUK JIMUN"},"geometry":{"type":"Polygon","coordinates":[[[102.805777,-0.962477],[102.802463,-0.962547],[102.79571,-0.959643],[102.77855,-0.945678],[102.77753,-0.944152],[102.77596,-0.943597],[102.772747,-0.941016],[102.769946,-0.940531],[102.769602,-0.939065],[102.769722,-0.938127],[102.769349,-0.937852],[102.769571,-0.937441],[102.769399,-0.937157],[102.768739,-0.936785],[102.768659,-0.936461],[102.768839,-0.935869],[102.769375,-0.935569],[102.769051,-0.934558],[102.770407,-0.935258],[102.771127,-0.93499],[102.771223,-0.93433],[102.770759,-0.93395],[102.769975,-0.934054],[102.769771,-0.933938],[102.770063,-0.932638],[102.769819,-0.932366],[102.769023,-0.93213],[102.768931,-0.930034],[102.768343,-0.929682],[102.768467,-0.929342],[102.76957,-0.928766],[102.770447,-0.928415],[102.770479,-0.928207],[102.769891,-0.928055],[102.769207,-0.928379],[102.768347,-0.928095],[102.768395,-0.927515],[102.768827,-0.926767],[102.768343,-0.926151],[102.768443,-0.925939],[102.768931,-0.925887],[102.769559,-0.926123],[102.769639,-0.926003],[102.769527,-0.925631],[102.768851,-0.925027],[102.768987,-0.924767],[102.769635,-0.924371],[102.769279,-0.923691],[102.769947,-0.922916],[102.770427,-0.9228],[102.770643,-0.922984],[102.771191,-0.924114],[102.771502,-0.923611],[102.771622,-0.923029],[102.771355,-0.922504],[102.771503,-0.922148],[102.772191,-0.921628],[102.772667,-0.921752],[102.772707,-0.922008],[102.772675,-0.922352],[102.772242,-0.922822],[102.772319,-0.923059],[102.772635,-0.923095],[102.774058,-0.922068],[102.774042,-0.921696],[102.773738,-0.92148],[102.773838,-0.92114],[102.77439,-0.921288],[102.774674,-0.921576],[102.774771,-0.922142],[102.775465,-0.922212],[102.775657,-0.922088],[102.775581,-0.92167],[102.774446,-0.920552],[102.774454,-0.920392],[102.774774,-0.92032],[102.775286,-0.92044],[102.776231,-0.921884],[102.776791,-0.922222],[102.777045,-0.922044],[102.776911,-0.921196],[102.777194,-0.920716],[102.777466,-0.920616],[102.778154,-0.920986],[102.77837,-0.919996],[102.778586,-0.919944],[102.779277,-0.920232],[102.779637,-0.920104],[102.779765,-0.919852],[102.779633,-0.919004],[102.779777,-0.918864],[102.781033,-0.919712],[102.781569,-0.919756],[102.781625,-0.919572],[102.781349,-0.919112],[102.780689,-0.91882],[102.780653,-0.918312],[102.781232,-0.917947],[102.783752,-0.922042],[102.789033,-0.925439],[102.786095,-0.927895],[102.789044,-0.925446],[102.810023,-0.938942],[102.825866,-0.953153],[102.807392,-0.964057],[102.805777,-0.962477]],[[102.778391,-0.935112],[102.778391,-0.935112],[102.772747,-0.941016],[102.778391,-0.935112]],[[102.772201,-0.930672],[102.772203,-0.930673],[102.76957,-0.928766],[102.772201,-0.930672]],[[102.781019,-0.932488],[102.781019,-0.932488],[102.786095,-0.927895],[102.781019,-0.932488]],[[102.803891,-0.946501],[102.811641,-0.953069],[102.817643,-0.958006],[102.803891,-0.946501]],[[102.772209,-0.930677],[102.774595,-0.927658],[102.777066,-0.924471],[102.772209,-0.930677],[102.772209,-0.930677]],[[102.770964,-0.936907],[102.769845,-0.937867],[102.76979,-0.937983],[102.770964,-0.936907]]]}}]}