{"type":"FeatureCollection","features":[{"type":"Feature","properties":{"kdkec":"1403040","nmkec":"TANAH MERAH","kddesa":"1403040002","nmdesa":"SELAT NAMA"},"geometry":{"type":"Polygon","coordinates":[[[103.306469,-0.573993],[103.306603,-0.572058],[103.306047,-0.571225],[103.305821,-0.568474],[103.306718,-0.565649],[103.30655,-0.564813],[103.306634,-0.563893],[103.308307,-0.55946],[103.308474,-0.557369],[103.30839,-0.555948],[103.306299,-0.55185],[103.304292,-0.546497],[103.303707,-0.545494],[103.302703,-0.544825],[103.301951,-0.544657],[103.300612,-0.544992],[103.296765,-0.546748],[103.294424,-0.547083],[103.292751,-0.546581],[103.290621,-0.545217],[103.303896,-0.516561],[103.315593,-0.5062],[103.34487,-0.534279],[103.345864,-0.537879],[103.346166,-0.538128],[103.349355,-0.547878],[103.350523,-0.550778],[103.351599,-0.554084],[103.352018,-0.554425],[103.352989,-0.554373],[103.353979,-0.554634],[103.35657,-0.554827],[103.358164,-0.555611],[103.358709,-0.55607],[103.359171,-0.55695],[103.359299,-0.557694],[103.359181,-0.558626],[103.358683,-0.559495],[103.357508,-0.560617],[103.357075,-0.561339],[103.357263,-0.562665],[103.358528,-0.561314],[103.360818,-0.559903],[103.366713,-0.567007],[103.365189,-0.567707],[103.353343,-0.571769],[103.348247,-0.574599],[103.33422,-0.580485],[103.323824,-0.587741],[103.310756,-0.592779],[103.304144,-0.579024],[103.306469,-0.573993]],[[103.325477,-0.56024],[103.329183,-0.559313],[103.326203,-0.560058],[103.325477,-0.56024]]]}}]}