{"type":"FeatureCollection","features":[{"type":"Feature","properties":{"kdkec":"1403030","nmkec":"ENOK","kddesa":"1403030005","nmdesa":"SUNGAI AMBAT"},"geometry":{"type":"Polygon","coordinates":[[[103.118428,-0.54332],[103.109838,-0.55783],[103.103657,-0.566005],[103.095236,-0.579338],[103.091123,-0.598341],[103.086146,-0.60841],[103.085126,-0.608178],[103.085799,-0.603626],[103.088703,-0.59244],[103.093307,-0.57337],[103.099443,-0.561892],[103.104326,-0.538337],[103.104864,-0.532945],[103.10471,-0.516998],[103.104025,-0.513616],[103.10338,-0.50855],[103.109945,-0.507217],[103.105599,-0.508083],[103.105603,-0.506913],[103.106689,-0.50477],[103.107199,-0.502963],[103.107199,-0.468895],[103.111798,-0.448266],[103.123435,-0.443852],[103.116776,-0.458303],[103.123596,-0.463817],[103.127223,-0.464107],[103.131431,-0.465848],[103.138106,-0.472088],[103.141734,-0.478472],[103.14597,-0.482002],[103.142922,-0.489573],[103.141761,-0.501297],[103.137582,-0.514879],[103.134565,-0.519291],[103.129291,-0.524447],[103.129075,-0.524014],[103.128755,-0.524292],[103.123491,-0.533603],[103.125085,-0.534007],[103.118428,-0.54332]],[[103.110939,-0.532952],[103.111666,-0.532939],[103.104864,-0.532945],[103.110939,-0.532952]],[[103.112742,-0.482575],[103.110951,-0.482594],[103.107257,-0.482633],[103.112742,-0.482575]],[[103.121165,-0.509969],[103.120382,-0.510125],[103.124114,-0.509561],[103.124093,-0.509561],[103.121165,-0.509969]],[[103.129332,-0.514487],[103.128872,-0.513399],[103.127426,-0.510319],[103.129332,-0.514487]],[[103.129894,-0.515131],[103.13056,-0.515893],[103.129332,-0.514487],[103.129894,-0.515131]],[[103.11309,-0.50799],[103.111401,-0.507386],[103.113705,-0.50825],[103.11309,-0.50799]],[[103.130817,-0.511225],[103.132399,-0.508417],[103.130728,-0.511339],[103.129867,-0.512536],[103.130817,-0.511225]]]}}]}