{"type":"FeatureCollection","features":[{"type":"Feature","properties":{"kdkec":"1403050","nmkec":"KUALA INDRAGIRI","kddesa":"1403050002","nmdesa":"SUNGAI BULUH"},"geometry":{"type":"Polygon","coordinates":[[[103.571848,-0.476426],[103.570009,-0.480261],[103.566545,-0.482846],[103.554967,-0.477084],[103.546652,-0.470333],[103.529512,-0.465165],[103.522144,-0.465862],[103.519577,-0.465542],[103.519899,-0.460179],[103.514955,-0.443389],[103.519541,-0.442978],[103.51867,-0.401785],[103.520598,-0.399516],[103.52888,-0.398268],[103.531568,-0.396327],[103.538381,-0.399504],[103.543697,-0.399857],[103.549352,-0.399266],[103.56089,-0.396567],[103.56828,-0.396119],[103.575613,-0.39672],[103.580336,-0.398434],[103.582762,-0.399782],[103.589499,-0.40571],[103.589306,-0.407212],[103.589768,-0.407289],[103.591308,-0.407096],[103.595697,-0.411446],[103.597891,-0.413949],[103.598882,-0.414126],[103.599218,-0.414187],[103.598596,-0.414551],[103.599287,-0.414199],[103.600008,-0.415835],[103.601301,-0.415566],[103.602621,-0.416305],[103.607427,-0.421831],[103.608443,-0.426516],[103.60753,-0.434609],[103.60374,-0.441282],[103.596995,-0.450514],[103.593034,-0.454696],[103.590261,-0.458355],[103.586336,-0.462503],[103.582444,-0.467337],[103.571848,-0.476426]],[[103.596648,-0.415182],[103.59668,-0.415253],[103.598882,-0.414126],[103.596648,-0.415182]],[[103.593834,-0.415821],[103.594388,-0.417008],[103.594144,-0.417143],[103.594468,-0.416963],[103.593834,-0.415821]],[[103.590869,-0.418667],[103.592245,-0.417986],[103.589378,-0.419317],[103.590869,-0.418667]],[[103.593088,-0.418907],[103.591595,-0.41973],[103.590122,-0.420642],[103.593089,-0.418909],[103.593088,-0.418907]],[[103.596011,-0.416444],[103.594604,-0.417209],[103.595341,-0.416861],[103.596011,-0.416444]],[[103.596239,-0.415479],[103.596472,-0.416193],[103.596552,-0.416361],[103.596239,-0.415479]],[[103.596416,-0.415388],[103.596016,-0.41551],[103.596239,-0.415479],[103.596416,-0.415388]],[[103.596934,-0.415942],[103.596954,-0.416154],[103.59691,-0.415536],[103.596934,-0.415942]],[[103.597596,-0.415244],[103.597559,-0.415157],[103.59691,-0.415536],[103.597596,-0.415244]]]}}]}