{"type":"FeatureCollection","features":[{"type":"Feature","properties":{"kdkec":"1403070","nmkec":"TEMPULING","kddesa":"1403070014","nmdesa":"KARYA TUNAS JAYA"},"geometry":{"type":"MultiPolygon","coordinates":[[[[102.85895,-0.468066],[102.8574,-0.428057],[102.858386,-0.42824],[102.860349,-0.430319],[102.862474,-0.432944],[102.864692,-0.434638],[102.865096,-0.435477],[102.866281,-0.451346],[102.865561,-0.441622],[102.872548,-0.442065],[102.877622,-0.442038],[102.884288,-0.442426],[102.885636,-0.443659],[102.888967,-0.449849],[102.893418,-0.457076],[102.899933,-0.457003],[102.907856,-0.466021],[102.908017,-0.471589],[102.907965,-0.48328],[102.908738,-0.483726],[102.909843,-0.483948],[102.911389,-0.486786],[102.911279,-0.48762],[102.911997,-0.488677],[102.911886,-0.489289],[102.912189,-0.49004],[102.912933,-0.491138],[102.913901,-0.493545],[102.913901,-0.494434],[102.913458,-0.496325],[102.912684,-0.498161],[102.909695,-0.503284],[102.898442,-0.503337],[102.898338,-0.501706],[102.892586,-0.501623],[102.892554,-0.493432],[102.880673,-0.493358],[102.880593,-0.488525],[102.859197,-0.488661],[102.859173,-0.481279],[102.85895,-0.468066]],[[102.866522,-0.466146],[102.86652,-0.465157],[102.866281,-0.451346],[102.866522,-0.466146]],[[102.889765,-0.471134],[102.889847,-0.47418],[102.889865,-0.474602],[102.889778,-0.471585],[102.890014,-0.451581],[102.889765,-0.471134]],[[102.888786,-0.474183],[102.886831,-0.474187],[102.88492,-0.4742],[102.889847,-0.47418],[102.888786,-0.474183]],[[102.892107,-0.479064],[102.891419,-0.479066],[102.890595,-0.479263],[102.892107,-0.479064]],[[102.870999,-0.471845],[102.86981,-0.472764],[102.868384,-0.473866],[102.870999,-0.471845]],[[102.881854,-0.472353],[102.879093,-0.470895],[102.884756,-0.473925],[102.881854,-0.472353]],[[102.875569,-0.468168],[102.875619,-0.470415],[102.875412,-0.459607],[102.875511,-0.465007],[102.875569,-0.468168]],[[102.902393,-0.485599],[102.903649,-0.485656],[102.902258,-0.485593],[102.902393,-0.485599]]],[[[102.856934,-0.480551],[102.855152,-0.479461],[102.85311,-0.477889],[102.851897,-0.47558],[102.851089,-0.472728],[102.851494,-0.47042],[102.853489,-0.467126],[102.841742,-0.466783],[102.842122,-0.427502],[102.852119,-0.427609],[102.856207,-0.42747],[102.8574,-0.428057],[102.858891,-0.467505],[102.859173,-0.481279],[102.85792,-0.480992],[102.856934,-0.480551]],[[102.857872,-0.467776],[102.85474,-0.466882],[102.85439,-0.46684],[102.856715,-0.467515],[102.857872,-0.467776]]]]}}]}