{"type":"FeatureCollection","features":[{"type":"Feature","properties":{"kdkec":"1403100","nmkec":"GAUNG","kddesa":"1403100010","nmdesa":"LAHANG HULU"},"geometry":{"type":"Polygon","coordinates":[[[103.253378,-0.043051],[103.217803,-0.011993],[103.205028,-0.019336],[103.180876,-0.002865],[103.15411,0.024296],[103.133067,0.048122],[103.128312,0.055448],[103.187499,0.054875],[103.201485,0.041988],[103.241858,0.016354],[103.259452,0.003832],[103.259721,0.005953],[103.265032,0.002841],[103.271094,-0.002976],[103.292195,-0.025113],[103.29873,-0.031648],[103.31013,-0.039594],[103.320839,-0.044084],[103.333966,-0.050303],[103.338915,-0.054015],[103.331363,-0.077979],[103.325851,-0.083727],[103.309511,-0.088479],[103.307256,-0.085989],[103.302703,-0.083638],[103.294612,-0.075766],[103.289921,-0.071202],[103.27714,-0.061184],[103.265049,-0.053239],[103.253378,-0.043051]],[[103.312202,-0.065813],[103.313692,-0.064969],[103.294612,-0.075766],[103.312202,-0.065813]],[[103.315899,-0.067751],[103.313279,-0.06436],[103.313692,-0.064969],[103.315899,-0.067751]],[[103.27691,-0.029545],[103.27938,-0.02612],[103.279578,-0.02573],[103.27691,-0.029545]],[[103.277479,-0.037701],[103.278987,-0.038378],[103.27568,-0.036794],[103.277479,-0.037701]],[[103.282573,-0.041235],[103.281296,-0.040089],[103.28047,-0.039477],[103.282573,-0.041235]],[[103.242992,-0.006252],[103.239504,-0.008979],[103.242992,-0.006252],[103.242992,-0.006252]],[[103.245701,-0.011215],[103.24418,-0.009554],[103.245287,-0.0109],[103.245701,-0.011215]],[[103.256623,-0.018023],[103.25674,-0.018521],[103.256202,-0.016076],[103.256623,-0.018023]],[[103.25986,-0.020037],[103.26425,-0.023244],[103.263616,-0.022665],[103.25986,-0.020037]],[[103.266236,-0.029284],[103.267034,-0.030815],[103.267662,-0.031752],[103.266236,-0.029284]],[[103.235139,0.001581],[103.23598,0.000627],[103.235143,0.001578],[103.235139,0.001581]],[[103.242886,-0.00612],[103.24254,-0.00595],[103.242992,-0.006252],[103.242886,-0.00612]],[[103.317763,-0.076425],[103.317729,-0.073338],[103.317711,-0.073652],[103.317763,-0.076425]],[[103.318492,-0.078695],[103.318829,-0.079142],[103.318131,-0.077781],[103.318221,-0.078116],[103.318492,-0.078695]],[[103.320119,-0.080373],[103.319184,-0.079612],[103.319425,-0.079932],[103.320119,-0.080373]],[[103.321177,-0.080541],[103.320362,-0.080411],[103.320119,-0.080373],[103.321177,-0.080541]],[[103.304821,-0.05772],[103.302686,-0.056779],[103.303078,-0.057014],[103.304821,-0.05772]],[[103.322643,-0.075353],[103.321328,-0.078373],[103.321792,-0.077394],[103.322643,-0.075353]],[[103.325334,-0.067836],[103.324758,-0.070277],[103.324873,-0.07],[103.325334,-0.067836]],[[103.290768,-0.050495],[103.293766,-0.051564],[103.297301,-0.053385],[103.294124,-0.051683],[103.290768,-0.050495]],[[103.285363,-0.04516],[103.284032,-0.042925],[103.283838,-0.042701],[103.285363,-0.04516]]]}}]}