{"type":"FeatureCollection","features":[{"type":"Feature","properties":{"kdkec":"1403123","nmkec":"PULAU BURUNG","kddesa":"1403123010","nmdesa":"SAPTA JAYA"},"geometry":{"type":"Polygon","coordinates":[[[103.325309,0.324685],[103.315076,0.313095],[103.298383,0.327891],[103.335866,0.370686],[103.352827,0.356136],[103.333357,0.333906],[103.330029,0.336969],[103.321941,0.327808],[103.325309,0.324685]],[[103.318173,0.336918],[103.319428,0.338385],[103.316627,0.335111],[103.316627,0.335111],[103.318173,0.336918]],[[103.318455,0.3392],[103.319552,0.340524],[103.317138,0.337748],[103.318455,0.3392]]]}}]}