{"type":"FeatureCollection","features":[{"type":"Feature","properties":{"kdkec":"1403121","nmkec":"PELANGIRAN","kddesa":"1403121015","nmdesa":"HIDAYAH"},"geometry":{"type":"Polygon","coordinates":[[[103.494492,0.223007],[103.498979,0.224717],[103.49783,0.229012],[103.498059,0.236737],[103.501087,0.23809],[103.501835,0.242237],[103.514544,0.247223],[103.517792,0.253309],[103.530104,0.259759],[103.533585,0.252413],[103.538197,0.245002],[103.538272,0.24404],[103.538145,0.243479],[103.538489,0.242228],[103.53954,0.241721],[103.541071,0.239537],[103.541343,0.239374],[103.542177,0.239573],[103.542476,0.239465],[103.543083,0.23884],[103.543735,0.237644],[103.54393,0.236267],[103.544765,0.235752],[103.545433,0.234363],[103.547183,0.23561],[103.560173,0.204136],[103.556959,0.204],[103.54614,0.202282],[103.542855,0.198003],[103.540054,0.197971],[103.536938,0.200373],[103.536982,0.199982],[103.535941,0.198066],[103.517278,0.208853],[103.514533,0.208655],[103.494492,0.223007]],[[103.517177,0.21827],[103.51829,0.216969],[103.501087,0.23809],[103.517177,0.21827]],[[103.535003,0.227153],[103.536442,0.228794],[103.530912,0.222584],[103.535003,0.227153]]]}}]}