{"type":"FeatureCollection","features":[{"type":"Feature","properties":{"kdkec":"1403050","nmkec":"KUALA INDRAGIRI","kddesa":"1403050011","nmdesa":"SUNGAI PIYAI"},"geometry":{"type":"Polygon","coordinates":[[[103.346432,-0.303402],[103.336993,-0.308303],[103.319309,-0.309322],[103.313891,-0.30792],[103.308882,-0.303533],[103.306329,-0.297972],[103.30176,-0.295842],[103.304373,-0.288556],[103.300583,-0.287539],[103.303579,-0.27359],[103.301437,-0.283106],[103.295553,-0.28105],[103.286671,-0.279662],[103.284514,-0.274521],[103.284761,-0.247049],[103.290381,-0.248806],[103.302393,-0.25223],[103.309753,-0.253274],[103.328414,-0.253367],[103.342691,-0.252028],[103.346275,-0.256942],[103.34957,-0.26109],[103.351874,-0.265595],[103.351721,-0.269162],[103.349827,-0.2729],[103.347744,-0.275744],[103.344471,-0.280988],[103.343905,-0.283601],[103.344229,-0.285964],[103.345386,-0.287063],[103.346737,-0.287457],[103.349793,-0.286024],[103.356226,-0.285205],[103.360833,-0.285683],[103.363018,-0.286655],[103.363838,-0.287647],[103.360318,-0.290787],[103.356778,-0.295688],[103.350334,-0.299681],[103.346432,-0.303402]],[[103.328086,-0.279755],[103.33185,-0.282045],[103.325957,-0.27846],[103.328086,-0.279755]]]}}]}