{"type":"FeatureCollection","features":[{"type":"Feature","properties":{"kdkec":"1403070","nmkec":"TEMPULING","kddesa":"1403070015","nmdesa":"HARAPAN JAYA"},"geometry":{"type":"Polygon","coordinates":[[[102.771792,-0.489684],[102.770449,-0.488472],[102.76999,-0.487641],[102.769881,-0.485347],[102.770198,-0.479907],[102.769766,-0.477279],[102.768097,-0.472978],[102.76706,-0.469024],[102.766131,-0.467571],[102.765718,-0.46662],[102.763304,-0.463284],[102.761851,-0.461565],[102.763282,-0.459483],[102.763618,-0.455679],[102.762047,-0.455492],[102.762892,-0.431124],[102.789209,-0.430242],[102.797761,-0.458759],[102.802909,-0.475016],[102.805537,-0.484492],[102.804018,-0.496398],[102.804294,-0.498326],[102.803469,-0.499989],[102.801963,-0.501908],[102.79818,-0.499477],[102.796642,-0.49889],[102.793236,-0.498041],[102.786977,-0.49768],[102.782575,-0.498227],[102.781275,-0.498107],[102.779822,-0.497713],[102.77887,-0.497045],[102.776381,-0.493699],[102.773715,-0.49105],[102.771792,-0.489684]],[[102.76764,-0.460706],[102.765412,-0.46201],[102.763304,-0.463284],[102.76764,-0.460706]],[[102.765025,-0.457595],[102.770061,-0.458011],[102.763461,-0.457457],[102.765025,-0.457595]],[[102.770055,-0.458063],[102.770191,-0.458006],[102.770449,-0.458039],[102.770116,-0.457962],[102.770055,-0.458063]],[[102.782853,-0.468622],[102.788892,-0.476386],[102.791628,-0.479811],[102.782853,-0.468622],[102.782853,-0.468622]],[[102.784595,-0.482801],[102.785667,-0.482345],[102.784114,-0.482988],[102.784595,-0.482801]],[[102.76491,-0.459637],[102.765318,-0.460337],[102.764918,-0.459502],[102.76491,-0.459637]],[[102.768367,-0.461701],[102.76827,-0.462438],[102.768444,-0.461509],[102.768367,-0.461701]],[[102.765894,-0.464263],[102.765681,-0.464419],[102.765701,-0.464489],[102.765894,-0.464263]],[[102.768719,-0.460833],[102.768616,-0.461087],[102.768789,-0.460842],[102.768719,-0.460833]],[[102.770182,-0.456166],[102.769778,-0.456806],[102.770153,-0.456354],[102.770239,-0.455796],[102.770114,-0.455324],[102.770182,-0.456166]]]}}]}