{"type":"FeatureCollection","features":[{"type":"Feature","properties":{"kdkec":"1403060","nmkec":"TEMBILAHAN","kddesa":"1403060002","nmdesa":"SUNGAI PERAK"},"geometry":{"type":"MultiPolygon","coordinates":[[[[103.201942,-0.377845],[103.194957,-0.369057],[103.194086,-0.360811],[103.188735,-0.348105],[103.186335,-0.343343],[103.193293,-0.340095],[103.187341,-0.330709],[103.182325,-0.323409],[103.194012,-0.316582],[103.207969,-0.311148],[103.210553,-0.310416],[103.213695,-0.309687],[103.217621,-0.309011],[103.236761,-0.307928],[103.244894,-0.306363],[103.246066,-0.30631],[103.244838,-0.34542],[103.231009,-0.360533],[103.226998,-0.364885],[103.225378,-0.369249],[103.223173,-0.372885],[103.218875,-0.376926],[103.213884,-0.378881],[103.20802,-0.385492],[103.201942,-0.377845]],[[103.239575,-0.325192],[103.239031,-0.30949],[103.239537,-0.324109],[103.238955,-0.35185],[103.239575,-0.325192]],[[103.212398,-0.314427],[103.21031,-0.315486],[103.212588,-0.314385],[103.21352,-0.314135],[103.212398,-0.314427]],[[103.212821,-0.318057],[103.21086,-0.318046],[103.213557,-0.318074],[103.212821,-0.318057]],[[103.203212,-0.320738],[103.212708,-0.319538],[103.210872,-0.319731],[103.203212,-0.320738]],[[103.202923,-0.319235],[103.203431,-0.321877],[103.203212,-0.320738],[103.202923,-0.319235]],[[103.216023,-0.331195],[103.217112,-0.371717],[103.215713,-0.319638],[103.216023,-0.331195]],[[103.205264,-0.33395],[103.205132,-0.331531],[103.205132,-0.331531],[103.205264,-0.33395]]],[[[103.202056,-0.281334],[103.207312,-0.281865],[103.22179,-0.280221],[103.225539,-0.280301],[103.226746,-0.28059],[103.22993,-0.283725],[103.230813,-0.284404],[103.232273,-0.285083],[103.236022,-0.28616],[103.241744,-0.287041],[103.244348,-0.287749],[103.244856,-0.288331],[103.244939,-0.290671],[103.244012,-0.291849],[103.238717,-0.294891],[103.236,-0.295938],[103.232056,-0.296921],[103.219341,-0.297166],[103.216176,-0.297427],[103.211654,-0.298004],[103.208945,-0.298914],[103.206747,-0.29469],[103.197562,-0.279968],[103.202056,-0.281334]]]]}}]}