{"type":"FeatureCollection","features":[{"type":"Feature","properties":{"kdkec":"1403110","nmkec":"MANDAH","kddesa":"1403110006","nmdesa":"KHAIRIAH MANDAH"},"geometry":{"type":"Polygon","coordinates":[[[103.496673,-0.006129],[103.494494,-0.005733],[103.490731,-0.004743],[103.489939,-0.003554],[103.490335,-0.00098],[103.489431,0.00101],[103.487959,0.002387],[103.485582,0.003773],[103.485186,0.007734],[103.483008,0.00912],[103.483008,0.010506],[103.48182,0.011299],[103.479245,0.014269],[103.47782,0.017865],[103.482574,0.023538],[103.481533,0.02451],[103.483978,0.027597],[103.492134,0.021417],[103.483008,0.028357],[103.481606,0.029661],[103.482506,0.032359],[103.484315,0.034638],[103.485004,0.037265],[103.487266,0.039783],[103.489147,0.040411],[103.492712,0.042787],[103.494098,0.041995],[103.497861,0.041401],[103.499247,0.040014],[103.501822,0.038232],[103.502812,0.037242],[103.503406,0.034865],[103.504814,0.033083],[103.509347,0.033281],[103.510337,0.033677],[103.512318,0.033083],[103.513506,0.032489],[103.514407,0.031417],[103.515882,0.029122],[103.517665,0.027934],[103.520239,0.026746],[103.51319,0.014544],[103.521626,0.029122],[103.52222,0.030509],[103.522814,0.032687],[103.524992,0.034073],[103.528359,0.03546],[103.533508,0.031301],[103.538459,0.026548],[103.541232,0.024369],[103.546183,0.021399],[103.549351,0.019022],[103.554104,0.014467],[103.555887,0.011695],[103.557471,0.007734],[103.559253,0.005555],[103.566185,0.001991],[103.568957,-0.001376],[103.574502,-0.012466],[103.579057,-0.018011],[103.58399,-0.0245],[103.583006,-0.026967],[103.579403,-0.030135],[103.577046,-0.032451],[103.574356,-0.034054],[103.57185,-0.034104],[103.571254,-0.033254],[103.57034,-0.031426],[103.56906,-0.026125],[103.562846,-0.012052],[103.561018,-0.009859],[103.559191,-0.008579],[103.552062,-0.004193],[103.548309,0.000931],[103.540238,0.004967],[103.53548,0.010124],[103.521646,-0.009648],[103.521224,-0.010045],[103.520885,-0.009646],[103.520723,-0.009761],[103.520606,-0.009601],[103.520748,-0.009464],[103.520536,-0.009126],[103.518559,-0.010703],[103.511529,-0.00174],[103.51048,-0.002903],[103.504623,0.002752],[103.508456,-0.001006],[103.499677,-0.010652],[103.498059,-0.009694],[103.496673,-0.006129]],[[103.489008,0.019185],[103.494232,0.022891],[103.492134,0.021417],[103.489008,0.019185]],[[103.487034,0.031917],[103.48663,0.031645],[103.483008,0.028357],[103.487034,0.031917]],[[103.510098,0.023941],[103.507134,0.0188],[103.514407,0.031417],[103.510098,0.023941]],[[103.515309,0.012642],[103.518075,0.010261],[103.51319,0.014544],[103.515309,0.012642]],[[103.501395,0.005624],[103.503338,0.003886],[103.504623,0.002752],[103.501395,0.005624]],[[103.502588,0.029023],[103.501988,0.028141],[103.503818,0.030402],[103.502588,0.029023]],[[103.498582,0.023818],[103.498537,0.023721],[103.499046,0.024396],[103.498582,0.023818]],[[103.497987,0.02253],[103.497517,0.021419],[103.498097,0.022767],[103.497987,0.02253]],[[103.494964,0.015502],[103.494813,0.015115],[103.496608,0.019299],[103.494964,0.015502]],[[103.497614,0.02526],[103.496,0.024037],[103.49726,0.024981],[103.497614,0.02526]],[[103.49775,0.024909],[103.49759,0.024705],[103.497594,0.024701],[103.49775,0.024909]],[[103.497614,0.02526],[103.498452,0.025921],[103.499746,0.027087],[103.497614,0.02526]],[[103.499008,0.025487],[103.498489,0.024921],[103.499053,0.025459],[103.498452,0.025921],[103.499008,0.025487]],[[103.501232,0.028013],[103.501232,0.028013],[103.499945,0.026309],[103.501232,0.028013]],[[103.499279,0.027513],[103.499746,0.027087],[103.491663,0.035037],[103.499279,0.027513]],[[103.497614,0.02526],[103.497614,0.02526],[103.497131,0.025844],[103.497614,0.02526]],[[103.503223,0.021997],[103.501635,0.022633],[103.501349,0.022748],[103.503393,0.021888],[103.503223,0.021997]],[[103.505168,0.02783],[103.502449,0.023935],[103.501635,0.022633],[103.505168,0.02783]],[[103.520207,0.003289],[103.520207,0.003289],[103.519012,0.001853],[103.520207,0.003289]]]}}]}