{"type":"FeatureCollection","features":[{"type":"Feature","properties":{"kdkec":"1403100","nmkec":"GAUNG","kddesa":"1403100012","nmdesa":"GEMBIRA"},"geometry":{"type":"Polygon","coordinates":[[[102.986853,-0.132295],[102.989566,-0.13297],[102.992245,-0.134309],[102.994342,-0.13677],[102.996453,-0.140309],[102.998375,-0.142376],[103.00104,-0.143745],[103.003006,-0.143104],[103.004986,-0.141925],[103.007802,-0.133121],[103.009049,-0.131106],[103.010767,-0.130363],[103.012514,-0.130305],[103.014276,-0.131164],[103.015936,-0.132984],[103.018339,-0.1376],[103.020275,-0.139595],[103.021954,-0.140518],[103.026814,-0.139932],[103.034562,-0.135177],[103.036448,-0.134831],[103.037809,-0.133917],[103.040733,-0.131724],[103.041933,-0.129653],[103.043273,-0.126019],[103.044162,-0.124516],[103.045724,-0.123279],[103.047511,-0.122448],[103.050058,-0.122224],[103.060723,-0.12494],[103.06035,-0.126932],[103.059322,-0.162075],[103.044466,-0.166988],[103.015394,-0.175628],[102.991668,-0.183025],[102.986853,-0.132295]],[[103.044777,-0.124987],[103.044726,-0.125078],[103.045381,-0.124175],[103.044777,-0.124987]],[[103.045978,-0.123723],[103.045978,-0.123723],[103.045381,-0.124175],[103.045978,-0.123723]]]}}]}