{"type":"FeatureCollection","features":[{"type":"Feature","properties":{"kdkec":"1403060","nmkec":"TEMBILAHAN","kddesa":"1403060003","nmdesa":"TEMBILAHAN HILIR"},"geometry":{"type":"MultiPolygon","coordinates":[[[[103.16345,-0.324123],[103.162294,-0.324794],[103.161441,-0.323723],[103.161066,-0.323947],[103.160267,-0.322779],[103.15996,-0.322572],[103.159739,-0.322253],[103.160739,-0.321576],[103.160835,-0.321718],[103.158759,-0.318281],[103.159536,-0.319596],[103.158404,-0.320335],[103.15772,-0.319372],[103.157752,-0.319113],[103.157463,-0.318617],[103.157175,-0.318426],[103.156492,-0.317473],[103.156447,-0.317082],[103.156203,-0.316898],[103.158256,-0.313093],[103.158541,-0.313281],[103.158688,-0.313177],[103.15898,-0.313534],[103.160117,-0.312816],[103.160725,-0.313909],[103.159526,-0.311706],[103.159883,-0.311482],[103.159666,-0.311203],[103.160086,-0.310935],[103.159919,-0.310825],[103.159997,-0.310654],[103.160678,-0.310298],[103.16154,-0.311833],[103.161423,-0.311606],[103.164553,-0.309716],[103.167051,-0.308455],[103.167137,-0.308623],[103.169973,-0.307331],[103.169703,-0.306774],[103.171705,-0.305566],[103.191009,-0.293948],[103.19147,-0.294057],[103.196677,-0.302046],[103.190065,-0.306503],[103.197444,-0.301529],[103.204693,-0.296371],[103.206748,-0.294693],[103.208945,-0.298914],[103.20486,-0.300522],[103.199407,-0.302992],[103.196161,-0.304738],[103.189361,-0.308783],[103.184238,-0.311384],[103.176228,-0.316585],[103.172786,-0.31899],[103.171932,-0.319795],[103.170899,-0.320283],[103.170553,-0.320541],[103.169721,-0.321142],[103.166718,-0.323178],[103.162584,-0.326273],[103.16184,-0.325077],[103.16345,-0.324123]],[[103.161292,-0.3236],[103.161256,-0.32352],[103.160916,-0.323727],[103.161292,-0.3236]],[[103.16063,-0.32211],[103.161132,-0.321764],[103.15996,-0.322572],[103.16063,-0.32211]],[[103.16183,-0.31581],[103.161448,-0.315148],[103.160725,-0.313909],[103.16183,-0.31581]],[[103.165036,-0.311257],[103.165137,-0.311445],[103.164553,-0.309716],[103.165036,-0.311257]],[[103.17282,-0.307431],[103.175609,-0.312028],[103.171705,-0.305566],[103.17282,-0.307431]],[[103.169123,-0.309656],[103.170231,-0.308996],[103.17282,-0.307431],[103.169123,-0.309656]],[[103.178382,-0.310155],[103.179816,-0.30972],[103.190065,-0.306503],[103.178382,-0.310155]],[[103.173927,-0.317639],[103.172275,-0.314375],[103.17412,-0.318043],[103.173927,-0.317639]],[[103.168877,-0.316614],[103.169639,-0.318614],[103.170553,-0.320541],[103.168877,-0.316614]],[[103.168479,-0.320786],[103.168409,-0.320653],[103.168655,-0.321865],[103.168479,-0.320786]],[[103.162266,-0.313098],[103.162694,-0.312919],[103.162233,-0.313039],[103.162266,-0.313098]],[[103.162365,-0.31327],[103.162619,-0.313693],[103.162273,-0.313109],[103.162365,-0.31327]],[[103.163094,-0.317707],[103.162953,-0.317442],[103.16266,-0.317238],[103.163094,-0.317707]],[[103.164363,-0.316681],[103.164363,-0.316681],[103.162953,-0.317442],[103.164363,-0.316681]],[[103.165908,-0.318641],[103.166155,-0.31848],[103.166847,-0.318018],[103.165653,-0.318805],[103.165908,-0.318641]],[[103.166363,-0.319959],[103.166526,-0.319849],[103.166877,-0.319608],[103.166363,-0.319959]],[[103.167172,-0.321372],[103.168378,-0.320595],[103.167224,-0.321323],[103.166526,-0.319849],[103.167172,-0.321372]],[[103.16274,-0.320776],[103.162698,-0.320706],[103.161671,-0.321391],[103.16274,-0.320776]],[[103.164761,-0.323347],[103.164305,-0.322768],[103.16274,-0.320776],[103.164761,-0.323347]],[[103.161146,-0.321534],[103.161231,-0.321695],[103.161231,-0.321695],[103.161146,-0.321534]],[[103.161711,-0.323235],[103.161711,-0.323235],[103.16155,-0.323346],[103.161711,-0.323235]],[[103.16612,-0.322415],[103.166889,-0.3217],[103.166983,-0.322026],[103.166936,-0.321641],[103.16612,-0.322415]],[[103.165665,-0.321668],[103.165514,-0.321547],[103.16612,-0.322415],[103.165665,-0.321668]],[[103.166095,-0.32044],[103.166383,-0.32087],[103.166936,-0.321641],[103.166095,-0.32044]],[[103.166381,-0.32027],[103.166376,-0.320196],[103.166095,-0.32044],[103.166381,-0.32027]],[[103.16548,-0.321498],[103.16548,-0.321498],[103.166383,-0.32087],[103.16548,-0.321498]],[[103.166357,-0.31404],[103.16379,-0.315672],[103.165174,-0.314836],[103.166357,-0.31404]],[[103.166511,-0.314491],[103.166277,-0.313566],[103.166357,-0.31404],[103.166511,-0.314491]],[[103.167882,-0.319661],[103.167602,-0.31912],[103.16745,-0.319027],[103.168087,-0.320047],[103.167882,-0.319661]],[[103.166256,-0.311324],[103.167874,-0.310407],[103.165293,-0.311734],[103.166256,-0.311324]],[[103.168082,-0.31527],[103.16876,-0.316689],[103.166256,-0.311324],[103.168082,-0.31527]],[[103.168642,-0.312947],[103.169367,-0.315535],[103.168296,-0.311485],[103.167874,-0.310407],[103.168642,-0.312947]],[[103.166827,-0.315738],[103.16683,-0.315851],[103.16684,-0.315789],[103.166827,-0.315738]],[[103.16516,-0.316748],[103.165193,-0.316836],[103.166404,-0.316434],[103.165795,-0.316605],[103.16516,-0.316748]],[[103.166782,-0.316157],[103.1668,-0.316039],[103.166404,-0.316434],[103.166782,-0.316157]],[[103.164438,-0.316812],[103.164438,-0.316812],[103.1644,-0.316745],[103.164438,-0.316812]],[[103.174254,-0.313003],[103.175579,-0.315155],[103.174254,-0.313003],[103.174254,-0.313003]]],[[[103.16184,-0.325077],[103.161066,-0.323947],[103.161443,-0.323727],[103.162294,-0.324794],[103.16184,-0.325077]]],[[[103.159536,-0.319596],[103.160739,-0.321576],[103.159739,-0.322253],[103.158404,-0.320335],[103.159536,-0.319596]]]]}}]}