{"type":"FeatureCollection","features":[{"type":"Feature","properties":{"kdkec":"1403123","nmkec":"PULAU BURUNG","kddesa":"1403123008","nmdesa":"SUNGAI DANAI"},"geometry":{"type":"Polygon","coordinates":[[[103.353464,0.46523],[103.347212,0.458192],[103.343333,0.461652],[103.33872,0.455938],[103.334579,0.459555],[103.3307,0.455204],[103.324802,0.460184],[103.318424,0.465848],[103.339692,0.477648],[103.351606,0.484767],[103.351606,0.502379],[103.349837,0.509453],[103.346732,0.511161],[103.343413,0.513668],[103.34332,0.524637],[103.344396,0.539555],[103.347324,0.53869],[103.351309,0.536873],[103.353732,0.536162],[103.354475,0.53571],[103.362427,0.533566],[103.373622,0.532164],[103.378436,0.532261],[103.383994,0.531647],[103.390827,0.529288],[103.39178,0.529353],[103.396529,0.527317],[103.401198,0.525896],[103.403686,0.525347],[103.405204,0.52525],[103.410939,0.522439],[103.412522,0.521857],[103.413808,0.520885],[103.415089,0.520316],[103.41877,0.517081],[103.419826,0.516394],[103.420206,0.515564],[103.419813,0.51653],[103.420252,0.517292],[103.421612,0.516641],[103.421838,0.516343],[103.425816,0.51396],[103.430072,0.509864],[103.434471,0.506604],[103.436929,0.505821],[103.437762,0.505151],[103.440456,0.501368],[103.444801,0.496844],[103.456449,0.489043],[103.457972,0.48897],[103.474708,0.474935],[103.450153,0.448461],[103.433747,0.429793],[103.416088,0.408877],[103.399455,0.42385],[103.392551,0.430268],[103.373735,0.44695],[103.353464,0.46523]],[[103.440472,0.447598],[103.446503,0.45357],[103.440466,0.447603],[103.445461,0.443154],[103.440472,0.447598]],[[103.449267,0.457092],[103.450134,0.458434],[103.446503,0.45357],[103.449267,0.457092]],[[103.415863,0.511587],[103.416473,0.51312],[103.416569,0.513518],[103.415863,0.511587]],[[103.410366,0.505597],[103.410366,0.505597],[103.411339,0.512106],[103.410366,0.505597]],[[103.375977,0.502438],[103.41038,0.499541],[103.406591,0.49986],[103.375977,0.502438]],[[103.414825,0.481025],[103.415521,0.48204],[103.416566,0.483721],[103.414825,0.481025]],[[103.407755,0.452942],[103.410951,0.450096],[103.409849,0.451085],[103.407755,0.452942]],[[103.388588,0.463379],[103.407522,0.446878],[103.404691,0.449442],[103.388588,0.463379]],[[103.40521,0.475711],[103.402091,0.475423],[103.400866,0.475274],[103.40521,0.475711]],[[103.398839,0.474292],[103.396749,0.473152],[103.400866,0.475274],[103.398839,0.474292]],[[103.359258,0.513694],[103.355698,0.512829],[103.357569,0.513191],[103.361155,0.514235],[103.359258,0.513694]],[[103.457487,0.465354],[103.455504,0.464368],[103.4534,0.463219],[103.457487,0.465354],[103.457487,0.465354]],[[103.415795,0.502324],[103.414782,0.502302],[103.416822,0.502236],[103.415795,0.502324]],[[103.419965,0.510989],[103.420397,0.511903],[103.420474,0.512344],[103.419965,0.510989]]]}}]}