{"type":"FeatureCollection","features":[{"type":"Feature","properties":{"kdkec":"1403020","nmkec":"RETEH","kddesa":"1403020013","nmdesa":"SUNGAI ASAM"},"geometry":{"type":"Polygon","coordinates":[[[103.284921,-0.768227],[103.285677,-0.774387],[103.280351,-0.774704],[103.279891,-0.773101],[103.274012,-0.773119],[103.272809,-0.771528],[103.263249,-0.769403],[103.257475,-0.776461],[103.256896,-0.776313],[103.251981,-0.773875],[103.25056,-0.772775],[103.24516,-0.769701],[103.243243,-0.769316],[103.245508,-0.76725],[103.24632,-0.767642],[103.253576,-0.753484],[103.256655,-0.746263],[103.256763,-0.746906],[103.257149,-0.747507],[103.258455,-0.748086],[103.259339,-0.746427],[103.260282,-0.746927],[103.267265,-0.735943],[103.269534,-0.733014],[103.273407,-0.734289],[103.269088,-0.732865],[103.270984,-0.729088],[103.27414,-0.730412],[103.278398,-0.731332],[103.279202,-0.729545],[103.281694,-0.729227],[103.284213,-0.729391],[103.285279,-0.727868],[103.289172,-0.731761],[103.306407,-0.719634],[103.321635,-0.719265],[103.322989,-0.718931],[103.323531,-0.719477],[103.323581,-0.721774],[103.326361,-0.728933],[103.325336,-0.730207],[103.324348,-0.730963],[103.323371,-0.731315],[103.324963,-0.743648],[103.323934,-0.752252],[103.323508,-0.754446],[103.323324,-0.754659],[103.322192,-0.758981],[103.321677,-0.764539],[103.319722,-0.771435],[103.318783,-0.776874],[103.315638,-0.776618],[103.308473,-0.775557],[103.308075,-0.762024],[103.303327,-0.762024],[103.3031,-0.771801],[103.303856,-0.78012],[103.298775,-0.779662],[103.293214,-0.779106],[103.292086,-0.768293],[103.284921,-0.768227]],[[103.298202,-0.767121],[103.298206,-0.767266],[103.298775,-0.779662],[103.298202,-0.767121]],[[103.296473,-0.738053],[103.297385,-0.737803],[103.298435,-0.737515],[103.296473,-0.738053]],[[103.289277,-0.737325],[103.284039,-0.737215],[103.288704,-0.737337],[103.294458,-0.738191],[103.289277,-0.737325]],[[103.280146,-0.76315],[103.270065,-0.762782],[103.275051,-0.763014],[103.280146,-0.76315]],[[103.312828,-0.732491],[103.315599,-0.732512],[103.320114,-0.732488],[103.312828,-0.732491]],[[103.308778,-0.731136],[103.312442,-0.732362],[103.312828,-0.732491],[103.308778,-0.731136]],[[103.315593,-0.733985],[103.315649,-0.733937],[103.315599,-0.732512],[103.315593,-0.733985]],[[103.306643,-0.731361],[103.304364,-0.732045],[103.306822,-0.731342],[103.306643,-0.731361]],[[103.306822,-0.731342],[103.307612,-0.738741],[103.307956,-0.74132],[103.306822,-0.731342]]]}}]}