{"type":"FeatureCollection","features":[{"type":"Feature","properties":{"kdkec":"1403080","nmkec":"BATANG TUAKA","kddesa":"1403080009","nmdesa":"SIALANG JAYA"},"geometry":{"type":"Polygon","coordinates":[[[103.302002,-0.230419],[103.30675,-0.227924],[103.313599,-0.223768],[103.314073,-0.202718],[103.317725,-0.207852],[103.322103,-0.206497],[103.327325,-0.22135],[103.332149,-0.228048],[103.342978,-0.241717],[103.336532,-0.242783],[103.328364,-0.24486],[103.321475,-0.245763],[103.319482,-0.245695],[103.309383,-0.246128],[103.299617,-0.243887],[103.300683,-0.236292],[103.302002,-0.230419]],[[103.319732,-0.226909],[103.319773,-0.227159],[103.321581,-0.229377],[103.32007,-0.227475],[103.319294,-0.226172],[103.319732,-0.226909]],[[103.322691,-0.230719],[103.323814,-0.231693],[103.322516,-0.230489],[103.322691,-0.230719]],[[103.325042,-0.233969],[103.325394,-0.234377],[103.324677,-0.233296],[103.325042,-0.233969]],[[103.325821,-0.235406],[103.325888,-0.235121],[103.325867,-0.23509],[103.325821,-0.235406]],[[103.326564,-0.236194],[103.326914,-0.236292],[103.326481,-0.236035],[103.326564,-0.236194]],[[103.327662,-0.237375],[103.328221,-0.237804],[103.328029,-0.237585],[103.327662,-0.237375]],[[103.328621,-0.238263],[103.328673,-0.238453],[103.329019,-0.23872],[103.328621,-0.238263]]]}}]}