{"type":"FeatureCollection","features":[{"type":"Feature","properties":{"kdkec":"1403080","nmkec":"BATANG TUAKA","kddesa":"1403080001","nmdesa":"KUALA SEBATU"},"geometry":{"type":"Polygon","coordinates":[[[102.9671,-0.389362],[102.973433,-0.389875],[102.967791,-0.389331],[102.962648,-0.389559],[102.96239,-0.387166],[102.947156,-0.362184],[102.935234,-0.329904],[102.977123,-0.28938],[102.979711,-0.291218],[102.985577,-0.289491],[102.991196,-0.295562],[102.997674,-0.292704],[103.007183,-0.302824],[103.009732,-0.30677],[103.012143,-0.309791],[103.012822,-0.309791],[103.013712,-0.310291],[103.014369,-0.310121],[103.015632,-0.310177],[103.016659,-0.310546],[103.019043,-0.311976],[103.019258,-0.31251],[103.020184,-0.313544],[103.021219,-0.31387],[103.021956,-0.315015],[103.023902,-0.316958],[103.026515,-0.319324],[103.027875,-0.320348],[103.028529,-0.321125],[103.029095,-0.322677],[103.029342,-0.315458],[103.029198,-0.311577],[103.029319,-0.305478],[103.030578,-0.275407],[103.034436,-0.275051],[103.04581,-0.296327],[103.050003,-0.305001],[103.049568,-0.307497],[103.049114,-0.312232],[103.049076,-0.32237],[103.078774,-0.345242],[103.081396,-0.348378],[103.083512,-0.354216],[103.078673,-0.354819],[103.076732,-0.356411],[103.072714,-0.358818],[103.06988,-0.359148],[103.065299,-0.358702],[103.061746,-0.356566],[103.058138,-0.353302],[103.057495,-0.35167],[103.056981,-0.349151],[103.056153,-0.347644],[103.055112,-0.34636],[103.05094,-0.342386],[103.047875,-0.339841],[103.045023,-0.338222],[103.043053,-0.338019],[103.040966,-0.337582],[103.038714,-0.337397],[103.03522,-0.337786],[103.031339,-0.337516],[103.030448,-0.336971],[103.028246,-0.337336],[103.026543,-0.338619],[103.022457,-0.343221],[103.018776,-0.346011],[103.014728,-0.350699],[103.013547,-0.352278],[103.010612,-0.355455],[103.00886,-0.356732],[103.005622,-0.360269],[103.005503,-0.36419],[103.007757,-0.37397],[103.006935,-0.378792],[102.995707,-0.379155],[103.006936,-0.378792],[103.006031,-0.3841],[103.002505,-0.389574],[103.001651,-0.390648],[102.99429,-0.394169],[102.989697,-0.397299],[102.98839,-0.397956],[102.986161,-0.397673],[102.98122,-0.396578],[102.967917,-0.396727],[102.967567,-0.391879],[102.9671,-0.389362]],[[103.041088,-0.333161],[103.040972,-0.335712],[103.040966,-0.337582],[103.041088,-0.333161]],[[103.003307,-0.358851],[103.003361,-0.358999],[103.003919,-0.359553],[103.003307,-0.358851]],[[103.001186,-0.354202],[103.001186,-0.354202],[103.001186,-0.354202],[103.001186,-0.354202]],[[102.995958,-0.357074],[102.995061,-0.363206],[102.996401,-0.354042],[102.995958,-0.357074]],[[103.009092,-0.307414],[103.009001,-0.307379],[103.009366,-0.307752],[103.009092,-0.307414]],[[103.008683,-0.307255],[103.003655,-0.308859],[103.008814,-0.307306],[103.008683,-0.307255]],[[103.004926,-0.326832],[103.010013,-0.325334],[103.008397,-0.325746],[103.004926,-0.326832]]]}}]}