{"type":"FeatureCollection","features":[{"type":"Feature","properties":{"kdkec":"1403010","nmkec":"KERITANG","kddesa":"1403010005","nmdesa":"KEMBANG MEKAR SARI"},"geometry":{"type":"Polygon","coordinates":[[[102.881309,-0.746044],[102.877407,-0.745443],[102.875506,-0.744643],[102.877307,-0.73974],[102.877908,-0.732336],[102.881515,-0.719132],[102.881009,-0.711425],[102.880745,-0.669185],[102.896257,-0.669643],[102.899584,-0.688201],[102.904601,-0.687669],[102.906815,-0.697082],[102.922362,-0.728412],[102.92688,-0.735316],[102.928449,-0.736199],[102.930117,-0.73839],[102.930511,-0.739229],[102.927414,-0.739311],[102.92664,-0.735398],[102.927371,-0.739309],[102.925339,-0.739334],[102.921391,-0.743168],[102.918229,-0.745043],[102.912082,-0.745736],[102.902554,-0.747964],[102.900119,-0.748145],[102.896417,-0.747945],[102.892298,-0.746524],[102.888913,-0.745944],[102.881309,-0.746044]],[[102.905993,-0.721847],[102.905505,-0.716164],[102.904801,-0.707971],[102.905993,-0.721847]],[[102.885579,-0.718915],[102.885901,-0.728554],[102.885901,-0.728554],[102.885579,-0.718915]],[[102.920734,-0.735411],[102.91837,-0.73708],[102.920734,-0.735411],[102.920734,-0.735411]]]}}]}