{"type":"FeatureCollection","features":[{"type":"Feature","properties":{"kdkec":"1403050","nmkec":"KUALA INDRAGIRI","kddesa":"1403050001","nmdesa":"TANJUNG LAJAU"},"geometry":{"type":"Polygon","coordinates":[[[103.436237,-0.433592],[103.386176,-0.4133],[103.360883,-0.400683],[103.336928,-0.38324],[103.316232,-0.365484],[103.318148,-0.362568],[103.31924,-0.361612],[103.326392,-0.360215],[103.330768,-0.35816],[103.33704,-0.361654],[103.346654,-0.366503],[103.357907,-0.372545],[103.368179,-0.375808],[103.39304,-0.379564],[103.402604,-0.379735],[103.416519,-0.377786],[103.426012,-0.376895],[103.43665,-0.374364],[103.441383,-0.372609],[103.444379,-0.371694],[103.446391,-0.371928],[103.450008,-0.374956],[103.455045,-0.378755],[103.462813,-0.381514],[103.468086,-0.382351],[103.471859,-0.382004],[103.475479,-0.380992],[103.491355,-0.376097],[103.500719,-0.372859],[103.510836,-0.369965],[103.514705,-0.370539],[103.516966,-0.372843],[103.522362,-0.3862],[103.5261,-0.391803],[103.531568,-0.396327],[103.52888,-0.398268],[103.520598,-0.399516],[103.51867,-0.401785],[103.519541,-0.442978],[103.514955,-0.443389],[103.507718,-0.442997],[103.510473,-0.425594],[103.500756,-0.425709],[103.499536,-0.434561],[103.446238,-0.435104],[103.436237,-0.433592]],[[103.442486,-0.421397],[103.44361,-0.410301],[103.444018,-0.406278],[103.442486,-0.421397]],[[103.441335,-0.428375],[103.441932,-0.424752],[103.442486,-0.421397],[103.441335,-0.428375]],[[103.442699,-0.373309],[103.44164,-0.373552],[103.443764,-0.373108],[103.442699,-0.373309]],[[103.441575,-0.373276],[103.441843,-0.374425],[103.44164,-0.373552],[103.441575,-0.373276]],[[103.440999,-0.373424],[103.441369,-0.3747],[103.441344,-0.374579],[103.440999,-0.373424]],[[103.441945,-0.377508],[103.442511,-0.377399],[103.441945,-0.377508],[103.441945,-0.377508]],[[103.449373,-0.378273],[103.449373,-0.378273],[103.442511,-0.377399],[103.449373,-0.378273]],[[103.438669,-0.379703],[103.438432,-0.379906],[103.440971,-0.377731],[103.440971,-0.377731],[103.440145,-0.378439],[103.438669,-0.379703]],[[103.438933,-0.374552],[103.439098,-0.375229],[103.440145,-0.378439],[103.438933,-0.374552]]]}}]}