{"type":"FeatureCollection","features":[{"type":"Feature","properties":{"kdkec":"1403051","nmkec":"CONCONG","kddesa":"1403051006","nmdesa":"PANGLIMA RAJA"},"geometry":{"type":"MultiPolygon","coordinates":[[[[103.632313,-0.243907],[103.633581,-0.242491],[103.636384,-0.240015],[103.63733,-0.239212],[103.641065,-0.236325],[103.642291,-0.235864],[103.642589,-0.236637],[103.64462,-0.235755],[103.655287,-0.24635],[103.682442,-0.258466],[103.686445,-0.257727],[103.690184,-0.258652],[103.691115,-0.260855],[103.704478,-0.254877],[103.715707,-0.262115],[103.72647,-0.274108],[103.736076,-0.281709],[103.757357,-0.297652],[103.777707,-0.323816],[103.667281,-0.306736],[103.655383,-0.304672],[103.653305,-0.301821],[103.656832,-0.298352],[103.652935,-0.293058],[103.647243,-0.296755],[103.634543,-0.276089],[103.633957,-0.268304],[103.626736,-0.249922],[103.628755,-0.24611],[103.630337,-0.244925],[103.632313,-0.243907]],[[103.638724,-0.23905],[103.638724,-0.23905],[103.63824,-0.238508],[103.638724,-0.23905]],[[103.642985,-0.237191],[103.643195,-0.237704],[103.643027,-0.237275],[103.645092,-0.236225],[103.642985,-0.237191]],[[103.642016,-0.236383],[103.641631,-0.236544],[103.641528,-0.236609],[103.642016,-0.236383]],[[103.640965,-0.238245],[103.639185,-0.239594],[103.640965,-0.238245],[103.640965,-0.238245]],[[103.638423,-0.240363],[103.637552,-0.241317],[103.639185,-0.239594],[103.638423,-0.240363]],[[103.637311,-0.241049],[103.636426,-0.241836],[103.634994,-0.243143],[103.637311,-0.241049],[103.637311,-0.241049]],[[103.640753,-0.237416],[103.64075,-0.237411],[103.640578,-0.237579],[103.640843,-0.237454],[103.640753,-0.237416]],[[103.640922,-0.238159],[103.640853,-0.238023],[103.640578,-0.237579],[103.640922,-0.238159]],[[103.647784,-0.274355],[103.656851,-0.288818],[103.659707,-0.293179],[103.647784,-0.274355]],[[103.662517,-0.268932],[103.653633,-0.275451],[103.656777,-0.273223],[103.662517,-0.268932]]],[[[103.642291,-0.235864],[103.644043,-0.235184],[103.64462,-0.235755],[103.642672,-0.236597],[103.642291,-0.235864]]]]}}]}