{"type":"FeatureCollection","features":[{"type":"Feature","properties":{"kdkec":"1403123","nmkec":"PULAU BURUNG","kddesa":"1403123015","nmdesa":"SUKOHARJO JAYA"},"geometry":{"type":"Polygon","coordinates":[[[103.353464,0.46523],[103.373735,0.44695],[103.344528,0.417562],[103.335967,0.40932],[103.317715,0.423556],[103.289512,0.448431],[103.310785,0.461619],[103.318424,0.465848],[103.324802,0.460184],[103.3307,0.455204],[103.334579,0.459555],[103.33872,0.455938],[103.343333,0.461652],[103.347212,0.458192],[103.353464,0.46523]],[[103.338485,0.425148],[103.338485,0.425148],[103.33789,0.425687],[103.338485,0.425148]],[[103.338941,0.425676],[103.338893,0.425623],[103.33886,0.425583],[103.338941,0.425676]],[[103.337676,0.427446],[103.339945,0.429987],[103.336966,0.426689],[103.337676,0.427446]]]}}]}