{"type":"FeatureCollection","features":[{"type":"Feature","properties":{"kdkec":"1403010","nmkec":"KERITANG","kddesa":"1403010001","nmdesa":"KOTABARU RETEH"},"geometry":{"type":"Polygon","coordinates":[[[102.953991,-0.751717],[102.955726,-0.750774],[102.957727,-0.750134],[102.957968,-0.749573],[102.957104,-0.747704],[102.955646,-0.746532],[102.953805,-0.746932],[102.951964,-0.748293],[102.950924,-0.748213],[102.948362,-0.744931],[102.947131,-0.744341],[102.945901,-0.744072],[102.944338,-0.744559],[102.9438,-0.74397],[102.942494,-0.741318],[102.941398,-0.741065],[102.939952,-0.740969],[102.936376,-0.741958],[102.935636,-0.741889],[102.931488,-0.739673],[102.932749,-0.735298],[102.933817,-0.733374],[102.935393,-0.731264],[102.93626,-0.729587],[102.938813,-0.723142],[102.939316,-0.722418],[102.940301,-0.721274],[102.940919,-0.720678],[102.944142,-0.718704],[102.947434,-0.71735],[102.952679,-0.715942],[102.954255,-0.715154],[102.955804,-0.713819],[102.957464,-0.711574],[102.958682,-0.709173],[102.960017,-0.708435],[102.962884,-0.7073],[102.965854,-0.707036],[102.976357,-0.705514],[102.980329,-0.705403],[102.983561,-0.706579],[102.985315,-0.706892],[102.985647,-0.716619],[102.990089,-0.751791],[102.993451,-0.759225],[102.994859,-0.762935],[102.997249,-0.771675],[102.989439,-0.783001],[102.98369,-0.778427],[102.968769,-0.765656],[102.963295,-0.76643],[102.96281,-0.766983],[102.962869,-0.766008],[102.96249,-0.762981],[102.959688,-0.760419],[102.958608,-0.759659],[102.956297,-0.75956],[102.953095,-0.760515],[102.952275,-0.761021],[102.951711,-0.761021],[102.951448,-0.76022],[102.951673,-0.758314],[102.952057,-0.757315],[102.952284,-0.753816],[102.952525,-0.752775],[102.953991,-0.751717]],[[102.964732,-0.74994],[102.967073,-0.749801],[102.957727,-0.750134],[102.964732,-0.74994]],[[102.951255,-0.741013],[102.947467,-0.742411],[102.9438,-0.74397],[102.951255,-0.741013]],[[102.942468,-0.72336],[102.942139,-0.723037],[102.940301,-0.721274],[102.942468,-0.72336]],[[102.942649,-0.722429],[102.94277,-0.722545],[102.940919,-0.720678],[102.942649,-0.722429]],[[102.944485,-0.719692],[102.944701,-0.719999],[102.944142,-0.718704],[102.944485,-0.719692]],[[102.954098,-0.727019],[102.957263,-0.724937],[102.957263,-0.724937],[102.954098,-0.727019]],[[102.962186,-0.736921],[102.964411,-0.738928],[102.960075,-0.735018],[102.962186,-0.736921]],[[102.958884,-0.738136],[102.957226,-0.738778],[102.962186,-0.736921],[102.958884,-0.738136]],[[102.94769,-0.719876],[102.945762,-0.720985],[102.94791,-0.719791],[102.94769,-0.719876]],[[102.944985,-0.720402],[102.945039,-0.720479],[102.945762,-0.720985],[102.944985,-0.720402]],[[102.950227,-0.722497],[102.948685,-0.720568],[102.94791,-0.719791],[102.950227,-0.722497]],[[102.945004,-0.731133],[102.948517,-0.733813],[102.939792,-0.727156],[102.945004,-0.731133]],[[102.953022,-0.736797],[102.955489,-0.739428],[102.955489,-0.739428],[102.953022,-0.736797]],[[102.944185,-0.720843],[102.944584,-0.720607],[102.944185,-0.720843],[102.944185,-0.720843]],[[102.973716,-0.748399],[102.973937,-0.748616],[102.976295,-0.750927],[102.972351,-0.747061],[102.973716,-0.748399]],[[102.983974,-0.745316],[102.981825,-0.746657],[102.985436,-0.744403],[102.983974,-0.745316]],[[102.963244,-0.752923],[102.961867,-0.753945],[102.9629,-0.753278],[102.963244,-0.752923]],[[102.978138,-0.749342],[102.968479,-0.736953],[102.96785,-0.736279],[102.978138,-0.749342]],[[102.978285,-0.731077],[102.98415,-0.738722],[102.98415,-0.738722],[102.978285,-0.731077]],[[102.982958,-0.727196],[102.982958,-0.727196],[102.978513,-0.724317],[102.982958,-0.727196]]]}}]}