{"type":"FeatureCollection","features":[{"type":"Feature","properties":{"kdkec":"1403021","nmkec":"SUNGAI BATANG","kddesa":"1403021003","nmdesa":"PASENGGERAHAN"},"geometry":{"type":"Polygon","coordinates":[[[103.263136,-0.657498],[103.248476,-0.659072],[103.249501,-0.635849],[103.248934,-0.628415],[103.249078,-0.584478],[103.246751,-0.584107],[103.24683,-0.573533],[103.261946,-0.581863],[103.271317,-0.587275],[103.289572,-0.595125],[103.291924,-0.596123],[103.298076,-0.59539],[103.30185,-0.622129],[103.302116,-0.649436],[103.300118,-0.650102],[103.295456,-0.650235],[103.293192,-0.649702],[103.292833,-0.649872],[103.291802,-0.649594],[103.291681,-0.656542],[103.279527,-0.657191],[103.263136,-0.657498]],[[103.267868,-0.630443],[103.268781,-0.628664],[103.270639,-0.625016],[103.26831,-0.629578],[103.267868,-0.630443]],[[103.266365,-0.657403],[103.267903,-0.63047],[103.267868,-0.630443],[103.266365,-0.657403]],[[103.27268,-0.632496],[103.273893,-0.634761],[103.272709,-0.632544],[103.27268,-0.632496]],[[103.272667,-0.632473],[103.271812,-0.633491],[103.272667,-0.632473],[103.272667,-0.632473]],[[103.271482,-0.62927],[103.271877,-0.629524],[103.271916,-0.629459],[103.271482,-0.62927]],[[103.272339,-0.629896],[103.272456,-0.629693],[103.272329,-0.6298],[103.272339,-0.629896]]]}}]}