{"type":"FeatureCollection","features":[{"type":"Feature","properties":{"kdkec":"1403071","nmkec":"KEMPAS","kddesa":"1403071010","nmdesa":"KERTA JAYA"},"geometry":{"type":"Polygon","coordinates":[[[102.808866,-0.512204],[102.808276,-0.510148],[102.806811,-0.507459],[102.804863,-0.504878],[102.801963,-0.501908],[102.803469,-0.499989],[102.804294,-0.498326],[102.804018,-0.496398],[102.805537,-0.484492],[102.802389,-0.47314],[102.797801,-0.458892],[102.789209,-0.430242],[102.773162,-0.329487],[102.770043,-0.308738],[102.765671,-0.282797],[102.758805,-0.244675],[102.76102,-0.244679],[102.797711,-0.429937],[102.761017,-0.244663],[102.782287,-0.244716],[102.819505,-0.447904],[102.826775,-0.48253],[102.828044,-0.495869],[102.82516,-0.515515],[102.824826,-0.519422],[102.824632,-0.525603],[102.820095,-0.525893],[102.818105,-0.525729],[102.811425,-0.52282],[102.809982,-0.521683],[102.809315,-0.520513],[102.80891,-0.519125],[102.809042,-0.515509],[102.808866,-0.512204]],[[102.808562,-0.497026],[102.809369,-0.487109],[102.808561,-0.497026],[102.808562,-0.497026]],[[102.808143,-0.502308],[102.80828,-0.501692],[102.809307,-0.49701],[102.808143,-0.502308]],[[102.80989,-0.508647],[102.80989,-0.508647],[102.809533,-0.507332],[102.80989,-0.508647]],[[102.813266,-0.504482],[102.817886,-0.489183],[102.814044,-0.501857],[102.813266,-0.504482]]]}}]}