{"type":"FeatureCollection","features":[{"type":"Feature","properties":{"kdkec":"1403070","nmkec":"TEMPULING","kddesa":"1403070013","nmdesa":"TELUK KIAMBANG"},"geometry":{"type":"MultiPolygon","coordinates":[[[[102.848494,-0.532897],[102.846563,-0.530853],[102.844207,-0.529295],[102.841852,-0.528047],[102.837834,-0.526436],[102.833356,-0.525301],[102.831025,-0.525158],[102.824632,-0.525603],[102.824826,-0.519422],[102.82516,-0.515515],[102.828044,-0.495869],[102.827848,-0.493809],[102.826775,-0.48253],[102.819505,-0.447904],[102.782287,-0.244716],[102.80409,-0.244571],[102.84211,-0.426743],[102.842141,-0.435424],[102.841785,-0.459309],[102.841868,-0.463801],[102.840979,-0.484519],[102.841742,-0.466783],[102.853489,-0.467126],[102.851494,-0.47042],[102.851089,-0.472728],[102.851897,-0.47558],[102.85311,-0.477889],[102.855152,-0.479461],[102.856934,-0.480551],[102.85792,-0.480992],[102.859173,-0.481279],[102.859197,-0.488661],[102.869817,-0.501653],[102.871151,-0.506024],[102.847412,-0.5066],[102.863567,-0.506248],[102.872129,-0.528762],[102.870506,-0.529493],[102.865833,-0.532063],[102.8617,-0.534573],[102.85997,-0.535981],[102.85762,-0.537378],[102.854541,-0.53882],[102.852827,-0.537536],[102.848494,-0.532897]],[[102.832609,-0.493752],[102.835276,-0.493704],[102.827848,-0.493809],[102.832609,-0.493752]],[[102.858837,-0.508606],[102.863861,-0.525719],[102.865833,-0.532063],[102.858837,-0.508606]],[[102.841591,-0.493862],[102.843197,-0.493855],[102.841279,-0.493854],[102.841591,-0.493862]],[[102.84716,-0.527136],[102.848188,-0.525413],[102.848188,-0.525413],[102.84716,-0.527136]],[[102.845891,-0.526376],[102.84782,-0.527557],[102.84716,-0.527136],[102.845891,-0.526376]],[[102.850826,-0.528285],[102.851372,-0.528574],[102.850826,-0.528285],[102.850826,-0.528285]],[[102.84942,-0.532384],[102.84928,-0.532247],[102.849456,-0.532516],[102.849543,-0.532401],[102.84942,-0.532384]],[[102.849967,-0.53268],[102.850387,-0.532942],[102.849773,-0.532527],[102.849967,-0.53268]],[[102.848828,-0.531279],[102.848104,-0.53069],[102.848828,-0.531279],[102.848828,-0.531279]],[[102.850014,-0.529514],[102.849205,-0.530736],[102.849791,-0.529874],[102.850014,-0.529514]],[[102.857808,-0.527183],[102.859246,-0.526919],[102.855058,-0.527685],[102.857808,-0.527183]],[[102.853633,-0.530709],[102.855122,-0.529858],[102.855122,-0.529858],[102.853633,-0.530709]]],[[[102.871151,-0.506024],[102.87243,-0.51069],[102.873091,-0.514973],[102.876966,-0.525595],[102.874319,-0.527594],[102.872129,-0.528762],[102.863567,-0.506248],[102.871151,-0.506024]]]]}}]}