{"type":"FeatureCollection","features":[{"type":"Feature","properties":{"kdkec":"1403040","nmkec":"TANAH MERAH","kddesa":"1403040010","nmdesa":"TEKULAI BUGIS"},"geometry":{"type":"Polygon","coordinates":[[[103.262821,-0.387958],[103.256002,-0.385176],[103.246879,-0.385021],[103.233012,-0.385106],[103.229802,-0.385199],[103.226718,-0.386143],[103.222752,-0.387838],[103.221994,-0.388313],[103.221338,-0.387371],[103.213884,-0.378881],[103.218875,-0.376926],[103.223173,-0.372885],[103.225378,-0.369249],[103.226998,-0.364885],[103.244838,-0.34542],[103.258814,-0.347104],[103.276218,-0.355446],[103.275924,-0.360419],[103.275216,-0.389683],[103.267731,-0.38976],[103.265932,-0.389652],[103.262821,-0.387958]],[[103.268074,-0.360084],[103.262388,-0.363105],[103.265379,-0.361568],[103.268074,-0.360084]],[[103.255561,-0.363378],[103.246779,-0.362225],[103.252334,-0.362964],[103.255561,-0.363378]]]}}]}