{"type":"FeatureCollection","features":[{"type":"Feature","properties":{"kdkec":"1403100","nmkec":"GAUNG","kddesa":"1403100015","nmdesa":"SOREN"},"geometry":{"type":"Polygon","coordinates":[[[103.314915,-0.116681],[103.307651,-0.115124],[103.299751,-0.110711],[103.290679,-0.105399],[103.284714,-0.101694],[103.27793,-0.098316],[103.270508,-0.096775],[103.263699,-0.096393],[103.26257,-0.09648],[103.258592,-0.047602],[103.265049,-0.053239],[103.27714,-0.061184],[103.289921,-0.071202],[103.302703,-0.083638],[103.307256,-0.085989],[103.309511,-0.088479],[103.30507,-0.110644],[103.314316,-0.113555],[103.314915,-0.116681]],[[103.27061,-0.095407],[103.270609,-0.095083],[103.270508,-0.096775],[103.27061,-0.095407]],[[103.275599,-0.095479],[103.276622,-0.09261],[103.275156,-0.096722],[103.275599,-0.095479]],[[103.30425,-0.110385],[103.302068,-0.109661],[103.302889,-0.109957],[103.30425,-0.110385]],[[103.285492,-0.099323],[103.285029,-0.098986],[103.281894,-0.098065],[103.28518,-0.099145],[103.285492,-0.099323]],[[103.285115,-0.09882],[103.28854,-0.095584],[103.285215,-0.098626],[103.285115,-0.09882]]]}}]}