{"type":"FeatureCollection","features":[{"type":"Feature","properties":{"kdkec":"1403110","nmkec":"MANDAH","kddesa":"1403110004","nmdesa":"PELANDUK"},"geometry":{"type":"MultiPolygon","coordinates":[[[[103.351981,0.022537],[103.351118,0.022537],[103.350256,0.022249],[103.34968,0.020811],[103.348818,0.019661],[103.347668,0.019661],[103.357743,0.051591],[103.359464,0.050507],[103.360798,0.049383],[103.361571,0.048143],[103.363138,0.047249],[103.36562,0.0462],[103.367634,0.045123],[103.369647,0.042454],[103.371641,0.041457],[103.379108,0.050132],[103.38553,0.044228],[103.381442,0.040093],[103.381113,0.038152],[103.38206,0.036822],[103.382558,0.03535],[103.382649,0.033372],[103.383296,0.031067],[103.384182,0.02966],[103.386689,0.027909],[103.390947,0.028452],[103.392479,0.028282],[103.39414,0.027844],[103.39781,0.025564],[103.399877,0.024007],[103.401283,0.020914],[103.402257,0.020317],[103.403004,0.020144],[103.404484,0.020174],[103.405903,0.019721],[103.407353,0.018754],[103.40853,0.017275],[103.412427,0.022034],[103.413253,0.028029],[103.415437,0.031021],[103.417863,0.029125],[103.422673,0.033902],[103.425551,0.031169],[103.433972,0.02238],[103.433513,0.021807],[103.435318,0.020249],[103.436271,0.018122],[103.439603,0.014649],[103.432614,0.00386],[103.432053,0.003817],[103.430883,0.003043],[103.43524,-0.001514],[103.437241,-0.004578],[103.441285,-0.012134],[103.442265,-0.013625],[103.443062,-0.014442],[103.444308,-0.014912],[103.448719,-0.015014],[103.45285,-0.01554],[103.454435,-0.019048],[103.45428,-0.019162],[103.455127,-0.020232],[103.457636,-0.018779],[103.458323,-0.019747],[103.452239,-0.024108],[103.4515,-0.025311],[103.450331,-0.026695],[103.450151,-0.027434],[103.448833,-0.028932],[103.447441,-0.02791],[103.444586,-0.027578],[103.441885,-0.026798],[103.439909,-0.02544],[103.438551,-0.021921],[103.43744,-0.016488],[103.4346,-0.010623],[103.431275,-0.005554],[103.430525,-0.006133],[103.426335,-0.004644],[103.424704,-0.001972],[103.42457,-0.001346],[103.423232,-0.001927],[103.422224,-0.002105],[103.419511,-0.002047],[103.408597,-0.009657],[103.406858,-0.007995],[103.404673,-0.00731],[103.403972,-0.006178],[103.404253,-0.004976],[103.403814,-0.004342],[103.403375,-0.004123],[103.402059,-0.005932],[103.401883,-0.006831],[103.400463,-0.008889],[103.398612,-0.009643],[103.397226,-0.009367],[103.39603,-0.008474],[103.395727,-0.007374],[103.395904,-0.005002],[103.397739,-0.001418],[103.396495,0.001181],[103.3954,0.001546],[103.393675,0.001546],[103.392121,-0.000307],[103.39151,-0.003001],[103.39032,-0.004066],[103.388597,-0.003878],[103.388002,-0.001184],[103.387219,0.001196],[103.384839,0.002762],[103.383273,0.004673],[103.381331,0.00627],[103.378355,0.006803],[103.376633,0.00793],[103.375818,0.009778],[103.375035,0.012534],[103.373906,0.013322],[103.373609,0.013738],[103.373063,0.01391],[103.372109,0.01391],[103.369521,0.012473],[103.368946,0.011323],[103.367508,0.01046],[103.366646,0.011035],[103.366358,0.012185],[103.366358,0.014486],[103.36607,0.016211],[103.364345,0.018224],[103.363483,0.018511],[103.362045,0.019374],[103.36032,0.019086],[103.359457,0.017936],[103.358882,0.017648],[103.357157,0.017648],[103.355144,0.020524],[103.353419,0.021962],[103.351981,0.022537]],[[103.371325,0.040777],[103.371291,0.04067],[103.371641,0.041457],[103.371325,0.040777]],[[103.379571,0.039336],[103.379044,0.039675],[103.377067,0.040726],[103.379571,0.039336]],[[103.368834,0.036792],[103.366046,0.033471],[103.368834,0.036792],[103.368834,0.036792]],[[103.370983,0.040641],[103.370602,0.040747],[103.370926,0.040565],[103.370269,0.039199],[103.370983,0.040641]],[[103.370852,0.038895],[103.371398,0.040195],[103.371398,0.040195],[103.370852,0.038895]],[[103.412769,0.013009],[103.412105,0.013677],[103.412209,0.013572],[103.412769,0.013009]],[[103.410444,0.015349],[103.410444,0.015349],[103.4089,0.013183],[103.40976,0.014304],[103.410444,0.015349]],[[103.410815,0.010754],[103.410938,0.010541],[103.411379,0.009879],[103.410815,0.010754]],[[103.411317,0.012709],[103.412573,0.011085],[103.413408,0.010114],[103.411317,0.012709]]],[[[103.352792,0.054533],[103.353494,0.054651],[103.353977,0.055735],[103.354642,0.055774],[103.355297,0.05554],[103.355414,0.054136],[103.356491,0.05238],[103.357743,0.051591],[103.352844,0.036361],[103.344443,0.042464],[103.337235,0.048951],[103.336789,0.046644],[103.332969,0.049187],[103.3289,0.05124],[103.330021,0.055443],[103.318728,0.06374],[103.320531,0.066518],[103.31767,0.070499],[103.318775,0.070917],[103.318023,0.073769],[103.315285,0.074646],[103.317798,0.08476],[103.315034,0.092895],[103.319507,0.091876],[103.324797,0.092475],[103.343677,0.095522],[103.35093,0.094957],[103.352929,0.074565],[103.351035,0.065547],[103.346542,0.057202],[103.347408,0.057108],[103.348274,0.056734],[103.349866,0.05561],[103.35099,0.055774],[103.35216,0.055376],[103.352792,0.054533]],[[103.346949,0.056198],[103.347083,0.056199],[103.346954,0.056259],[103.346949,0.056198]],[[103.341907,0.059398],[103.341276,0.057866],[103.341961,0.059368],[103.341907,0.059398]],[[103.342131,0.059276],[103.342864,0.058671],[103.342586,0.059028],[103.342131,0.059276]],[[103.346638,0.056195],[103.346829,0.056197],[103.346647,0.056251],[103.346638,0.056195]]]]}}]}