{"type":"FeatureCollection","features":[{"type":"Feature","properties":{"kdkec":"1403051","nmkec":"CONCONG","kddesa":"1403051005","nmdesa":"SUNGAI BERAPIT"},"geometry":{"type":"Polygon","coordinates":[[[103.586662,-0.277116],[103.581084,-0.265188],[103.575413,-0.253616],[103.576381,-0.253986],[103.577554,-0.253929],[103.578921,-0.25341],[103.584,-0.25234],[103.588101,-0.252353],[103.601468,-0.251475],[103.60249,-0.251292],[103.607172,-0.245338],[103.607874,-0.245177],[103.608669,-0.245406],[103.611081,-0.249659],[103.614866,-0.251292],[103.620926,-0.25235],[103.621948,-0.252078],[103.624481,-0.251977],[103.626035,-0.251282],[103.626736,-0.249922],[103.633957,-0.268304],[103.634543,-0.276089],[103.647243,-0.296755],[103.652947,-0.29305],[103.656832,-0.298352],[103.653305,-0.301821],[103.655383,-0.304672],[103.652145,-0.30411],[103.61915,-0.30175],[103.59291,-0.302404],[103.585878,-0.303473],[103.586662,-0.277116]],[[103.593942,-0.278235],[103.593786,-0.279825],[103.593927,-0.278741],[103.593942,-0.278235]],[[103.591583,-0.27582],[103.592296,-0.271431],[103.591543,-0.276065],[103.591583,-0.27582]],[[103.596689,-0.271152],[103.597528,-0.267945],[103.596931,-0.270027],[103.596689,-0.271152]],[[103.595721,-0.27127],[103.596148,-0.269903],[103.595448,-0.272109],[103.595721,-0.27127]],[[103.593925,-0.27612],[103.593925,-0.27612],[103.594078,-0.275318],[103.593925,-0.27612]],[[103.594771,-0.273604],[103.594732,-0.273101],[103.594725,-0.274236],[103.594771,-0.273604]]]}}]}