{"type":"FeatureCollection","features":[{"type":"Feature","properties":{"kdkec":"1403090","nmkec":"GAUNG ANAK SERKA","kddesa":"1403090009","nmdesa":"KELUMPANG"},"geometry":{"type":"Polygon","coordinates":[[[103.149781,-0.168296],[103.146193,-0.166036],[103.139861,-0.151315],[103.137011,-0.15249],[103.135844,-0.149518],[103.133186,-0.133427],[103.143703,-0.134648],[103.150953,-0.134097],[103.157016,-0.130852],[103.160896,-0.128182],[103.162814,-0.138403],[103.162746,-0.150733],[103.165025,-0.158786],[103.167881,-0.163983],[103.171904,-0.166196],[103.171434,-0.167533],[103.168216,-0.171651],[103.169251,-0.172743],[103.16971,-0.177656],[103.167983,-0.186388],[103.166068,-0.198923],[103.161,-0.19926],[103.155656,-0.198968],[103.15178,-0.177225],[103.153503,-0.17553],[103.151447,-0.177515],[103.15068,-0.177796],[103.149781,-0.176339],[103.149912,-0.173722],[103.149682,-0.169612],[103.150051,-0.167034],[103.149781,-0.168296]],[[103.150051,-0.167034],[103.150474,-0.166627],[103.150296,-0.166732],[103.150051,-0.167034]],[[103.153531,-0.165457],[103.153543,-0.165092],[103.153528,-0.165475],[103.153305,-0.16549],[103.155635,-0.165764],[103.153531,-0.165457]],[[103.153031,-0.165979],[103.152678,-0.165987],[103.153771,-0.166098],[103.153373,-0.166],[103.153031,-0.165979]],[[103.152959,-0.165373],[103.152873,-0.165365],[103.153031,-0.165979],[103.152959,-0.165373]],[[103.14613,-0.145459],[103.147155,-0.148307],[103.151926,-0.160423],[103.14613,-0.145459]],[[103.159535,-0.168826],[103.158919,-0.168045],[103.15977,-0.169193],[103.159535,-0.168826]],[[103.15992,-0.169428],[103.159841,-0.169305],[103.161785,-0.172955],[103.15992,-0.169428]]]}}]}