{"type":"FeatureCollection","features":[{"type":"Feature","properties":{"kdkec":"1403120","nmkec":"KATEMAN","kddesa":"1403120001","nmdesa":"SUNGAI SIMBAR"},"geometry":{"type":"Polygon","coordinates":[[[103.748647,0.063054],[103.734048,0.062011],[103.689749,0.05928],[103.685686,0.0683],[103.679796,0.066866],[103.676538,0.0805],[103.773324,0.111453],[103.774317,0.102314],[103.782052,0.072652],[103.781907,0.072608],[103.783531,0.066494],[103.785712,0.059188],[103.789236,0.052369],[103.795884,0.037971],[103.794811,0.037627],[103.788466,0.038332],[103.781432,0.039944],[103.77508,0.042314],[103.769688,0.0416],[103.762924,0.044987],[103.761414,0.050955],[103.759767,0.061303],[103.758532,0.065608],[103.753561,0.064175],[103.748647,0.063054]],[[103.728503,0.084339],[103.725523,0.082547],[103.725523,0.082547],[103.728503,0.084339]],[[103.750755,0.096241],[103.750429,0.096576],[103.750765,0.096224],[103.750755,0.096241]],[[103.752477,0.096293],[103.752549,0.096317],[103.75223,0.096923],[103.752477,0.096293]],[[103.751548,0.094831],[103.752833,0.095979],[103.752647,0.095862],[103.751548,0.094831]],[[103.751843,0.094651],[103.751224,0.094275],[103.751619,0.094481],[103.751843,0.094651]],[[103.75259,0.094291],[103.752146,0.094094],[103.751703,0.093882],[103.75259,0.094291]],[[103.752976,0.096069],[103.752923,0.096035],[103.753718,0.096083],[103.752976,0.096069]],[[103.768857,0.068706],[103.754862,0.097354],[103.755474,0.096034],[103.768857,0.068706]],[[103.755998,0.097497],[103.755034,0.097376],[103.754862,0.097354],[103.755998,0.097497]],[[103.753429,0.096607],[103.753194,0.096563],[103.753043,0.096479],[103.753429,0.096607]]]}}]}