{"type":"FeatureCollection","features":[{"type":"Feature","properties":{"kdkec":"1403030","nmkec":"ENOK","kddesa":"1403030003","nmdesa":"SUNGAI RUKAM"},"geometry":{"type":"Polygon","coordinates":[[[103.042786,-0.602888],[103.044656,-0.587684],[103.041001,-0.586686],[103.032326,-0.586127],[103.02638,-0.586808],[103.023867,-0.588425],[103.025164,-0.565682],[103.030977,-0.50505],[103.028727,-0.505687],[103.02746,-0.505767],[103.025721,-0.505558],[103.02544,-0.502341],[103.018471,-0.489454],[103.031098,-0.480902],[103.033284,-0.47925],[103.036058,-0.477543],[103.066287,-0.46625],[103.071744,-0.463839],[103.070736,-0.498845],[103.070842,-0.501394],[103.072766,-0.500819],[103.074041,-0.500753],[103.077153,-0.501515],[103.079738,-0.501619],[103.084385,-0.501144],[103.086244,-0.50134],[103.084355,-0.508767],[103.082958,-0.517596],[103.081867,-0.521214],[103.079823,-0.527046],[103.077956,-0.528224],[103.074821,-0.532698],[103.06744,-0.577354],[103.064166,-0.59626],[103.061611,-0.613576],[103.060363,-0.613581],[103.05001,-0.613621],[103.048199,-0.613628],[103.042786,-0.602888]],[[103.061452,-0.49637],[103.061558,-0.501965],[103.06123,-0.468172],[103.061452,-0.49637]],[[103.060278,-0.5015],[103.063346,-0.502674],[103.061558,-0.501965],[103.060278,-0.5015]],[[103.064323,-0.502922],[103.064991,-0.502965],[103.063346,-0.502674],[103.064323,-0.502922]],[[103.051234,-0.575671],[103.051154,-0.577702],[103.05001,-0.613621],[103.051234,-0.575671]],[[103.048892,-0.501084],[103.051015,-0.500646],[103.050365,-0.50078],[103.048892,-0.501084]],[[103.055206,-0.501097],[103.055206,-0.501097],[103.054273,-0.500836],[103.055206,-0.501097]],[[103.055112,-0.512015],[103.055068,-0.531857],[103.055206,-0.501097],[103.055112,-0.512015]],[[103.052583,-0.541382],[103.053382,-0.53832],[103.055068,-0.531857],[103.052583,-0.541382]],[[103.059762,-0.550885],[103.059891,-0.560426],[103.0596,-0.538882],[103.0596,-0.538882],[103.059762,-0.550885]],[[103.034736,-0.503458],[103.034276,-0.503675],[103.035413,-0.503223],[103.034736,-0.503458]],[[103.040329,-0.502115],[103.037999,-0.502326],[103.040018,-0.502177],[103.04222,-0.501763],[103.040329,-0.502115]],[[103.067975,-0.502286],[103.065651,-0.503007],[103.06573,-0.503012],[103.067975,-0.502286]],[[103.067019,-0.536496],[103.067002,-0.534901],[103.06573,-0.503012],[103.067019,-0.536496]],[[103.060637,-0.516027],[103.059575,-0.535908],[103.059579,-0.536419],[103.060637,-0.516027]]]}}]}