{"type":"FeatureCollection","features":[{"type":"Feature","properties":{"kdkec":"1403071","nmkec":"KEMPAS","kddesa":"1403071001","nmdesa":"BAYAS JAYA"},"geometry":{"type":"Polygon","coordinates":[[[102.717989,-0.550186],[102.687293,-0.539423],[102.690398,-0.484618],[102.690245,-0.4792],[102.690643,-0.473379],[102.691088,-0.469715],[102.692155,-0.469606],[102.692777,-0.469775],[102.694415,-0.471041],[102.696218,-0.474532],[102.697266,-0.475687],[102.70203,-0.478714],[102.703911,-0.479243],[102.705917,-0.47945],[102.707505,-0.479262],[102.709335,-0.478545],[102.711096,-0.477038],[102.7126,-0.47301],[102.71438,-0.470831],[102.714963,-0.470339],[102.718178,-0.468621],[102.719267,-0.467501],[102.720311,-0.465567],[102.720897,-0.462437],[102.720963,-0.460817],[102.720741,-0.459598],[102.719897,-0.457181],[102.718239,-0.454664],[102.717411,-0.452684],[102.717564,-0.451871],[102.719559,-0.449631],[102.721032,-0.448533],[102.722375,-0.447919],[102.724109,-0.447674],[102.726441,-0.447689],[102.727531,-0.447858],[102.72987,-0.449469],[102.732104,-0.450559],[102.734015,-0.451276],[102.737475,-0.452093],[102.739326,-0.452189],[102.741519,-0.452116],[102.742302,-0.451906],[102.747196,-0.45006],[102.749498,-0.449439],[102.750628,-0.449759],[102.751984,-0.450927],[102.754532,-0.454817],[102.746175,-0.467954],[102.743439,-0.477364],[102.727777,-0.505376],[102.726204,-0.509795],[102.721216,-0.509718],[102.717989,-0.550186]],[[102.734224,-0.460552],[102.73421,-0.458532],[102.734015,-0.451276],[102.734224,-0.460552]],[[102.733754,-0.46078],[102.733397,-0.461074],[102.73427,-0.460579],[102.734224,-0.460552],[102.733754,-0.46078]],[[102.731874,-0.462267],[102.732477,-0.461852],[102.733397,-0.461074],[102.731874,-0.462267]],[[102.738451,-0.463156],[102.739286,-0.461784],[102.738232,-0.463516],[102.738451,-0.463156]],[[102.731766,-0.459568],[102.7334,-0.459522],[102.729988,-0.459529],[102.731766,-0.459568]],[[102.735513,-0.466178],[102.734894,-0.467139],[102.736628,-0.464517],[102.736046,-0.465383],[102.735513,-0.466178]],[[102.73735,-0.464967],[102.736626,-0.464516],[102.736628,-0.464517],[102.73735,-0.464967]],[[102.729351,-0.46473],[102.734399,-0.467887],[102.734399,-0.467887],[102.732027,-0.466398],[102.729351,-0.46473]],[[102.727086,-0.462567],[102.72698,-0.462565],[102.729351,-0.46473],[102.727086,-0.462567]],[[102.731419,-0.471761],[102.727661,-0.477214],[102.72632,-0.478913],[102.72765,-0.47723],[102.731419,-0.471761]],[[102.736009,-0.461593],[102.736017,-0.461598],[102.736014,-0.461596],[102.736009,-0.461593]]]}}]}