{"type":"FeatureCollection","features":[{"type":"Feature","properties":{"kdkec":"1403061","nmkec":"TEMBILAHAN HULU","kddesa":"1403061005","nmdesa":"SUNGAI INTAN"},"geometry":{"type":"Polygon","coordinates":[[[103.068027,-0.428896],[103.063886,-0.420091],[103.06689,-0.416306],[103.07006,-0.411742],[103.071255,-0.410265],[103.073446,-0.409535],[103.077828,-0.409485],[103.079106,-0.408705],[103.086633,-0.403352],[103.090567,-0.400149],[103.094308,-0.396736],[103.098115,-0.392832],[103.103193,-0.386269],[103.106696,-0.381298],[103.110933,-0.37425],[103.114743,-0.366145],[103.123646,-0.375146],[103.130983,-0.387719],[103.132066,-0.391038],[103.138349,-0.400644],[103.156201,-0.429887],[103.148459,-0.434361],[103.111798,-0.448266],[103.100847,-0.452412],[103.098224,-0.444567],[103.093325,-0.432546],[103.096363,-0.440022],[103.090383,-0.441335],[103.094143,-0.454962],[103.082023,-0.459558],[103.066287,-0.46625],[103.066315,-0.462894],[103.068053,-0.443968],[103.068027,-0.428896]],[[103.105904,-0.433942],[103.105654,-0.433453],[103.113002,-0.447809],[103.105904,-0.433942]],[[103.098026,-0.430069],[103.099862,-0.435113],[103.09901,-0.432772],[103.098026,-0.430069]],[[103.085243,-0.44019],[103.081859,-0.423095],[103.086171,-0.445426],[103.085243,-0.44019]],[[103.131251,-0.398186],[103.128438,-0.393266],[103.131749,-0.399266],[103.133576,-0.403229],[103.131251,-0.398186]]]}}]}