{"type":"FeatureCollection","features":[{"type":"Feature","properties":{"kdkec":"1403010","nmkec":"KERITANG","kddesa":"1403010008","nmdesa":"KUALA KERITANG"},"geometry":{"type":"Polygon","coordinates":[[[102.789905,-0.777642],[102.802857,-0.75859],[102.794965,-0.756583],[102.797441,-0.752766],[102.786127,-0.753261],[102.785965,-0.746558],[102.792618,-0.741557],[102.794142,-0.742298],[102.79767,-0.74349],[102.800031,-0.743646],[102.802371,-0.743331],[102.806864,-0.743661],[102.809392,-0.740111],[102.812092,-0.741076],[102.814061,-0.738711],[102.819225,-0.741089],[102.821063,-0.743792],[102.825087,-0.751279],[102.828171,-0.749275],[102.828537,-0.747015],[102.849081,-0.733859],[102.856802,-0.729627],[102.856237,-0.731307],[102.856081,-0.733055],[102.856735,-0.734737],[102.860721,-0.733841],[102.864175,-0.733717],[102.868831,-0.732121],[102.871732,-0.730081],[102.877705,-0.72078],[102.87984,-0.716849],[102.881131,-0.713285],[102.881515,-0.719132],[102.877908,-0.732336],[102.877307,-0.73974],[102.875515,-0.744619],[102.877407,-0.745443],[102.877416,-0.747873],[102.87977,-0.763657],[102.879981,-0.816452],[102.879853,-0.826479],[102.879343,-0.825799],[102.874509,-0.823087],[102.864017,-0.823087],[102.86196,-0.823301],[102.862305,-0.821664],[102.862033,-0.818712],[102.853532,-0.818968],[102.85349,-0.823139],[102.851167,-0.82238],[102.846613,-0.821586],[102.847025,-0.813329],[102.844834,-0.81309],[102.840206,-0.812123],[102.836989,-0.81188],[102.816429,-0.806801],[102.81142,-0.805122],[102.813079,-0.79281],[102.805282,-0.78638],[102.789905,-0.777642]],[[102.803044,-0.755005],[102.808204,-0.75486],[102.803069,-0.754995],[102.797441,-0.752766],[102.803044,-0.755005]],[[102.847308,-0.793807],[102.847347,-0.787362],[102.847025,-0.813329],[102.847308,-0.793807]],[[102.847658,-0.785326],[102.849292,-0.774582],[102.847347,-0.787362],[102.847658,-0.785326]],[[102.81706,-0.760699],[102.810691,-0.756292],[102.813854,-0.758584],[102.81706,-0.760699]],[[102.830727,-0.766369],[102.82704,-0.764873],[102.828827,-0.765609],[102.830727,-0.766369]],[[102.833139,-0.767492],[102.833389,-0.767243],[102.833119,-0.767512],[102.833215,-0.767988],[102.833139,-0.767492]],[[102.836436,-0.765112],[102.836732,-0.76554],[102.836473,-0.765125],[102.836436,-0.765112]],[[102.836307,-0.786132],[102.836434,-0.765112],[102.836434,-0.765112],[102.836307,-0.786132]],[[102.813009,-0.778273],[102.813943,-0.77616],[102.813529,-0.77695],[102.813009,-0.778273]],[[102.820812,-0.768582],[102.821669,-0.768111],[102.821714,-0.768063],[102.820812,-0.768582]],[[102.805464,-0.76404],[102.809374,-0.761497],[102.811188,-0.760318],[102.805464,-0.76404]],[[102.852926,-0.800335],[102.852764,-0.782433],[102.852863,-0.793873],[102.852926,-0.800335]],[[102.850961,-0.755396],[102.850511,-0.755472],[102.848942,-0.755492],[102.849912,-0.755571],[102.850961,-0.755396]],[[102.87226,-0.751303],[102.868128,-0.748995],[102.870965,-0.750672],[102.87226,-0.751303]],[[102.866721,-0.760558],[102.8678,-0.758886],[102.866709,-0.760563],[102.866721,-0.760558]],[[102.868819,-0.764712],[102.86607,-0.760844],[102.86607,-0.760844],[102.868819,-0.764712]],[[102.847797,-0.748242],[102.849141,-0.749295],[102.849141,-0.749295],[102.847797,-0.748242]],[[102.869811,-0.763264],[102.871109,-0.764768],[102.869989,-0.763376],[102.868938,-0.76247],[102.869811,-0.763264]]]}}]}