{"type":"FeatureCollection","features":[{"type":"Feature","properties":{"kdkec":"1403110","nmkec":"MANDAH","kddesa":"1403110017","nmdesa":"BIDARI TANJUNG DATUK"},"geometry":{"type":"Polygon","coordinates":[[[103.777906,-0.010217],[103.765729,-0.010459],[103.763018,-0.010643],[103.76133,-0.01103],[103.755065,-0.013162],[103.752735,-0.013306],[103.749185,-0.014479],[103.746104,-0.006729],[103.744394,-0.007263],[103.743978,-0.006934],[103.743329,-0.005778],[103.741915,-0.004966],[103.741609,-0.005154],[103.741656,-0.005899],[103.741405,-0.006143],[103.741102,-0.006184],[103.74077,-0.005909],[103.740573,-0.005314],[103.739912,-0.004469],[103.739965,-0.003405],[103.739236,-0.001624],[103.738776,0.000207],[103.737707,0.00716],[103.738127,0.008409],[103.737983,0.008869],[103.737549,0.009303],[103.737326,0.010539],[103.736852,0.011433],[103.737365,0.011696],[103.737641,0.012287],[103.73797,0.012589],[103.737681,0.014877],[103.738075,0.015771],[103.73805,0.017254],[103.754137,0.017754],[103.756208,0.024941],[103.756319,0.027828],[103.751898,0.050913],[103.748647,0.063054],[103.752695,0.063977],[103.758529,0.065617],[103.759767,0.061303],[103.761414,0.050955],[103.762991,0.044955],[103.769798,0.041615],[103.77508,0.042314],[103.781432,0.039944],[103.788466,0.038332],[103.794811,0.037627],[103.795884,0.037971],[103.802232,0.026584],[103.811119,0.006902],[103.814063,-0.002367],[103.81453,-0.006908],[103.814232,-0.007243],[103.813477,-0.009644],[103.811623,-0.012206],[103.808352,-0.013188],[103.803609,-0.011879],[103.793359,-0.010789],[103.77794,-0.009692],[103.777906,-0.010217]],[[103.762484,0.028021],[103.762289,0.028739],[103.752695,0.063977],[103.762484,0.028021]],[[103.773045,0.025977],[103.77404,0.019307],[103.773295,0.024769],[103.769798,0.041615],[103.773045,0.025977]],[[103.756795,0.017844],[103.757548,0.015982],[103.756784,0.018026],[103.756795,0.017844]],[[103.757553,0.015834],[103.757929,0.014913],[103.757548,0.015982],[103.757553,0.015834]],[[103.775385,0.006425],[103.775385,0.006425],[103.758432,0.006456],[103.775385,0.006425]],[[103.764303,0.028773],[103.76704,0.029924],[103.76704,0.029924],[103.764303,0.028773]]]}}]}