{"type":"FeatureCollection","features":[{"type":"Feature","properties":{"kdkec":"1403010","nmkec":"KERITANG","kddesa":"1403010014","nmdesa":"KAYU RAJA"},"geometry":{"type":"Polygon","coordinates":[[[102.920401,-0.790804],[102.921234,-0.790804],[102.922433,-0.795181],[102.927279,-0.791585],[102.928686,-0.788771],[102.929369,-0.788239],[102.93053,-0.787717],[102.933253,-0.787542],[102.934401,-0.787898],[102.936514,-0.78945],[102.937487,-0.789624],[102.937574,-0.789009],[102.937935,-0.788969],[102.937606,-0.78672],[102.937619,-0.785061],[102.93825,-0.782842],[102.942502,-0.784665],[102.946513,-0.787082],[102.947941,-0.788248],[102.948627,-0.788004],[102.949206,-0.78621],[102.949162,-0.784625],[102.948297,-0.783748],[102.947003,-0.781474],[102.945792,-0.780526],[102.944659,-0.780039],[102.944409,-0.779319],[102.945735,-0.778989],[102.947519,-0.777967],[102.950446,-0.778025],[102.951567,-0.778377],[102.952323,-0.778255],[102.953677,-0.777724],[102.955618,-0.776385],[102.955842,-0.775821],[102.955522,-0.774515],[102.955509,-0.773502],[102.955766,-0.773066],[102.956167,-0.772826],[102.957178,-0.772666],[102.957847,-0.772249],[102.957847,-0.771811],[102.9564,-0.770254],[102.952793,-0.76732],[102.952614,-0.766834],[102.952845,-0.766462],[102.956553,-0.765322],[102.958052,-0.765197],[102.959528,-0.765302],[102.960993,-0.765863],[102.962097,-0.767308],[102.962631,-0.767249],[102.963295,-0.76643],[102.968769,-0.765656],[102.98369,-0.778427],[102.989439,-0.783001],[102.980074,-0.796671],[102.979837,-0.79999],[102.979427,-0.802697],[102.974549,-0.810246],[102.968763,-0.816602],[102.964829,-0.816879],[102.961872,-0.820631],[102.948825,-0.840007],[102.940164,-0.851314],[102.935053,-0.857809],[102.934105,-0.858773],[102.928056,-0.867498],[102.918497,-0.877531],[102.917052,-0.875725],[102.916834,-0.875766],[102.882263,-0.829691],[102.883803,-0.829152],[102.883975,-0.823008],[102.884913,-0.820976],[102.886476,-0.820038],[102.887571,-0.817224],[102.88804,-0.816911],[102.888821,-0.805655],[102.888196,-0.804248],[102.887414,-0.80034],[102.885069,-0.798308],[102.88335,-0.796119],[102.883506,-0.79393],[102.88632,-0.791742],[102.892261,-0.790491],[102.894606,-0.788771],[102.89706,-0.785025],[102.897778,-0.784708],[102.898858,-0.784623],[102.901635,-0.785235],[102.906487,-0.788146],[102.90805,-0.790022],[102.909125,-0.793399],[102.90977,-0.794087],[102.916649,-0.79393],[102.920401,-0.790804]],[[102.932649,-0.787917],[102.93366,-0.791844],[102.932584,-0.787608],[102.932649,-0.787917]],[[102.95664,-0.81204],[102.954418,-0.808297],[102.950565,-0.802052],[102.949717,-0.800671],[102.961872,-0.820631],[102.95664,-0.81204]],[[102.955742,-0.797077],[102.955742,-0.797077],[102.950565,-0.802052],[102.955742,-0.797077]],[[102.958618,-0.805118],[102.960678,-0.803233],[102.960678,-0.803233],[102.958618,-0.805118]]]}}]}