{"type":"FeatureCollection","features":[{"type":"Feature","properties":{"kdkec":"1403122","nmkec":"TELUK BELENGKONG","kddesa":"1403122011","nmdesa":"SAPTA MULYA JAYA"},"geometry":{"type":"Polygon","coordinates":[[[103.190385,0.304961],[103.186798,0.308012],[103.188072,0.309473],[103.181412,0.315097],[103.210862,0.349785],[103.237923,0.325916],[103.232903,0.320215],[103.229542,0.322844],[103.205089,0.294717],[103.191662,0.30644],[103.190385,0.304961]],[[103.203057,0.322853],[103.201165,0.324568],[103.203727,0.322238],[103.203057,0.322853]],[[103.204715,0.32472],[103.204715,0.32472],[103.203057,0.322853],[103.204715,0.32472]],[[103.205985,0.326171],[103.205985,0.326171],[103.204715,0.32472],[103.205985,0.326171]],[[103.202798,0.326446],[103.204085,0.327925],[103.204431,0.328328],[103.201165,0.324568],[103.202798,0.326446]],[[103.205868,0.324668],[103.205385,0.32412],[103.203727,0.322238],[103.205868,0.324668]],[[103.207367,0.326369],[103.207031,0.325991],[103.206651,0.325556],[103.207367,0.326369]],[[103.208307,0.327436],[103.207774,0.326833],[103.207368,0.32637],[103.208307,0.327436]]]}}]}