{"type":"FeatureCollection","features":[{"type":"Feature","properties":{"kdkec":"1403020","nmkec":"RETEH","kddesa":"1403020010","nmdesa":"SEBERANG SANGLAR"},"geometry":{"type":"Polygon","coordinates":[[[103.050542,-0.681812],[103.046018,-0.681764],[103.04252,-0.682056],[103.042772,-0.678382],[103.045292,-0.675249],[103.048396,-0.672302],[103.051514,-0.669974],[103.051137,-0.666875],[103.050494,-0.626378],[103.048199,-0.613628],[103.061611,-0.613576],[103.066391,-0.61317],[103.076742,-0.610335],[103.083238,-0.607758],[103.088905,-0.609053],[103.092197,-0.610344],[103.094691,-0.612105],[103.095018,-0.610979],[103.099172,-0.611492],[103.104755,-0.611636],[103.106364,-0.611049],[103.115385,-0.615333],[103.115643,-0.621734],[103.113634,-0.656483],[103.113508,-0.665021],[103.11407,-0.682178],[103.114697,-0.682215],[103.114736,-0.684997],[103.104148,-0.683777],[103.10031,-0.683543],[103.096819,-0.68406],[103.093156,-0.685037],[103.089966,-0.685557],[103.081139,-0.685346],[103.076465,-0.685641],[103.073994,-0.685295],[103.072312,-0.684579],[103.069673,-0.682426],[103.068474,-0.681108],[103.065164,-0.679683],[103.064432,-0.679504],[103.062655,-0.679442],[103.060543,-0.679779],[103.056133,-0.681002],[103.053284,-0.68159],[103.050542,-0.681812]],[[103.053189,-0.680149],[103.053208,-0.680551],[103.050809,-0.680934],[103.05314,-0.680597],[103.053284,-0.68159],[103.053189,-0.680149]],[[103.075672,-0.644705],[103.080272,-0.645513],[103.070879,-0.64383],[103.075672,-0.644705]],[[103.085594,-0.627808],[103.081778,-0.626655],[103.084988,-0.627656],[103.085594,-0.627808]],[[103.050502,-0.681648],[103.050521,-0.681724],[103.050786,-0.681369],[103.050502,-0.681648]],[[103.056494,-0.676631],[103.056481,-0.679244],[103.05648,-0.679622],[103.056494,-0.676631]],[[103.09698,-0.627425],[103.093931,-0.667383],[103.093525,-0.676629],[103.094012,-0.666461],[103.09698,-0.627425]],[[103.09974,-0.666494],[103.096955,-0.666463],[103.094012,-0.666461],[103.09974,-0.666494]],[[103.098307,-0.682741],[103.098237,-0.678595],[103.098237,-0.678595],[103.098307,-0.682741]],[[103.111095,-0.623226],[103.107575,-0.624068],[103.102516,-0.625671],[103.108594,-0.623824],[103.111095,-0.623226]]]}}]}