{"type":"FeatureCollection","features":[{"type":"Feature","properties":{"kdkec":"1403030","nmkec":"ENOK","kddesa":"1403030004","nmdesa":"PENGALIHAN"},"geometry":{"type":"Polygon","coordinates":[[[103.064166,-0.59626],[103.06744,-0.577354],[103.074821,-0.532698],[103.077956,-0.528224],[103.079823,-0.527046],[103.082958,-0.517596],[103.084355,-0.508767],[103.086244,-0.50134],[103.093876,-0.5043],[103.09549,-0.505425],[103.096911,-0.507252],[103.098447,-0.509434],[103.10338,-0.50855],[103.104025,-0.513616],[103.10471,-0.516998],[103.104864,-0.532945],[103.104326,-0.538337],[103.099443,-0.561892],[103.093307,-0.57337],[103.088703,-0.59244],[103.085799,-0.603626],[103.085126,-0.608178],[103.083238,-0.607758],[103.076742,-0.610335],[103.066391,-0.61317],[103.061611,-0.613576],[103.064166,-0.59626]],[[103.089716,-0.516622],[103.088715,-0.516766],[103.082958,-0.517596],[103.089716,-0.516622]],[[103.095073,-0.508396],[103.094496,-0.508904],[103.096911,-0.507252],[103.095073,-0.508396]],[[103.097417,-0.511083],[103.096897,-0.511994],[103.098447,-0.509434],[103.097417,-0.511083]],[[103.096552,-0.511743],[103.096552,-0.511743],[103.096897,-0.511994],[103.096552,-0.511743]],[[103.093374,-0.509893],[103.094793,-0.51113],[103.09525,-0.51148],[103.093375,-0.509892],[103.093374,-0.509893]],[[103.095521,-0.51109],[103.095356,-0.510972],[103.095488,-0.511133],[103.09525,-0.51148],[103.095521,-0.51109]],[[103.096033,-0.515181],[103.096033,-0.515181],[103.094859,-0.51435],[103.096033,-0.515181]],[[103.095655,-0.522516],[103.095732,-0.522556],[103.095592,-0.522384],[103.095655,-0.522516]],[[103.096193,-0.522797],[103.096615,-0.522632],[103.096048,-0.522722],[103.096193,-0.522797]],[[103.093259,-0.513018],[103.093896,-0.512205],[103.091312,-0.515199],[103.093259,-0.513018]],[[103.084597,-0.526873],[103.089844,-0.530551],[103.089844,-0.530551],[103.084597,-0.526873]],[[103.092145,-0.530992],[103.089882,-0.533277],[103.092145,-0.531018],[103.09192,-0.543339],[103.092145,-0.530992]],[[103.08566,-0.514733],[103.090087,-0.512789],[103.087984,-0.513694],[103.08566,-0.514733]],[[103.089776,-0.509484],[103.089776,-0.509484],[103.087984,-0.513694],[103.089776,-0.509484]],[[103.098539,-0.512711],[103.097818,-0.512735],[103.097169,-0.512784],[103.098539,-0.512711]]]}}]}