{"type":"FeatureCollection","features":[{"type":"Feature","properties":{"kdkec":"1403090","nmkec":"GAUNG ANAK SERKA","kddesa":"1403090012","nmdesa":"TANJUNG HARAPAN"},"geometry":{"type":"Polygon","coordinates":[[[103.359628,-0.180133],[103.356388,-0.180485],[103.354245,-0.180076],[103.353014,-0.179193],[103.350763,-0.173847],[103.349203,-0.170561],[103.350369,-0.169833],[103.350924,-0.1678],[103.350949,-0.165343],[103.352264,-0.149567],[103.352293,-0.135805],[103.359446,-0.136045],[103.365087,-0.13463],[103.369306,-0.135429],[103.374108,-0.141431],[103.388507,-0.152044],[103.399701,-0.158433],[103.392037,-0.167386],[103.38945,-0.169373],[103.388223,-0.169694],[103.386054,-0.169962],[103.381209,-0.169234],[103.378499,-0.169811],[103.374999,-0.172107],[103.371881,-0.174684],[103.367677,-0.178533],[103.366491,-0.179123],[103.365028,-0.179544],[103.359628,-0.180133]],[[103.3576,-0.174915],[103.357676,-0.170485],[103.3576,-0.174915],[103.3576,-0.174915]],[[103.361329,-0.174961],[103.361238,-0.176663],[103.361238,-0.176784],[103.361329,-0.174961],[103.361329,-0.174961]],[[103.361509,-0.178847],[103.361509,-0.17902],[103.361608,-0.176851],[103.361509,-0.178847]],[[103.361245,-0.17914],[103.361528,-0.179138],[103.361394,-0.179138],[103.361509,-0.17902],[103.361245,-0.17914]],[[103.359763,-0.177134],[103.356443,-0.177134],[103.356443,-0.177134],[103.359818,-0.177143],[103.359772,-0.176494],[103.359763,-0.177134]]]}}]}