{"type":"FeatureCollection","features":[{"type":"Feature","properties":{"kdkec":"1403090","nmkec":"GAUNG ANAK SERKA","kddesa":"1403090005","nmdesa":"TELUK SUNGKA"},"geometry":{"type":"Polygon","coordinates":[[[103.249301,-0.139956],[103.249651,-0.120799],[103.258346,-0.117743],[103.263228,-0.115714],[103.264677,-0.114631],[103.266816,-0.113863],[103.271716,-0.114193],[103.2762,-0.11705],[103.28418,-0.121511],[103.289117,-0.12389],[103.283339,-0.130185],[103.285331,-0.133293],[103.28098,-0.136671],[103.27599,-0.137728],[103.268284,-0.145112],[103.259253,-0.164413],[103.25775,-0.182239],[103.252959,-0.183189],[103.248747,-0.185062],[103.247581,-0.165858],[103.249301,-0.139956]],[[103.250612,-0.138627],[103.252109,-0.136516],[103.250612,-0.138627],[103.250612,-0.138627]],[[103.254894,-0.134419],[103.256404,-0.133282],[103.252109,-0.136516],[103.254894,-0.134419]],[[103.260157,-0.133505],[103.261471,-0.135007],[103.260128,-0.13347],[103.25844,-0.132333],[103.260157,-0.133505]],[[103.262869,-0.138022],[103.263137,-0.138247],[103.263535,-0.138276],[103.26259,-0.137894],[103.262869,-0.138022]],[[103.263559,-0.140202],[103.263559,-0.140202],[103.263535,-0.138276],[103.263559,-0.140202]],[[103.26252,-0.139242],[103.262701,-0.139327],[103.262348,-0.13915],[103.26252,-0.139242]],[[103.262927,-0.139521],[103.263022,-0.138907],[103.262924,-0.139466],[103.262927,-0.139521]],[[103.256171,-0.140665],[103.255432,-0.137052],[103.257517,-0.147489],[103.256171,-0.140665]],[[103.261905,-0.139295],[103.262196,-0.139676],[103.260748,-0.140323],[103.262247,-0.139725],[103.261905,-0.139295]]]}}]}