{"type":"FeatureCollection","features":[{"type":"Feature","properties":{"kdkec":"1403121","nmkec":"PELANGIRAN","kddesa":"1403121005","nmdesa":"BAUNG REJO JAYA"},"geometry":{"type":"Polygon","coordinates":[[[103.498979,0.224717],[103.485743,0.219838],[103.487441,0.216177],[103.486538,0.215524],[103.486103,0.214894],[103.449844,0.201992],[103.443976,0.218856],[103.427756,0.213074],[103.426377,0.217809],[103.430113,0.219271],[103.425819,0.231654],[103.437687,0.235776],[103.447703,0.239585],[103.449966,0.233564],[103.468508,0.240018],[103.475044,0.220798],[103.491738,0.226865],[103.490182,0.231099],[103.497964,0.233858],[103.49783,0.229012],[103.498979,0.224717]],[[103.453474,0.217753],[103.453012,0.21901],[103.454153,0.215832],[103.453474,0.217753]],[[103.455523,0.219928],[103.456138,0.220154],[103.453012,0.21901],[103.455523,0.219928]],[[103.457778,0.219308],[103.457332,0.220591],[103.457332,0.220591],[103.457778,0.219308]],[[103.455984,0.218668],[103.455084,0.21834],[103.457778,0.219308],[103.455984,0.218668]],[[103.459381,0.219892],[103.461013,0.220515],[103.461013,0.220515],[103.457778,0.219308],[103.459381,0.219892]],[[103.458064,0.217773],[103.458298,0.217855],[103.458298,0.217855],[103.458064,0.217773]],[[103.458229,0.217303],[103.458229,0.217303],[103.458064,0.217773],[103.458229,0.217303]],[[103.456402,0.215196],[103.454607,0.214553],[103.462192,0.21721],[103.458912,0.21611],[103.456402,0.215196]],[[103.461742,0.218473],[103.461891,0.218025],[103.462192,0.21721],[103.461742,0.218473]],[[103.455612,0.216365],[103.454916,0.218279],[103.455612,0.216365],[103.455612,0.216365]],[[103.461706,0.218573],[103.460068,0.217992],[103.458454,0.21742],[103.461706,0.218573],[103.461706,0.218573]]]}}]}