{"type":"FeatureCollection","features":[{"type":"Feature","properties":{"kdkec":"1403020","nmkec":"RETEH","kddesa":"1403020018","nmdesa":"SUNGAI MAHANG"},"geometry":{"type":"Polygon","coordinates":[[[103.353599,-0.800305],[103.351708,-0.800003],[103.350725,-0.799398],[103.349742,-0.797507],[103.34859,-0.794188],[103.347204,-0.782274],[103.338601,-0.780712],[103.329712,-0.778235],[103.318783,-0.776874],[103.319387,-0.7734],[103.334692,-0.774623],[103.345366,-0.775092],[103.350441,-0.774516],[103.350241,-0.773532],[103.365151,-0.769446],[103.365616,-0.770067],[103.367322,-0.769912],[103.367683,-0.769189],[103.368023,-0.769616],[103.368635,-0.769331],[103.368962,-0.768645],[103.369478,-0.768679],[103.369631,-0.768525],[103.369433,-0.76797],[103.369927,-0.767697],[103.370136,-0.767004],[103.370765,-0.766893],[103.371528,-0.769365],[103.375156,-0.767767],[103.378882,-0.776394],[103.38043,-0.775855],[103.386786,-0.792379],[103.381719,-0.794313],[103.378844,-0.793324],[103.376565,-0.792817],[103.369074,-0.793646],[103.363635,-0.795843],[103.35754,-0.798685],[103.355565,-0.799852],[103.353599,-0.800305]],[[103.361071,-0.787341],[103.361121,-0.787508],[103.363635,-0.795843],[103.361071,-0.787341]],[[103.372084,-0.778448],[103.371465,-0.77601],[103.37357,-0.784347],[103.375033,-0.78977],[103.372084,-0.778448]],[[103.376541,-0.777567],[103.376541,-0.777567],[103.372084,-0.778448],[103.376541,-0.777567]],[[103.372655,-0.77563],[103.369987,-0.776482],[103.371465,-0.77601],[103.372655,-0.77563]]]}}]}