{"type":"FeatureCollection","features":[{"type":"Feature","properties":{"kdkec":"1403090","nmkec":"GAUNG ANAK SERKA","kddesa":"1403090007","nmdesa":"TELUK PINANG"},"geometry":{"type":"Polygon","coordinates":[[[103.33156,-0.227304],[103.331951,-0.214036],[103.331425,-0.183999],[103.334367,-0.16889],[103.334956,-0.164575],[103.342406,-0.165548],[103.344704,-0.166171],[103.347296,-0.168166],[103.34907,-0.170308],[103.350763,-0.173847],[103.353014,-0.179193],[103.354245,-0.180076],[103.356983,-0.180491],[103.361698,-0.179819],[103.365028,-0.179544],[103.366402,-0.179151],[103.368012,-0.178247],[103.371881,-0.174684],[103.374999,-0.172107],[103.378499,-0.169811],[103.381209,-0.169234],[103.386054,-0.169962],[103.388223,-0.169694],[103.38945,-0.169373],[103.392037,-0.167386],[103.399701,-0.158433],[103.400446,-0.170559],[103.400474,-0.179669],[103.400925,-0.194988],[103.392663,-0.195027],[103.392792,-0.207573],[103.392447,-0.214125],[103.390782,-0.217049],[103.388345,-0.216988],[103.388262,-0.231133],[103.384768,-0.232246],[103.379503,-0.233493],[103.354769,-0.238074],[103.35219,-0.23874],[103.342978,-0.241717],[103.33156,-0.227304]],[[103.339926,-0.220757],[103.343152,-0.218155],[103.33156,-0.227304],[103.339926,-0.220757]],[[103.34583,-0.227939],[103.344678,-0.226518],[103.339926,-0.220757],[103.34583,-0.227939]],[[103.343263,-0.19272],[103.339141,-0.19273],[103.331578,-0.192763],[103.343263,-0.19272]],[[103.366514,-0.183186],[103.366539,-0.181576],[103.366402,-0.179151],[103.366514,-0.183186]],[[103.357476,-0.224314],[103.357472,-0.224333],[103.356975,-0.237564],[103.357476,-0.224314]],[[103.353911,-0.182579],[103.354369,-0.1826],[103.353435,-0.18255],[103.353911,-0.182579]],[[103.355241,-0.182222],[103.354996,-0.182146],[103.354924,-0.182154],[103.355241,-0.182222]],[[103.35631,-0.181234],[103.356302,-0.181409],[103.356302,-0.181712],[103.35631,-0.181234]],[[103.356986,-0.181379],[103.357952,-0.181393],[103.356986,-0.181379],[103.356986,-0.181379]],[[103.35795,-0.181714],[103.357956,-0.182727],[103.357955,-0.181248],[103.35795,-0.181714]],[[103.356965,-0.182727],[103.356967,-0.182588],[103.356964,-0.18279],[103.359825,-0.182713],[103.357956,-0.182727],[103.356965,-0.182727]],[[103.362458,-0.18268],[103.3615,-0.182688],[103.359825,-0.182713],[103.362458,-0.18268]],[[103.362728,-0.183954],[103.362403,-0.182362],[103.361939,-0.18123],[103.362458,-0.18268],[103.362728,-0.183954]],[[103.362391,-0.183981],[103.365513,-0.18394],[103.362728,-0.183954],[103.362391,-0.183981]],[[103.365483,-0.201763],[103.365452,-0.218006],[103.365528,-0.183162],[103.365497,-0.182587],[103.365513,-0.18394],[103.365483,-0.201763]],[[103.365497,-0.182576],[103.364411,-0.18262],[103.365497,-0.182587],[103.365497,-0.182576]],[[103.36047,-0.20304],[103.360622,-0.217182],[103.360568,-0.205397],[103.36042,-0.201841],[103.36047,-0.20304]],[[103.35524,-0.202992],[103.350948,-0.202952],[103.346856,-0.202915],[103.36047,-0.20304],[103.35524,-0.202992]],[[103.349863,-0.17987],[103.349863,-0.17987],[103.344605,-0.174755],[103.346371,-0.176557],[103.349863,-0.17987]],[[103.350943,-0.180019],[103.351735,-0.180814],[103.351763,-0.180829],[103.350943,-0.180019]],[[103.351707,-0.182872],[103.352227,-0.181399],[103.35231,-0.181134],[103.351707,-0.182872],[103.351707,-0.182872]],[[103.353839,-0.186352],[103.353661,-0.182821],[103.353824,-0.18612],[103.353839,-0.186352]],[[103.356617,-0.18629],[103.355295,-0.18632],[103.353839,-0.186352],[103.356617,-0.18629]],[[103.358129,-0.184143],[103.358031,-0.184143],[103.358015,-0.185367],[103.358129,-0.184143]],[[103.359903,-0.180809],[103.361394,-0.180887],[103.361384,-0.180803],[103.359903,-0.180809]],[[103.359905,-0.180943],[103.360649,-0.180904],[103.360417,-0.180909],[103.359905,-0.180943]],[[103.368117,-0.182866],[103.368117,-0.182887],[103.368122,-0.183216],[103.368117,-0.182866]],[[103.370425,-0.18262],[103.370426,-0.183595],[103.370495,-0.207548],[103.370425,-0.18262]],[[103.362587,-0.18089],[103.36248,-0.180879],[103.362488,-0.18106],[103.362587,-0.18089]],[[103.362596,-0.180891],[103.362686,-0.182669],[103.362603,-0.180978],[103.363262,-0.180958],[103.362596,-0.180891]],[[103.368052,-0.181181],[103.367666,-0.181185],[103.36807,-0.181184],[103.368055,-0.180676],[103.368052,-0.181181]],[[103.368408,-0.182681],[103.368116,-0.182674],[103.368116,-0.182674],[103.368408,-0.182681]]]}}]}