{"type":"FeatureCollection","features":[{"type":"Feature","properties":{"kdkec":"1403123","nmkec":"PULAU BURUNG","kddesa":"1403123004","nmdesa":"MAYANG SARI JAYA"},"geometry":{"type":"Polygon","coordinates":[[[103.390173,0.361422],[103.393206,0.361712],[103.426557,0.399939],[103.438075,0.389967],[103.436331,0.368821],[103.435276,0.359704],[103.426655,0.351867],[103.401343,0.333397],[103.381124,0.331471],[103.36248,0.347723],[103.373527,0.359792],[103.386912,0.361106],[103.390173,0.361422]],[[103.382795,0.356366],[103.386912,0.361106],[103.377653,0.3505],[103.377653,0.3505],[103.382795,0.356366]],[[103.384302,0.355033],[103.386119,0.356993],[103.390173,0.361422],[103.384302,0.355033]],[[103.386194,0.346962],[103.388246,0.349269],[103.389304,0.350459],[103.389303,0.350458],[103.386194,0.346962]],[[103.384555,0.348489],[103.382923,0.349949],[103.386194,0.346962],[103.384555,0.348489]],[[103.38767,0.351939],[103.392205,0.357209],[103.384555,0.348489],[103.38767,0.351939]],[[103.386016,0.353495],[103.386016,0.353495],[103.386016,0.353495],[103.386016,0.353495]],[[103.393143,0.351293],[103.394799,0.349812],[103.391421,0.352833],[103.391421,0.352833],[103.393143,0.351293]],[[103.397064,0.352389],[103.397064,0.352389],[103.40054,0.34934],[103.398836,0.350835],[103.397064,0.352389]],[[103.400503,0.356322],[103.397541,0.352935],[103.401594,0.357539],[103.400503,0.356322]]]}}]}