{"type":"FeatureCollection","features":[{"type":"Feature","properties":{"kdkec":"1403110","nmkec":"MANDAH","kddesa":"1403110014","nmdesa":"SURAYYA MANDIRI"},"geometry":{"type":"Polygon","coordinates":[[[103.381113,0.038152],[103.381442,0.040093],[103.38553,0.044228],[103.383177,0.046528],[103.381234,0.048073],[103.379108,0.050132],[103.371589,0.041483],[103.369647,0.042454],[103.367634,0.045123],[103.361571,0.048143],[103.360798,0.049383],[103.359464,0.050507],[103.356491,0.05238],[103.355414,0.054136],[103.355297,0.05554],[103.354642,0.055774],[103.353977,0.055735],[103.353494,0.054651],[103.352792,0.054533],[103.35216,0.055376],[103.35099,0.055774],[103.349866,0.05561],[103.348274,0.056734],[103.347408,0.057108],[103.346542,0.057202],[103.351035,0.065547],[103.352929,0.074565],[103.35093,0.094957],[103.343677,0.095522],[103.324797,0.092475],[103.319507,0.091876],[103.313589,0.093243],[103.312907,0.090611],[103.302707,0.093594],[103.300796,0.093082],[103.298784,0.092157],[103.290306,0.094508],[103.289857,0.094384],[103.286626,0.090242],[103.284942,0.088445],[103.286219,0.085068],[103.266612,0.093566],[103.282863,0.129884],[103.293179,0.126816],[103.293114,0.12526],[103.301639,0.122896],[103.314661,0.1198],[103.319897,0.118801],[103.334476,0.114427],[103.341253,0.112122],[103.343863,0.11082],[103.344419,0.100438],[103.350793,0.100152],[103.355245,0.099617],[103.356761,0.104476],[103.368852,0.103541],[103.368414,0.097849],[103.38035,0.096766],[103.382974,0.083898],[103.381687,0.07479],[103.386974,0.06951],[103.388447,0.071077],[103.392347,0.067032],[103.391098,0.06548],[103.398298,0.058463],[103.404054,0.055662],[103.408848,0.049304],[103.413515,0.052258],[103.417876,0.047829],[103.414213,0.042842],[103.418597,0.03865],[103.422673,0.033902],[103.417863,0.029125],[103.415437,0.031021],[103.413253,0.028029],[103.412427,0.022034],[103.40853,0.017275],[103.407353,0.018754],[103.405903,0.019721],[103.404484,0.020174],[103.403004,0.020144],[103.402257,0.020317],[103.401283,0.020914],[103.399877,0.024007],[103.39781,0.025564],[103.39414,0.027844],[103.392479,0.028282],[103.390947,0.028452],[103.386689,0.027909],[103.384182,0.02966],[103.383336,0.030923],[103.382649,0.033372],[103.382558,0.03535],[103.382085,0.036749],[103.381113,0.038152]]]}}]}