{"type":"FeatureCollection","features":[{"type":"Feature","properties":{"kdkec":"1403080","nmkec":"BATANG TUAKA","kddesa":"1403080008","nmdesa":"SUNGAI RAWA"},"geometry":{"type":"Polygon","coordinates":[[[103.110843,-0.24995],[103.110306,-0.248619],[103.108649,-0.246959],[103.10636,-0.244174],[103.096602,-0.231023],[103.083474,-0.215676],[103.086562,-0.214067],[103.131784,-0.197659],[103.133007,-0.197728],[103.13078,-0.224843],[103.133231,-0.226148],[103.136786,-0.22879],[103.131394,-0.233861],[103.133855,-0.238244],[103.137966,-0.242395],[103.147931,-0.24984],[103.149761,-0.254115],[103.13825,-0.260509],[103.149483,-0.254269],[103.152468,-0.261749],[103.156616,-0.270595],[103.152581,-0.271564],[103.146946,-0.274294],[103.142282,-0.266689],[103.147209,-0.274722],[103.1397,-0.277992],[103.137994,-0.279414],[103.130199,-0.270302],[103.12962,-0.269625],[103.126668,-0.270134],[103.118571,-0.26049],[103.110843,-0.24995]],[[103.139803,-0.26289],[103.139803,-0.26289],[103.130199,-0.270302],[103.139803,-0.26289]],[[103.131322,-0.25268],[103.132514,-0.254108],[103.126709,-0.246993],[103.131322,-0.25268]],[[103.105064,-0.230242],[103.105659,-0.228566],[103.105857,-0.228007],[103.105064,-0.230242]],[[103.105599,-0.231318],[103.105753,-0.231423],[103.105064,-0.230242],[103.105599,-0.231318]],[[103.107223,-0.229177],[103.107223,-0.229177],[103.106383,-0.228617],[103.107223,-0.229177]],[[103.113592,-0.239386],[103.113969,-0.24008],[103.114995,-0.241059],[103.114215,-0.240315],[103.113592,-0.239386]],[[103.103064,-0.229026],[103.102767,-0.230259],[103.103064,-0.229026],[103.103064,-0.229026]]]}}]}