{"type":"FeatureCollection","features":[{"type":"Feature","properties":{"kdkec":"1403122","nmkec":"TELUK BELENGKONG","kddesa":"1403122010","nmdesa":"KELAPA PATIH JAYA"},"geometry":{"type":"MultiPolygon","coordinates":[[[[103.156254,0.353093],[103.164195,0.360254],[103.174247,0.372337],[103.177555,0.375664],[103.186909,0.370233],[103.192555,0.365808],[103.210862,0.349785],[103.181412,0.315097],[103.147716,0.343497],[103.145539,0.346218],[103.152174,0.348508],[103.156254,0.353093]],[[103.183523,0.345823],[103.185499,0.344109],[103.185067,0.344497],[103.186308,0.345924],[103.18475,0.347287],[103.180749,0.342544],[103.183523,0.345823]],[[103.186751,0.345537],[103.186448,0.345802],[103.186702,0.345482],[103.185499,0.344109],[103.186751,0.345537]],[[103.181219,0.340057],[103.182232,0.339265],[103.181745,0.339651],[103.181219,0.340057]],[[103.18213,0.34105],[103.181713,0.340679],[103.181219,0.340057],[103.18213,0.34105]],[[103.183055,0.341208],[103.183055,0.341208],[103.181745,0.339651],[103.183055,0.341208]],[[103.183484,0.34083],[103.183755,0.340601],[103.183055,0.341208],[103.183484,0.34083]],[[103.184969,0.342],[103.184969,0.342],[103.183755,0.340601],[103.184969,0.342]],[[103.182618,0.341583],[103.183837,0.342995],[103.183837,0.342995],[103.182578,0.341539],[103.182618,0.341583]],[[103.18223,0.341159],[103.180673,0.342455],[103.18223,0.341159],[103.18223,0.341159]]],[[[103.184401,0.346871],[103.18475,0.347287],[103.186293,0.345908],[103.185067,0.344497],[103.183523,0.345823],[103.184401,0.346871]]]]}}]}