{"type":"FeatureCollection","features":[{"type":"Feature","properties":{"kdkec":"1403051","nmkec":"CONCONG","kddesa":"1403051002","nmdesa":"KAMPUNG BARU"},"geometry":{"type":"Polygon","coordinates":[[[103.538332,-0.2651],[103.526876,-0.249053],[103.518444,-0.238635],[103.526682,-0.228274],[103.531348,-0.223034],[103.539088,-0.218049],[103.547848,-0.216131],[103.551278,-0.216562],[103.556407,-0.216103],[103.564975,-0.21835],[103.584812,-0.219422],[103.590516,-0.2202],[103.591156,-0.220531],[103.602811,-0.221668],[103.60425,-0.230179],[103.606403,-0.237056],[103.607712,-0.242537],[103.607874,-0.245177],[103.607172,-0.245338],[103.60249,-0.251292],[103.601468,-0.251475],[103.588101,-0.252353],[103.584,-0.25234],[103.578921,-0.25341],[103.577554,-0.253929],[103.576381,-0.253986],[103.575413,-0.253616],[103.581084,-0.265188],[103.586662,-0.277116],[103.585878,-0.303473],[103.563575,-0.306867],[103.562887,-0.304399],[103.561787,-0.297081],[103.561433,-0.2933],[103.557172,-0.283512],[103.544437,-0.259387],[103.541988,-0.261093],[103.538332,-0.2651]],[[103.548339,-0.257855],[103.54591,-0.258703],[103.544437,-0.259387],[103.548339,-0.257855]],[[103.549207,-0.257686],[103.549795,-0.257486],[103.548339,-0.257855],[103.549207,-0.257686]],[[103.558225,-0.251641],[103.558628,-0.251425],[103.559794,-0.250521],[103.558225,-0.251641]],[[103.558241,-0.253281],[103.55861,-0.253683],[103.557497,-0.25208],[103.558241,-0.253281]],[[103.554631,-0.251807],[103.55527,-0.253324],[103.556027,-0.254802],[103.554631,-0.251807]],[[103.557586,-0.254357],[103.557586,-0.254357],[103.556658,-0.252777],[103.557351,-0.253978],[103.556374,-0.254586],[103.55738,-0.254021],[103.557586,-0.254357]],[[103.554969,-0.25594],[103.555626,-0.255649],[103.556429,-0.25512],[103.554969,-0.25594]],[[103.543707,-0.254949],[103.553898,-0.250233],[103.553898,-0.250233],[103.543707,-0.254949]],[[103.55622,-0.252018],[103.557319,-0.251485],[103.557888,-0.251114],[103.55622,-0.252018]],[[103.555928,-0.251976],[103.554124,-0.248977],[103.555522,-0.251431],[103.555928,-0.251976]],[[103.553466,-0.249306],[103.549417,-0.24189],[103.553466,-0.249306],[103.553466,-0.249306]],[[103.562131,-0.251002],[103.561598,-0.251425],[103.562263,-0.250908],[103.562131,-0.251002]],[[103.562309,-0.250875],[103.562309,-0.250875],[103.564561,-0.253841],[103.562309,-0.250875]],[[103.565425,-0.248656],[103.564914,-0.24902],[103.568559,-0.247092],[103.565425,-0.248656]],[[103.601268,-0.230648],[103.600499,-0.230758],[103.602697,-0.230562],[103.601268,-0.230648]]]}}]}