{"type":"FeatureCollection","features":[{"type":"Feature","properties":{"kdkec":"1403030","nmkec":"ENOK","kddesa":"1403030013","nmdesa":"PANTAI SEBERANG MAKMUR"},"geometry":{"type":"Polygon","coordinates":[[[103.160936,-0.542341],[103.161355,-0.535452],[103.161487,-0.529659],[103.163448,-0.528905],[103.164202,-0.526718],[103.165592,-0.524751],[103.167959,-0.5228],[103.172081,-0.522321],[103.173962,-0.52073],[103.174167,-0.519465],[103.172885,-0.516609],[103.171448,-0.514454],[103.170884,-0.513855],[103.170901,-0.512727],[103.171582,-0.511375],[103.172546,-0.51099],[103.174494,-0.510776],[103.176143,-0.511579],[103.179548,-0.514962],[103.181646,-0.515444],[103.183419,-0.51477],[103.186948,-0.51057],[103.18853,-0.50913],[103.189694,-0.508816],[103.191413,-0.508942],[103.193643,-0.509204],[103.195258,-0.509896],[103.197351,-0.511821],[103.200162,-0.516929],[103.20174,-0.518319],[103.203272,-0.518418],[103.207782,-0.516226],[103.211432,-0.514847],[103.21342,-0.513777],[103.217473,-0.508837],[103.218837,-0.508281],[103.219692,-0.508318],[103.220631,-0.508957],[103.222668,-0.517675],[103.224029,-0.518398],[103.228066,-0.518963],[103.232249,-0.520447],[103.238182,-0.523054],[103.240409,-0.523183],[103.241522,-0.522969],[103.24285,-0.521427],[103.24452,-0.518344],[103.246597,-0.515624],[103.248203,-0.514297],[103.248459,-0.514298],[103.246999,-0.573625],[103.24683,-0.573533],[103.246751,-0.584107],[103.208699,-0.576031],[103.198297,-0.572403],[103.180587,-0.582468],[103.151186,-0.598299],[103.157275,-0.581029],[103.159746,-0.548577],[103.160936,-0.542341]],[[103.186368,-0.512973],[103.187569,-0.514376],[103.185709,-0.512053],[103.186368,-0.512973]],[[103.191278,-0.511209],[103.191374,-0.511998],[103.191413,-0.508942],[103.191278,-0.511209]],[[103.191582,-0.513714],[103.189369,-0.513552],[103.189368,-0.513552],[103.191582,-0.513714]],[[103.191584,-0.513156],[103.191462,-0.512726],[103.191582,-0.513714],[103.191584,-0.513156]],[[103.175666,-0.549492],[103.174972,-0.547424],[103.175666,-0.549492],[103.175666,-0.549492]],[[103.184133,-0.517425],[103.182732,-0.518103],[103.182736,-0.518145],[103.184133,-0.517425]],[[103.182952,-0.528418],[103.182752,-0.522145],[103.182745,-0.521282],[103.182734,-0.52164],[103.182952,-0.528418]],[[103.184877,-0.516315],[103.185873,-0.521935],[103.186665,-0.526255],[103.184877,-0.516315]]]}}]}