{"type":"FeatureCollection","features":[{"type":"Feature","properties":{"kdkec":"1403100","nmkec":"GAUNG","kddesa":"1403100014","nmdesa":"PINTASAN"},"geometry":{"type":"Polygon","coordinates":[[[103.216298,-0.132873],[103.210688,-0.132106],[103.220417,-0.116359],[103.229382,-0.104877],[103.232528,-0.095597],[103.233032,-0.092426],[103.24186,-0.107136],[103.243312,-0.108422],[103.245546,-0.110679],[103.248298,-0.112878],[103.251183,-0.114175],[103.255291,-0.117441],[103.257156,-0.118172],[103.249651,-0.120799],[103.245931,-0.124582],[103.23846,-0.129525],[103.232945,-0.130951],[103.222596,-0.132786],[103.216298,-0.132873]],[[103.239867,-0.114951],[103.241268,-0.112411],[103.243312,-0.108422],[103.239867,-0.114951]],[[103.225598,-0.121797],[103.227489,-0.122517],[103.223227,-0.120895],[103.225598,-0.121797]],[[103.231475,-0.121925],[103.233168,-0.121425],[103.230719,-0.122148],[103.231475,-0.121925]],[[103.236265,-0.119346],[103.235113,-0.120117],[103.233168,-0.121425],[103.236265,-0.119346]],[[103.239117,-0.116066],[103.238951,-0.116223],[103.238507,-0.117134],[103.239117,-0.116066]],[[103.242334,-0.12064],[103.239117,-0.116066],[103.239117,-0.116066],[103.242334,-0.12064]]]}}]}