{"type":"FeatureCollection","features":[{"type":"Feature","properties":{"kdkec":"1403011","nmkec":"KEMUNING","kddesa":"1403011007","nmdesa":"KEMUNING TUA"},"geometry":{"type":"Polygon","coordinates":[[[102.790812,-0.908506],[102.791387,-0.90867],[102.791459,-0.908902],[102.791299,-0.911229],[102.79058,-0.911597],[102.790396,-0.911893],[102.790028,-0.912769],[102.790116,-0.913161],[102.790032,-0.913769],[102.789884,-0.913865],[102.789372,-0.913525],[102.788809,-0.913441],[102.784211,-0.90834],[102.769006,-0.893112],[102.765764,-0.884186],[102.764329,-0.882837],[102.778672,-0.864451],[102.809537,-0.887668],[102.808457,-0.889828],[102.807795,-0.889797],[102.807971,-0.890173],[102.808863,-0.890361],[102.808751,-0.890537],[102.808391,-0.890553],[102.808019,-0.890813],[102.808059,-0.891433],[102.807635,-0.892332],[102.808135,-0.8931],[102.808067,-0.893564],[102.807847,-0.893656],[102.807591,-0.892856],[102.800414,-0.888654],[102.807424,-0.892869],[102.806765,-0.892884],[102.806427,-0.892536],[102.806431,-0.892956],[102.806243,-0.893196],[102.805555,-0.89364],[102.805539,-0.893896],[102.805779,-0.894265],[102.806287,-0.89472],[102.805955,-0.894972],[102.804719,-0.895108],[102.804263,-0.895816],[102.803539,-0.895296],[102.802959,-0.895092],[102.802816,-0.895444],[102.803575,-0.896374],[102.803367,-0.896494],[102.802758,-0.896352],[102.801766,-0.896726],[102.801576,-0.897156],[102.802,-0.897871],[102.801954,-0.898467],[102.801642,-0.898487],[102.801038,-0.897468],[102.80084,-0.897472],[102.800642,-0.898377],[102.80015,-0.898647],[102.800004,-0.898937],[102.800832,-0.899729],[102.800856,-0.900033],[102.800592,-0.900193],[102.799773,-0.90013],[102.799176,-0.900449],[102.798432,-0.901705],[102.797812,-0.902158],[102.797984,-0.902377],[102.799072,-0.902793],[102.7988,-0.903193],[102.79832,-0.903049],[102.798,-0.903193],[102.798032,-0.903433],[102.79768,-0.903976],[102.796331,-0.903135],[102.796217,-0.903245],[102.796255,-0.903839],[102.795803,-0.904356],[102.795765,-0.904648],[102.796694,-0.904968],[102.796543,-0.905418],[102.795169,-0.905626],[102.795071,-0.906484],[102.794499,-0.905926],[102.794189,-0.905926],[102.794141,-0.906336],[102.794677,-0.906628],[102.794659,-0.906782],[102.794055,-0.906922],[102.793741,-0.907504],[102.793377,-0.907632],[102.792693,-0.907352],[102.792425,-0.906728],[102.792171,-0.90671],[102.792033,-0.907268],[102.792275,-0.907952],[102.792013,-0.908254],[102.791005,-0.908093],[102.790518,-0.908232],[102.790518,-0.908625],[102.790812,-0.908506]],[[102.793488,-0.900223],[102.793332,-0.900064],[102.796331,-0.903135],[102.793488,-0.900223]],[[102.787304,-0.905131],[102.787425,-0.905265],[102.791005,-0.908093],[102.787304,-0.905131]],[[102.773788,-0.888526],[102.786283,-0.904001],[102.7869,-0.904684],[102.773788,-0.888526]],[[102.799181,-0.890452],[102.798798,-0.891241],[102.79932,-0.89021],[102.799181,-0.890452]]]}}]}