{"type":"FeatureCollection","features":[{"type":"Feature","properties":{"kdkec":"1403010","nmkec":"KERITANG","kddesa":"1403010003","nmdesa":"PEBENAAN"},"geometry":{"type":"Polygon","coordinates":[[[102.998687,-0.70047],[102.990816,-0.704918],[102.988744,-0.705457],[102.986634,-0.705403],[102.982326,-0.704047],[102.982034,-0.700762],[102.977711,-0.680879],[102.975461,-0.675311],[102.957806,-0.634918],[102.973224,-0.626258],[102.967054,-0.614568],[102.965315,-0.608653],[102.994665,-0.599678],[103.013008,-0.592769],[103.016652,-0.591285],[103.020179,-0.589453],[103.023867,-0.588425],[103.02638,-0.586808],[103.032326,-0.586127],[103.041001,-0.586686],[103.044656,-0.587684],[103.042786,-0.602888],[103.048199,-0.613628],[103.050494,-0.626378],[103.051137,-0.666875],[103.051514,-0.669974],[103.048396,-0.672302],[103.045292,-0.675249],[103.042772,-0.678382],[103.04252,-0.682056],[103.041144,-0.682176],[103.035083,-0.684462],[103.030782,-0.686509],[103.026369,-0.688847],[103.020327,-0.691733],[103.019017,-0.692409],[103.017476,-0.693151],[103.01651,-0.693614],[103.016129,-0.693798],[102.998687,-0.70047]],[[103.032395,-0.605245],[103.032405,-0.607901],[103.032326,-0.586127],[103.032395,-0.605245]],[[103.027406,-0.609371],[103.030259,-0.607792],[103.0324,-0.606597],[103.027406,-0.609371]],[[103.025297,-0.609298],[103.028563,-0.609421],[103.027406,-0.609371],[103.025297,-0.609298]],[[103.028419,-0.615967],[103.028613,-0.610148],[103.028563,-0.609421],[103.028419,-0.615967]],[[103.016973,-0.691925],[103.017302,-0.692751],[103.017476,-0.693151],[103.016973,-0.691925]],[[103.017834,-0.691605],[103.018706,-0.691275],[103.016829,-0.691975],[103.016973,-0.691925],[103.017834,-0.691605]],[[103.017685,-0.628995],[103.017953,-0.629075],[103.022236,-0.629735],[103.022236,-0.629735],[103.017685,-0.628995]],[[103.014408,-0.67233],[103.014431,-0.67259],[103.014408,-0.669495],[103.014408,-0.67233]],[[103.016445,-0.688575],[103.016677,-0.689408],[103.016156,-0.687088],[103.016445,-0.688575]],[[103.01496,-0.689942],[103.016423,-0.689489],[103.016677,-0.689408],[103.01496,-0.689942]],[[103.014643,-0.689116],[103.014209,-0.687188],[103.01464,-0.689193],[103.01496,-0.689942],[103.014643,-0.689116]],[[103.016623,-0.690168],[103.016782,-0.690686],[103.016423,-0.689489],[103.016623,-0.690168]],[[103.01527,-0.690677],[103.01527,-0.690677],[103.015605,-0.690502],[103.01527,-0.690677]],[[102.982843,-0.680471],[102.988616,-0.702933],[102.986587,-0.695039],[102.982843,-0.680471]],[[102.977976,-0.669183],[102.978815,-0.671276],[102.982843,-0.680471],[102.977976,-0.669183]],[[103.008162,-0.688067],[102.99692,-0.692225],[103.000774,-0.6908],[103.008162,-0.688067]],[[103.008732,-0.674491],[103.012697,-0.690612],[103.012703,-0.690629],[103.012008,-0.687792],[103.008732,-0.674491]],[[102.977819,-0.668791],[102.977819,-0.668791],[102.97969,-0.667992],[102.977819,-0.668791]],[[103.005586,-0.628202],[103.010267,-0.62824],[103.014748,-0.628126],[103.005586,-0.628202]],[[103.011838,-0.674859],[103.011853,-0.675171],[103.012389,-0.677096],[103.011838,-0.674859]],[[103.004449,-0.678656],[103.004094,-0.676235],[103.00409,-0.676647],[103.004449,-0.678656]],[[102.995803,-0.618764],[102.998819,-0.617063],[102.995303,-0.619043],[102.995803,-0.618764]],[[103.000476,-0.619674],[103.001799,-0.621745],[102.998819,-0.617063],[103.000476,-0.619674]]]}}]}