{"type":"FeatureCollection","features":[{"type":"Feature","properties":{"kdkec":"1403100","nmkec":"GAUNG","kddesa":"1403100007","nmdesa":"LAHANG BARU"},"geometry":{"type":"Polygon","coordinates":[[[103.327374,-0.116568],[103.333449,-0.11398],[103.336745,-0.111228],[103.34361,-0.099787],[103.348404,-0.095428],[103.352599,-0.092786],[103.360163,-0.092193],[103.361605,-0.135503],[103.359446,-0.136045],[103.352293,-0.135805],[103.346897,-0.135897],[103.342693,-0.137628],[103.327219,-0.137104],[103.319079,-0.136828],[103.309271,-0.134197],[103.311252,-0.128015],[103.312095,-0.124341],[103.312036,-0.123722],[103.313454,-0.116368],[103.31566,-0.11684],[103.321754,-0.117228],[103.327374,-0.116568]],[[103.34472,-0.102102],[103.344549,-0.101838],[103.343118,-0.10063],[103.34472,-0.102102]],[[103.344477,-0.102377],[103.344191,-0.1027],[103.34472,-0.102102],[103.344477,-0.102377]],[[103.333347,-0.134297],[103.333213,-0.133307],[103.333636,-0.137321],[103.333347,-0.134297]],[[103.343585,-0.103516],[103.345811,-0.105833],[103.344294,-0.104193],[103.343585,-0.103516]],[[103.345624,-0.105955],[103.346733,-0.105256],[103.345811,-0.105833],[103.345624,-0.105955]],[[103.347498,-0.106793],[103.344723,-0.100967],[103.345704,-0.103246],[103.346733,-0.105256],[103.347498,-0.106793]],[[103.348393,-0.108122],[103.34927,-0.109144],[103.347498,-0.106793],[103.348393,-0.108122]],[[103.343239,-0.10301],[103.342775,-0.103577],[103.342019,-0.104422],[103.342423,-0.104012],[103.343239,-0.10301]],[[103.341822,-0.104622],[103.343649,-0.107295],[103.34256,-0.105626],[103.341822,-0.104622]],[[103.345624,-0.105955],[103.344671,-0.106572],[103.343649,-0.107295],[103.345624,-0.105955]],[[103.340468,-0.111406],[103.342041,-0.110146],[103.342041,-0.110146],[103.340468,-0.111406]]]}}]}