{"type":"FeatureCollection","features":[{"type":"Feature","properties":{"kdkec":"1403123","nmkec":"PULAU BURUNG","kddesa":"1403123003","nmdesa":"RINGIN JAYA"},"geometry":{"type":"Polygon","coordinates":[[[103.325309,0.324685],[103.321941,0.327808],[103.330029,0.336969],[103.333357,0.333906],[103.352827,0.356136],[103.381124,0.331471],[103.348904,0.321927],[103.341975,0.316483],[103.330585,0.29969],[103.315076,0.313095],[103.325309,0.324685]],[[103.327614,0.327305],[103.327614,0.327305],[103.329453,0.325568],[103.327614,0.327305]],[[103.333016,0.326371],[103.333016,0.326371],[103.33273,0.326631],[103.333016,0.326371]],[[103.332197,0.332575],[103.334086,0.330906],[103.335723,0.329467],[103.332197,0.332575]],[[103.329169,0.329093],[103.32951,0.329481],[103.332197,0.332575],[103.329169,0.329093]],[[103.331344,0.327788],[103.330568,0.328518],[103.32951,0.329481],[103.331344,0.327788]],[[103.33155,0.329646],[103.332875,0.328512],[103.331602,0.329706],[103.330568,0.328518],[103.33155,0.329646]],[[103.328465,0.328284],[103.330358,0.326635],[103.330358,0.326635],[103.328465,0.328284]]]}}]}