{"type":"FeatureCollection","features":[{"type":"Feature","properties":{"kdkec":"1403061","nmkec":"TEMBILAHAN HULU","kddesa":"1403061003","nmdesa":"SIALANG PANJANG"},"geometry":{"type":"Polygon","coordinates":[[[102.99746,-0.398088],[102.996529,-0.396056],[102.995788,-0.39339],[103.001651,-0.390648],[103.006039,-0.384054],[103.007757,-0.37397],[103.005503,-0.36419],[103.005622,-0.360269],[103.00886,-0.356732],[103.010612,-0.355455],[103.013547,-0.352278],[103.014728,-0.350699],[103.018776,-0.346011],[103.022457,-0.343221],[103.026543,-0.338619],[103.028246,-0.337336],[103.030448,-0.336971],[103.031339,-0.337516],[103.0355,-0.337755],[103.038714,-0.337397],[103.040966,-0.337582],[103.045215,-0.338337],[103.047875,-0.339841],[103.05094,-0.342386],[103.055112,-0.34636],[103.056153,-0.347644],[103.056981,-0.349151],[103.057309,-0.350471],[103.057311,-0.351083],[103.058138,-0.353302],[103.061746,-0.356566],[103.065299,-0.358702],[103.06988,-0.359148],[103.072714,-0.358818],[103.076732,-0.356411],[103.078673,-0.354819],[103.083512,-0.354216],[103.086691,-0.353211],[103.089673,-0.352029],[103.093254,-0.34889],[103.094713,-0.347025],[103.095537,-0.347944],[103.096895,-0.350319],[103.096467,-0.350715],[103.096532,-0.350879],[103.099182,-0.355471],[103.097149,-0.356914],[103.085741,-0.366019],[103.079061,-0.375431],[103.076909,-0.377386],[103.074356,-0.377692],[103.073323,-0.379267],[103.071529,-0.38026],[103.070128,-0.37865],[103.062631,-0.378698],[103.058911,-0.37892],[103.054055,-0.367915],[103.062175,-0.362578],[103.052783,-0.368724],[103.050681,-0.370152],[103.045282,-0.370918],[103.045435,-0.371662],[103.042874,-0.371565],[103.038615,-0.372828],[103.036023,-0.373974],[103.033576,-0.374565],[103.027979,-0.384391],[103.028773,-0.3858],[103.026553,-0.391798],[103.021038,-0.396958],[103.02405,-0.400237],[103.022946,-0.401591],[103.020534,-0.403274],[103.016362,-0.398],[103.013593,-0.400377],[103.003969,-0.40757],[103.001904,-0.405135],[102.99746,-0.398088]],[[103.03116,-0.373373],[103.026897,-0.371269],[103.033576,-0.374565],[103.03116,-0.373373]],[[103.039704,-0.348382],[103.038257,-0.368898],[103.038432,-0.366773],[103.039704,-0.348382]]]}}]}