{"type":"FeatureCollection","features":[{"type":"Feature","properties":{"kdkec":"1403011","nmkec":"KEMUNING","kddesa":"1403011002","nmdesa":"BATU AMPAR"},"geometry":{"type":"Polygon","coordinates":[[[102.710284,-1.007259],[102.711239,-1.011842],[102.71057,-1.013274],[102.708088,-1.01442],[102.705796,-1.013847],[102.705605,-1.012702],[102.702932,-1.012702],[102.699494,-1.013083],[102.697012,-1.012129],[102.696439,-1.010028],[102.694911,-1.010601],[102.694338,-1.012129],[102.692428,-1.014611],[102.688346,-1.021271],[102.683333,-1.027716],[102.677127,-1.034878],[102.672443,-1.042606],[102.664475,-1.053259],[102.656836,-1.06233],[102.647049,-1.070923],[102.641081,-1.079278],[102.637023,-1.085962],[102.628793,-1.101359],[102.627966,-1.10069],[102.625937,-1.101167],[102.623166,-1.097868],[102.616818,-1.094638],[102.612126,-1.094405],[102.609494,-1.094865],[102.606809,-1.095037],[102.602803,-1.094747],[102.597943,-1.093362],[102.593823,-1.092553],[102.586781,-1.092205],[102.582776,-1.092895],[102.577362,-1.095533],[102.571404,-1.096616],[102.566857,-1.095363],[102.563039,-1.096058],[102.558611,-1.097323],[102.556242,-1.095804],[102.555014,-1.092816],[102.555033,-1.090035],[102.556694,-1.082598],[102.559384,-1.060391],[102.561351,-1.035389],[102.620078,-0.984507],[102.646916,-0.973245],[102.647666,-0.972595],[102.634547,-0.953278],[102.648446,-0.942819],[102.660167,-0.933177],[102.660328,-0.933398],[102.66061,-0.933458],[102.661173,-0.933378],[102.661938,-0.932955],[102.662058,-0.932201],[102.662481,-0.931668],[102.663759,-0.931632],[102.665323,-0.93127],[102.665683,-0.930355],[102.666186,-0.930018],[102.667599,-0.929586],[102.667844,-0.929447],[102.668353,-0.928669],[102.669732,-0.928138],[102.678817,-0.920991],[102.682817,-0.917649],[102.684787,-0.916435],[102.690006,-0.912257],[102.713769,-0.889023],[102.739825,-0.914568],[102.753282,-0.925379],[102.754046,-0.935247],[102.755426,-0.939539],[102.755281,-0.94154],[102.770237,-0.948851],[102.775473,-0.950068],[102.775372,-0.950605],[102.775019,-0.950973],[102.774973,-0.951585],[102.776184,-0.952627],[102.776938,-0.954044],[102.776482,-0.9544],[102.777286,-0.956487],[102.777237,-0.956797],[102.775502,-0.956943],[102.774657,-0.957502],[102.774573,-0.957904],[102.774824,-0.958203],[102.775119,-0.95814],[102.775808,-0.958787],[102.775825,-0.959762],[102.776228,-0.960524],[102.776002,-0.961018],[102.77555,-0.961052],[102.77504,-0.960868],[102.774194,-0.961263],[102.774313,-0.961431],[102.775171,-0.961412],[102.775362,-0.961833],[102.77514,-0.962507],[102.774588,-0.96253],[102.774167,-0.962913],[102.774221,-0.963595],[102.774745,-0.964418],[102.77452,-0.965146],[102.77393,-0.965383],[102.773757,-0.965161],[102.774137,-0.964552],[102.774026,-0.964162],[102.773532,-0.96389],[102.772494,-0.964315],[102.772509,-0.965016],[102.771942,-0.965284],[102.768222,-0.965112],[102.768082,-0.964809],[102.767825,-0.962001],[102.767626,-0.962123],[102.767507,-0.961884],[102.76722,-0.961786],[102.765565,-0.961607],[102.762908,-0.962757],[102.761226,-0.962701],[102.760987,-0.96337],[102.761704,-0.96398],[102.761737,-0.964236],[102.76162,-0.96454],[102.76111,-0.964604],[102.760933,-0.964897],[102.761832,-0.965964],[102.761853,-0.966516],[102.761628,-0.966751],[102.759306,-0.966304],[102.759432,-0.964013],[102.759194,-0.96271],[102.759443,-0.959975],[102.760108,-0.958368],[102.757873,-0.957971],[102.757469,-0.958142],[102.757524,-0.958748],[102.757967,-0.95961],[102.757827,-0.960294],[102.757388,-0.960406],[102.755748,-0.958661],[102.75527,-0.95846],[102.754913,-0.957753],[102.754921,-0.957132],[102.755387,-0.956471],[102.756459,-0.955523],[102.755395,-0.955003],[102.75475,-0.954265],[102.753553,-0.953488],[102.753212,-0.953495],[102.753112,-0.954691],[102.752297,-0.955506],[102.750196,-0.955315],[102.749231,-0.954928],[102.748721,-0.955873],[102.748542,-0.955935],[102.748254,-0.955749],[102.748317,-0.955453],[102.748721,-0.955042],[102.748666,-0.954847],[102.747773,-0.954664],[102.747019,-0.954234],[102.746132,-0.954433],[102.745632,-0.954236],[102.745423,-0.953729],[102.744877,-0.953089],[102.73811,-0.959254],[102.736406,-0.960335],[102.735936,-0.960063],[102.735376,-0.960007],[102.735664,-0.960104],[102.735433,-0.960587],[102.734682,-0.961181],[102.734137,-0.962518],[102.733791,-0.962423],[102.725054,-0.968636],[102.720902,-0.971199],[102.71303,-0.978945],[102.726539,-0.99052],[102.726516,-0.991981],[102.728044,-0.993891],[102.728617,-0.996183],[102.728426,-0.997328],[102.727471,-0.998474],[102.728044,-0.99962],[102.729572,-0.99962],[102.731481,-1.002676],[102.731672,-1.003821],[102.730145,-1.004394],[102.731481,-1.005922],[102.730718,-1.006686],[102.728044,-1.006113],[102.726325,-1.004394],[102.723079,-1.004585],[102.720023,-1.003058],[102.71945,-1.005922],[102.71544,-1.004585],[102.714103,-1.004776],[102.714294,-1.006877],[102.714103,-1.008023],[102.712385,-1.007259],[102.710284,-1.007259]],[[102.699678,-0.921033],[102.712436,-0.931119],[102.715732,-0.933616],[102.69491,-0.917266],[102.699678,-0.921033]],[[102.715293,-0.942579],[102.715294,-0.942577],[102.714812,-0.941663],[102.715293,-0.942579]],[[102.7313,-0.958876],[102.7313,-0.958876],[102.731499,-0.958711],[102.7313,-0.958876]],[[102.730772,-0.958122],[102.730633,-0.958013],[102.730921,-0.958386],[102.730772,-0.958122]],[[102.726991,-0.963752],[102.726864,-0.963013],[102.726744,-0.962923],[102.726991,-0.963752]],[[102.726584,-0.964745],[102.726864,-0.964529],[102.726889,-0.964377],[102.726584,-0.964745]],[[102.681113,-0.934477],[102.689109,-0.92676],[102.687305,-0.9285],[102.681113,-0.934477]],[[102.684773,-0.925652],[102.682518,-0.922188],[102.684676,-0.925543],[102.684773,-0.925652]],[[102.701267,-0.933018],[102.702535,-0.934809],[102.702697,-0.934989],[102.701267,-0.933018]],[[102.706116,-0.937971],[102.705844,-0.937703],[102.706277,-0.938253],[102.706116,-0.937971]],[[102.707455,-0.940001],[102.706955,-0.939388],[102.707044,-0.939555],[102.707455,-0.940001]],[[102.708484,-0.940064],[102.709133,-0.9397],[102.708453,-0.94007],[102.708484,-0.940064]],[[102.689445,-0.934766],[102.692432,-0.932436],[102.690338,-0.93398],[102.689445,-0.934766]],[[102.693111,-0.928499],[102.692496,-0.928506],[102.691965,-0.92857],[102.693111,-0.928499]],[[102.735951,-0.952354],[102.731114,-0.954573],[102.735951,-0.952354],[102.735951,-0.952354]],[[102.731758,-0.959271],[102.731457,-0.959079],[102.731561,-0.959214],[102.731758,-0.959271]],[[102.731745,-0.960028],[102.731996,-0.960561],[102.731561,-0.959214],[102.731745,-0.960028]],[[102.732631,-0.959429],[102.732218,-0.959405],[102.7323,-0.959429],[102.732631,-0.959429]],[[102.734673,-0.959327],[102.734551,-0.959339],[102.733873,-0.95943],[102.734269,-0.95943],[102.734673,-0.959327]],[[102.734933,-0.959697],[102.734357,-0.959865],[102.733522,-0.960125],[102.734933,-0.959697]],[[102.733559,-0.960285],[102.733828,-0.961085],[102.733522,-0.960125],[102.733559,-0.960285]],[[102.732264,-0.961466],[102.732345,-0.962024],[102.732279,-0.961516],[102.732264,-0.961466]]]}}]}