{"type":"FeatureCollection","features":[{"type":"Feature","properties":{"kdkec":"1403120","nmkec":"KATEMAN","kddesa":"1403120003","nmdesa":"PENJURU"},"geometry":{"type":"Polygon","coordinates":[[[103.624226,0.180037],[103.623265,0.193271],[103.614646,0.19237],[103.666313,0.235145],[103.61461,0.192366],[103.614583,0.19902],[103.615314,0.209406],[103.616038,0.215551],[103.623131,0.217524],[103.634872,0.217717],[103.659557,0.239387],[103.671835,0.243764],[103.680485,0.252246],[103.689076,0.243603],[103.697813,0.252196],[103.704345,0.254233],[103.721783,0.255302],[103.724097,0.256054],[103.722403,0.200616],[103.721084,0.198808],[103.717186,0.201096],[103.715851,0.197435],[103.71102,0.187216],[103.70183,0.183797],[103.700125,0.181781],[103.700123,0.1813],[103.699644,0.181963],[103.694424,0.131121],[103.691075,0.131666],[103.68368,0.131713],[103.677977,0.133411],[103.660063,0.134944],[103.638829,0.132472],[103.639548,0.140251],[103.629735,0.141186],[103.624226,0.180037]],[[103.672712,0.231011],[103.673556,0.230468],[103.667618,0.234369],[103.672712,0.231011]],[[103.685269,0.224091],[103.68379,0.225116],[103.680254,0.227477],[103.685269,0.224091]],[[103.687475,0.222367],[103.689535,0.221046],[103.691687,0.2197],[103.687298,0.222508],[103.687475,0.222367]],[[103.691969,0.201607],[103.691999,0.201613],[103.69196,0.20161],[103.691969,0.201607]],[[103.699644,0.181963],[103.69494,0.188472],[103.692298,0.192074],[103.699644,0.181963]],[[103.64442,0.192932],[103.644375,0.193254],[103.63958,0.140588],[103.64442,0.192932]],[[103.675481,0.199761],[103.675181,0.199685],[103.675923,0.199653],[103.675481,0.199761]],[[103.676536,0.19987],[103.677006,0.200246],[103.675923,0.199653],[103.676536,0.19987]],[[103.680463,0.200454],[103.679673,0.200187],[103.680227,0.200295],[103.680463,0.200454]],[[103.682907,0.20088],[103.681643,0.200535],[103.681728,0.200512],[103.682907,0.20088]],[[103.682588,0.191892],[103.682588,0.191892],[103.685479,0.201458],[103.685458,0.20144],[103.682588,0.191892]],[[103.694969,0.202757],[103.695493,0.202865],[103.694969,0.202757],[103.694969,0.202757]],[[103.695816,0.202663],[103.696246,0.20249],[103.695493,0.202865],[103.695816,0.202663]],[[103.698297,0.203731],[103.699916,0.203866],[103.699148,0.203823],[103.698297,0.203731]],[[103.702548,0.20298],[103.701754,0.203433],[103.703059,0.202472],[103.702548,0.20298]],[[103.703185,0.222972],[103.70028,0.239772],[103.70232,0.227793],[103.703185,0.222972]],[[103.698585,0.249574],[103.699654,0.243395],[103.70028,0.239772],[103.698585,0.249574]]]}}]}