{"type":"FeatureCollection","features":[{"type":"Feature","properties":{"kdkec":"1403120","nmkec":"KATEMAN","kddesa":"1403120002","nmdesa":"KUALA SELAT"},"geometry":{"type":"Polygon","coordinates":[[[103.697508,0.161153],[103.699644,0.181963],[103.700123,0.1813],[103.700125,0.181781],[103.70183,0.183797],[103.71102,0.187216],[103.715851,0.197435],[103.717211,0.201167],[103.721084,0.198808],[103.722403,0.200616],[103.724097,0.256054],[103.734828,0.259544],[103.739205,0.251836],[103.740596,0.247832],[103.742122,0.245978],[103.742613,0.244288],[103.744265,0.241344],[103.745366,0.238672],[103.748659,0.232199],[103.751425,0.224871],[103.75176,0.224338],[103.752406,0.222541],[103.753211,0.221218],[103.755998,0.212485],[103.756909,0.211092],[103.757359,0.209659],[103.757559,0.208552],[103.76066,0.20008],[103.760878,0.197563],[103.76319,0.190059],[103.764122,0.18456],[103.764804,0.183704],[103.765041,0.182609],[103.765081,0.180353],[103.765503,0.175341],[103.765403,0.172347],[103.765737,0.171379],[103.765986,0.169037],[103.765839,0.16744],[103.766412,0.162724],[103.767284,0.16087],[103.766957,0.151329],[103.767512,0.150012],[103.766993,0.149886],[103.766391,0.149039],[103.764883,0.149357],[103.764347,0.149251],[103.763791,0.148874],[103.763692,0.14847],[103.762541,0.148212],[103.761675,0.148146],[103.759002,0.148444],[103.758274,0.148053],[103.757646,0.147928],[103.75545,0.148139],[103.7532,0.147881],[103.751805,0.14802],[103.749549,0.147518],[103.7481,0.147577],[103.747326,0.14726],[103.74661,0.147475],[103.745413,0.147336],[103.745055,0.147131],[103.744156,0.146056],[103.742681,0.145963],[103.742383,0.145493],[103.740683,0.145096],[103.736423,0.143195],[103.728239,0.138121],[103.724681,0.135263],[103.719997,0.133464],[103.715732,0.132279],[103.712301,0.131935],[103.703051,0.130558],[103.698246,0.1305],[103.694424,0.131121],[103.697508,0.161153]],[[103.747355,0.197006],[103.750009,0.213477],[103.75176,0.224338],[103.747355,0.197006]],[[103.757003,0.195023],[103.757027,0.191376],[103.757359,0.209659],[103.757003,0.195023]],[[103.742186,0.188645],[103.746623,0.187864],[103.747705,0.187755],[103.742186,0.188645]],[[103.726402,0.187124],[103.72362,0.187826],[103.722905,0.187841],[103.724472,0.187599],[103.726402,0.187124]],[[103.726195,0.187057],[103.727829,0.187584],[103.726402,0.187124],[103.726195,0.187057]],[[103.739152,0.188919],[103.737196,0.18956],[103.737764,0.189367],[103.739152,0.188919]],[[103.714578,0.161337],[103.722202,0.161594],[103.712518,0.161314],[103.714578,0.161337]],[[103.734769,0.190531],[103.733569,0.191334],[103.728972,0.194239],[103.734769,0.190531]],[[103.729086,0.195495],[103.731137,0.249489],[103.728972,0.194239],[103.729086,0.195495]],[[103.748518,0.187603],[103.748518,0.187603],[103.748136,0.185101],[103.748518,0.187603]],[[103.753961,0.186845],[103.753528,0.18427],[103.751702,0.171312],[103.753961,0.186845]],[[103.760992,0.185734],[103.761613,0.185725],[103.75763,0.186261],[103.759072,0.186031],[103.760992,0.185734]],[[103.760889,0.185292],[103.760855,0.184855],[103.760992,0.185734],[103.760889,0.185292]],[[103.759005,0.184985],[103.760714,0.184863],[103.760855,0.184855],[103.759005,0.184985]]]}}]}