{"type":"FeatureCollection","features":[{"type":"Feature","properties":{"kdkec":"1403070","nmkec":"TEMPULING","kddesa":"1403070017","nmdesa":"PANGKALAN TUJUH","idsubsls":"1403070017000800","kdsubsls":"00"},"geometry":{"type":"MultiPolygon","coordinates":[[[[102.98271,-0.466916],[102.98271,-0.466916],[102.98271,-0.466916],[102.98271,-0.466916]]],[[[102.983979,-0.465527],[102.983979,-0.465527],[102.983979,-0.465527],[102.983979,-0.465527]]],[[[102.948466,-0.414586],[102.949656,-0.416253],[102.953497,-0.423721],[102.955011,-0.42593],[102.961338,-0.434326],[102.963325,-0.437416],[102.965134,-0.440643],[102.969695,-0.446241],[102.972716,-0.449494],[102.974874,-0.452182],[102.974949,-0.453198],[102.977176,-0.455558],[102.978578,-0.455653],[102.979091,-0.456129],[102.979467,-0.456806],[102.980361,-0.457203],[102.98053,-0.458372],[102.980805,-0.458536],[102.980858,-0.459087],[102.982184,-0.460674],[102.982401,-0.461208],[102.982098,-0.461973],[102.982024,-0.462798],[102.982278,-0.463063],[102.982606,-0.46302],[102.983632,-0.464607],[102.983979,-0.465527],[102.98271,-0.466916],[102.98046,-0.46373],[102.979503,-0.462822],[102.967186,-0.448489],[102.954149,-0.432532],[102.948055,-0.416745],[102.935494,-0.410006],[102.919269,-0.402464],[102.917325,-0.396654],[102.923866,-0.401045],[102.924855,-0.402099],[102.927791,-0.404119],[102.934554,-0.407119],[102.94409,-0.411814],[102.947201,-0.41329],[102.948466,-0.414586]]]]}}]}