{"type":"FeatureCollection","features":[{"type":"Feature","properties":{"kdkec":"1403071","nmkec":"KEMPAS","kddesa":"1403071009","nmdesa":"SUNGAI RABIT","idsubsls":"1403071009000400","kdsubsls":"00"},"geometry":{"type":"Polygon","coordinates":[[[102.724472,-0.436396],[102.722144,-0.436267],[102.722129,-0.438206],[102.720477,-0.438054],[102.720536,-0.437711],[102.720281,-0.43716],[102.717313,-0.434648],[102.716854,-0.244722],[102.728515,-0.244691],[102.725073,-0.431895],[102.724932,-0.43443],[102.724653,-0.434423],[102.724472,-0.436396]]]}}]}