{"type":"FeatureCollection","features":[{"type":"Feature","properties":{"kdkec":"1403050","nmkec":"KUALA INDRAGIRI","kddesa":"1403050012","nmdesa":"TANJUNG MELAYU","idsubsls":"1403050012001200","kdsubsls":"00"},"geometry":{"type":"Polygon","coordinates":[[[103.39728,-0.255413],[103.397432,-0.263519],[103.398516,-0.264703],[103.397562,-0.265238],[103.385626,-0.28214],[103.381407,-0.296366],[103.37725,-0.295164],[103.373405,-0.292533],[103.368946,-0.289976],[103.368278,-0.290401],[103.362136,-0.285171],[103.3582,-0.284807],[103.356389,-0.284831],[103.363383,-0.268944],[103.367403,-0.260609],[103.377326,-0.255892],[103.393973,-0.255323],[103.39728,-0.255413]]]}}]}