{"type":"FeatureCollection","features":[{"type":"Feature","properties":{"kdkec":"1403021","nmkec":"SUNGAI BATANG","kddesa":"1403021003","nmdesa":"PASENGGERAHAN","idsubsls":"1403021003000200","kdsubsls":"00"},"geometry":{"type":"Polygon","coordinates":[[[103.268965,-0.624632],[103.269424,-0.623616],[103.26952,-0.622764],[103.268919,-0.618712],[103.268867,-0.609731],[103.268205,-0.585478],[103.271317,-0.587275],[103.270639,-0.625016],[103.26831,-0.629578],[103.266805,-0.628766],[103.268965,-0.624632]]]}}]}