{"type":"FeatureCollection","features":[{"type":"Feature","properties":{"kdkec":"1403090","nmkec":"GAUNG ANAK SERKA","kddesa":"1403090003","nmdesa":"TELUK TUASAN","idsubsls":"1403090003100200","kdsubsls":"00"},"geometry":{"type":"Polygon","coordinates":[[[103.222856,-0.134929],[103.222313,-0.13279],[103.232945,-0.130951],[103.23846,-0.129525],[103.245931,-0.124582],[103.249651,-0.120799],[103.249301,-0.139956],[103.247949,-0.139832],[103.240696,-0.136625],[103.241045,-0.135796],[103.238325,-0.134972],[103.2341,-0.136135],[103.23457,-0.137251],[103.230256,-0.138717],[103.227636,-0.140429],[103.226317,-0.142622],[103.224047,-0.139122],[103.222856,-0.134929]]]}}]}