{"type":"FeatureCollection","features":[{"type":"Feature","properties":{"kdkec":"1403100","nmkec":"GAUNG","kddesa":"1403100013","nmdesa":"SEMAMBU KUNING","idsubsls":"1403100013001000","kdsubsls":"00"},"geometry":{"type":"Polygon","coordinates":[[[103.115318,-0.096294],[103.116161,-0.096385],[103.116192,-0.098448],[103.116484,-0.100982],[103.116394,-0.101477],[103.115479,-0.102868],[103.115021,-0.110198],[103.112112,-0.110113],[103.11224,-0.098278],[103.110981,-0.098296],[103.110906,-0.097375],[103.110495,-0.096669],[103.113205,-0.096284],[103.115318,-0.096294]]]}}]}