{"type":"FeatureCollection","features":[{"type":"Feature","properties":{"kdkec":"1403060","nmkec":"TEMBILAHAN","kddesa":"1403060001","nmdesa":"SEBERANG TEMBILAHAN","idsubsls":"1403060001001600","kdsubsls":"00"},"geometry":{"type":"Polygon","coordinates":[[[103.173878,-0.335677],[103.184411,-0.35458],[103.186764,-0.361499],[103.188175,-0.364505],[103.186181,-0.365426],[103.184524,-0.36641],[103.181937,-0.36084],[103.182194,-0.358653],[103.181342,-0.354986],[103.18079,-0.353463],[103.178184,-0.348],[103.169141,-0.333682],[103.168349,-0.334104],[103.167051,-0.332273],[103.170321,-0.330123],[103.17269,-0.333574],[103.173878,-0.335677]]]}}]}