{"type":"FeatureCollection","features":[{"type":"Feature","properties":{"kdkec":"1403060","nmkec":"TEMBILAHAN","kddesa":"1403060001","nmdesa":"SEBERANG TEMBILAHAN","idsubsls":"1403060001000800","kdsubsls":"00"},"geometry":{"type":"Polygon","coordinates":[[[103.166186,-0.341966],[103.167482,-0.341157],[103.165964,-0.339132],[103.167716,-0.337605],[103.170462,-0.335792],[103.176292,-0.345089],[103.173657,-0.345914],[103.169395,-0.348106],[103.169021,-0.345939],[103.167203,-0.343506],[103.166985,-0.342835],[103.166186,-0.341966]]]}}]}