{"type":"FeatureCollection","features":[{"type":"Feature","properties":{"kdkec":"1403120","nmkec":"KATEMAN","kddesa":"1403120003","nmdesa":"PENJURU","idsubsls":"1403120003000600","kdsubsls":"00"},"geometry":{"type":"Polygon","coordinates":[[[103.614646,0.19237],[103.66637,0.235192],[103.672712,0.231011],[103.672011,0.230295],[103.671845,0.229409],[103.67172,0.229264],[103.671456,0.229392],[103.671314,0.229304],[103.671093,0.228416],[103.670608,0.228341],[103.671063,0.227408],[103.667903,0.224585],[103.664858,0.222637],[103.630521,0.194232],[103.623265,0.193271],[103.614646,0.19237]]]}}]}