{"type":"FeatureCollection","features":[{"type":"Feature","properties":{"kdkec":"1403120","nmkec":"KATEMAN","kddesa":"1403120003","nmdesa":"PENJURU","idsubsls":"1403120003002100","kdsubsls":"00"},"geometry":{"type":"Polygon","coordinates":[[[103.709814,0.206052],[103.71518,0.202274],[103.717211,0.201167],[103.715851,0.197435],[103.71102,0.187216],[103.70183,0.183797],[103.700125,0.181781],[103.700123,0.1813],[103.69494,0.188472],[103.702094,0.20323],[103.703059,0.202472],[103.704054,0.202462],[103.704463,0.202142],[103.706267,0.202607],[103.707095,0.202938],[103.707732,0.203768],[103.707536,0.204403],[103.70709,0.204335],[103.706677,0.205059],[103.70761,0.206715],[103.708201,0.207156],[103.709814,0.206052]]]}}]}