{"type":"FeatureCollection","features":[{"type":"Feature","properties":{"kdkec":"1403120","nmkec":"KATEMAN","kddesa":"1403120003","nmdesa":"PENJURU","idsubsls":"1403120003000200","kdsubsls":"00"},"geometry":{"type":"Polygon","coordinates":[[[103.689535,0.221046],[103.689168,0.220389],[103.689025,0.220461],[103.688904,0.220242],[103.689056,0.219999],[103.681643,0.200535],[103.681123,0.200677],[103.679673,0.200187],[103.678196,0.200452],[103.677006,0.200246],[103.675923,0.199653],[103.675481,0.199761],[103.674308,0.199464],[103.68325,0.212436],[103.688508,0.221704],[103.689535,0.221046]]]}}]}