{"type":"FeatureCollection","features":[{"type":"Feature","properties":{"kdkec":"1403120","nmkec":"KATEMAN","kddesa":"1403120003","nmdesa":"PENJURU","idsubsls":"1403120003002900","kdsubsls":"00"},"geometry":{"type":"Polygon","coordinates":[[[103.697901,0.203856],[103.698297,0.203731],[103.699916,0.203866],[103.700281,0.203538],[103.701754,0.203433],[103.702094,0.20323],[103.69494,0.188472],[103.692149,0.192277],[103.697175,0.20345],[103.697428,0.203943],[103.697787,0.204082],[103.697901,0.203856]]]}}]}