{"type":"FeatureCollection","features":[{"type":"Feature","properties":{"kdkec":"1403071","nmkec":"KEMPAS","kddesa":"1403071001","nmdesa":"BAYAS JAYA","idsubsls":"1403071001002300","kdsubsls":"00"},"geometry":{"type":"Polygon","coordinates":[[[102.694638,-0.47167],[102.696218,-0.474532],[102.697266,-0.475687],[102.70203,-0.478714],[102.703911,-0.479243],[102.703381,-0.48121],[102.694206,-0.541846],[102.687293,-0.539423],[102.690398,-0.484618],[102.690245,-0.4792],[102.690643,-0.473379],[102.691088,-0.469715],[102.692155,-0.469606],[102.692777,-0.469775],[102.694415,-0.471041],[102.694638,-0.47167]]]}}]}