{"type":"FeatureCollection","features":[{"type":"Feature","properties":{"kdkec":"1403071","nmkec":"KEMPAS","kddesa":"1403071001","nmdesa":"BAYAS JAYA","idsubsls":"1403071001001700","kdsubsls":"00"},"geometry":{"type":"Polygon","coordinates":[[[102.720963,-0.460817],[102.720741,-0.459598],[102.719897,-0.457181],[102.718239,-0.454664],[102.717411,-0.452684],[102.717564,-0.451871],[102.719559,-0.449631],[102.721032,-0.448533],[102.722375,-0.447919],[102.724109,-0.447674],[102.726441,-0.447689],[102.727531,-0.447858],[102.72987,-0.449469],[102.729988,-0.459529],[102.731766,-0.459568],[102.731874,-0.462267],[102.729922,-0.463974],[102.729969,-0.462628],[102.720897,-0.462437],[102.720963,-0.460817]]]}}]}