{"type":"FeatureCollection","features":[{"type":"Feature","properties":{"kdkec":"1403070","nmkec":"TEMPULING","kddesa":"1403070010","nmdesa":"SUNGAI SALAK","idsubsls":"1403070010000301","kdsubsls":"01"},"geometry":{"type":"Polygon","coordinates":[[[102.999364,-0.449935],[103.000858,-0.451629],[103.001955,-0.450693],[103.002578,-0.451282],[103.000854,-0.452711],[103.000474,-0.452276],[102.999719,-0.452897],[102.999298,-0.452484],[103.0,-0.45192],[102.99897,-0.450639],[102.999321,-0.450386],[102.999124,-0.450122],[102.999364,-0.449935]]]}}]}