{"type":"FeatureCollection","features":[{"type":"Feature","properties":{"kdkec":"1403070","nmkec":"TEMPULING","kddesa":"1403070010","nmdesa":"SUNGAI SALAK","idsubsls":"1403070010000100","kdsubsls":"00"},"geometry":{"type":"Polygon","coordinates":[[[102.979099,-0.437707],[102.973543,-0.431455],[102.961419,-0.419842],[102.956035,-0.413128],[102.951672,-0.403705],[102.949162,-0.39646],[102.952986,-0.396568],[102.955601,-0.405999],[102.957795,-0.412163],[102.963865,-0.419726],[102.98023,-0.437095],[102.987327,-0.44732],[102.990769,-0.452018],[102.98932,-0.452875],[102.979099,-0.437707]]]}}]}