{"type":"FeatureCollection","features":[{"type":"Feature","properties":{"kdkec":"1403070","nmkec":"TEMPULING","kddesa":"1403070010","nmdesa":"SUNGAI SALAK","idsubsls":"1403070010001900","kdsubsls":"00"},"geometry":{"type":"Polygon","coordinates":[[[102.963584,-0.400855],[102.969731,-0.400582],[102.970236,-0.405785],[102.970096,-0.406295],[102.971103,-0.412536],[102.971282,-0.415891],[102.971813,-0.417944],[102.97312,-0.420231],[102.978497,-0.427722],[102.993491,-0.444559],[102.993054,-0.444865],[102.993451,-0.44545],[102.991337,-0.447092],[102.990663,-0.446551],[102.989496,-0.445209],[102.984303,-0.440843],[102.981699,-0.437128],[102.980902,-0.435535],[102.97561,-0.42927],[102.972286,-0.425042],[102.971229,-0.422836],[102.967901,-0.417681],[102.965902,-0.412756],[102.963745,-0.40397],[102.963584,-0.400855]]]}}]}