{"type":"FeatureCollection","features":[{"type":"Feature","properties":{"kdkec":"1403070","nmkec":"TEMPULING","kddesa":"1403070010","nmdesa":"SUNGAI SALAK","idsubsls":"1403070010001400","kdsubsls":"00"},"geometry":{"type":"Polygon","coordinates":[[[103.00113,-0.447093],[102.999962,-0.44807],[103.000314,-0.44851],[102.998676,-0.449865],[102.997279,-0.447788],[102.996868,-0.448084],[102.994106,-0.443163],[102.996115,-0.441765],[102.997968,-0.444657],[102.998212,-0.444453],[102.998401,-0.444549],[102.99869,-0.445051],[102.999223,-0.445192],[102.999221,-0.445725],[102.999383,-0.445934],[102.999834,-0.445881],[102.999836,-0.446349],[103.000275,-0.446591],[103.000633,-0.446428],[103.00113,-0.447093]]]}}]}