{"type":"FeatureCollection","features":[{"type":"Feature","properties":{"kdkec":"1403070","nmkec":"TEMPULING","kddesa":"1403070010","nmdesa":"SUNGAI SALAK","idsubsls":"1403070010002201","kdsubsls":"01"},"geometry":{"type":"Polygon","coordinates":[[[103.00505,-0.447894],[103.004882,-0.447036],[103.004448,-0.446577],[103.003563,-0.446154],[103.003444,-0.445951],[103.002127,-0.446955],[103.001894,-0.44663],[103.005978,-0.442559],[103.008109,-0.444756],[103.005275,-0.448117],[103.00505,-0.447894]]]}}]}