{"type":"FeatureCollection","features":[{"type":"Feature","properties":{"kdkec":"1403070","nmkec":"TEMPULING","kddesa":"1403070010","nmdesa":"SUNGAI SALAK","idsubsls":"1403070010000402","kdsubsls":"02"},"geometry":{"type":"Polygon","coordinates":[[[103.003071,-0.449376],[103.002711,-0.44968],[103.00109,-0.44783],[103.000314,-0.44851],[102.999962,-0.44807],[103.00113,-0.447093],[103.000633,-0.446428],[103.001649,-0.445775],[103.00211,-0.446457],[103.001894,-0.44663],[103.002184,-0.447033],[103.001994,-0.447203],[103.002574,-0.447823],[103.002056,-0.448299],[103.003071,-0.449376]]]}}]}