{"type":"FeatureCollection","features":[{"type":"Feature","properties":{"kdkec":"1403040","nmkec":"TANAH MERAH","kddesa":"1403040002","nmdesa":"SELAT NAMA","idsubsls":"1403040002200200","kdsubsls":"00"},"geometry":{"type":"Polygon","coordinates":[[[103.320924,-0.550057],[103.323965,-0.549585],[103.325245,-0.54953],[103.325981,-0.549789],[103.326962,-0.552269],[103.327439,-0.554108],[103.326239,-0.558732],[103.326203,-0.560058],[103.325477,-0.56024],[103.322316,-0.562529],[103.315231,-0.56509],[103.308854,-0.566725],[103.307699,-0.566681],[103.306718,-0.565649],[103.30655,-0.564813],[103.306634,-0.563893],[103.308307,-0.55946],[103.308474,-0.557369],[103.30839,-0.555948],[103.306299,-0.55185],[103.313996,-0.538411],[103.314427,-0.539134],[103.31502,-0.539611],[103.315462,-0.541737],[103.315742,-0.542173],[103.315381,-0.544217],[103.315626,-0.545852],[103.316825,-0.548795],[103.317329,-0.549435],[103.318651,-0.550157],[103.320924,-0.550057]]]}}]}