{"type":"FeatureCollection","features":[{"type":"Feature","properties":{"kdkec":"1403121","nmkec":"PELANGIRAN","kddesa":"1403121010","nmdesa":"INTAN MULYA JAYA","idsubsls":"1403121010100100","kdsubsls":"00"},"geometry":{"type":"Polygon","coordinates":[[[103.32069,0.20921],[103.340823,0.216168],[103.351311,0.186545],[103.325743,0.177528],[103.324955,0.179872],[103.316732,0.177072],[103.307434,0.204628],[103.32069,0.20921]],[[103.329385,0.206123],[103.330479,0.203053],[103.340811,0.206661],[103.340266,0.208147],[103.339152,0.207788],[103.338621,0.209378],[103.335978,0.208396],[103.335572,0.209593],[103.332663,0.208535],[103.33301,0.207511],[103.331923,0.207052],[103.331804,0.207351],[103.330735,0.206944],[103.330846,0.206644],[103.329385,0.206123]]]}}]}