{"type":"FeatureCollection","features":[{"type":"Feature","properties":{"kdkec":"1403030","nmkec":"ENOK","kddesa":"1403030008","nmdesa":"TELUK MEDAN","idsubsls":"1403030008000500","kdsubsls":"00"},"geometry":{"type":"Polygon","coordinates":[[[103.282327,-0.520862],[103.281414,-0.522614],[103.281151,-0.522453],[103.280952,-0.522826],[103.279927,-0.522252],[103.278861,-0.522057],[103.27925,-0.521449],[103.279402,-0.520297],[103.279642,-0.52005],[103.279971,-0.519044],[103.280588,-0.517972],[103.283491,-0.518617],[103.282327,-0.520862]]]}}]}