{"type":"FeatureCollection","features":[{"type":"Feature","properties":{"kdkec":"1403070","nmkec":"TEMPULING","kddesa":"1403070017","nmdesa":"PANGKALAN TUJUH","idsubsls":"1403070017000400","kdsubsls":"00"},"geometry":{"type":"Polygon","coordinates":[[[102.983979,-0.465527],[102.983632,-0.464607],[102.982606,-0.46302],[102.982278,-0.463063],[102.982024,-0.462798],[102.982098,-0.461973],[102.982401,-0.461208],[102.982184,-0.460674],[102.980858,-0.459087],[102.980805,-0.458536],[102.98053,-0.458372],[102.980361,-0.457203],[102.979467,-0.456806],[102.979091,-0.456129],[102.978578,-0.455653],[102.977176,-0.455558],[102.974949,-0.453198],[102.974874,-0.452182],[102.972716,-0.449494],[102.969695,-0.446241],[102.965134,-0.440643],[102.963325,-0.437416],[102.961338,-0.434326],[102.955011,-0.42593],[102.953497,-0.423721],[102.949656,-0.416253],[102.948466,-0.414586],[102.947201,-0.41329],[102.94409,-0.411814],[102.946515,-0.41172],[102.951967,-0.415649],[102.956124,-0.423808],[102.970262,-0.440165],[102.973929,-0.447129],[102.982206,-0.457179],[102.984071,-0.460379],[102.986116,-0.463468],[102.983979,-0.465527]]]}}]}