{"type":"FeatureCollection","features":[{"type":"Feature","properties":{"kdkec":"1403100","nmkec":"GAUNG","kddesa":"1403100016","nmdesa":"TELUK MERBAU","idsubsls":"1403100016000600","kdsubsls":"00"},"geometry":{"type":"Polygon","coordinates":[[[103.314237,0.002391],[103.314075,0.001029],[103.313652,0.001096],[103.313548,0.000731],[103.313331,0.000804],[103.311922,-0.003522],[103.311259,-0.003878],[103.30521,-0.013074],[103.301499,-0.011442],[103.289541,-0.000747],[103.29845,0.010424],[103.298396,0.009789],[103.298995,0.009436],[103.300199,0.009436],[103.30263,0.010556],[103.303415,0.010394],[103.304223,0.009676],[103.305247,0.008089],[103.305283,0.007268],[103.305619,0.006202],[103.306206,0.005699],[103.306834,0.005819],[103.30723,0.006196],[103.3079,0.008226],[103.308373,0.008538],[103.309182,0.00849],[103.309894,0.008053],[103.311434,0.005418],[103.313164,0.003172],[103.314237,0.002391]]]}}]}