{"type":"FeatureCollection","features":[{"type":"Feature","properties":{"kdkec":"1403100","nmkec":"GAUNG","kddesa":"1403100016","nmdesa":"TELUK MERBAU","idsubsls":"1403100016000400","kdsubsls":"00"},"geometry":{"type":"Polygon","coordinates":[[[103.315166,0.001021],[103.316199,0.000763],[103.316136,0.000495],[103.315472,0.00061],[103.315354,0.000288],[103.315167,0.000249],[103.314086,0.000399],[103.314117,0.000578],[103.313548,0.000731],[103.313652,0.001096],[103.314627,0.000981],[103.314639,0.001122],[103.314993,0.001074],[103.315024,0.001373],[103.315166,0.001021]]]}}]}