{"type":"FeatureCollection","features":[{"type":"Feature","properties":{"kdkec":"1403090","nmkec":"GAUNG ANAK SERKA","kddesa":"1403090004","nmdesa":"SUNGAI ILIRAN","idsubsls":"1403090004000100","kdsubsls":"00"},"geometry":{"type":"Polygon","coordinates":[[[103.278567,-0.146996],[103.275682,-0.150187],[103.268691,-0.166826],[103.266796,-0.18082],[103.264855,-0.18083],[103.265626,-0.166875],[103.269485,-0.157428],[103.273642,-0.146614],[103.273861,-0.145082],[103.276758,-0.143093],[103.277073,-0.145611],[103.277796,-0.146611],[103.278567,-0.146996]]]}}]}