{"type":"FeatureCollection","features":[{"type":"Feature","properties":{"kdkec":"1403090","nmkec":"GAUNG ANAK SERKA","kddesa":"1403090004","nmdesa":"SUNGAI ILIRAN","idsubsls":"1403090004000700","kdsubsls":"00"},"geometry":{"type":"Polygon","coordinates":[[[103.288423,-0.159208],[103.288904,-0.159337],[103.289515,-0.15718],[103.289032,-0.157037],[103.290269,-0.153024],[103.293733,-0.147774],[103.294041,-0.148045],[103.295048,-0.149902],[103.292346,-0.153636],[103.285199,-0.182561],[103.283295,-0.181496],[103.287738,-0.162902],[103.288423,-0.159208]]]}}]}