{"type":"FeatureCollection","features":[{"type":"Feature","properties":{"kdkec":"1403071","nmkec":"KEMPAS","kddesa":"1403071006","nmdesa":"KARYA TANI","idsubsls":"1403071006100100","kdsubsls":"00"},"geometry":{"type":"Polygon","coordinates":[[[102.957806,-0.634918],[102.924587,-0.653399],[102.916345,-0.634462],[102.915903,-0.630229],[102.913102,-0.62478],[102.915957,-0.623423],[102.914319,-0.620424],[102.922176,-0.615894],[102.924657,-0.621506],[102.924923,-0.624123],[102.925119,-0.633562],[102.9292,-0.633451],[102.929095,-0.630222],[102.932651,-0.63012],[102.933011,-0.635157],[102.943269,-0.634309],[102.94262,-0.629961],[102.947764,-0.629627],[102.947874,-0.62166],[102.955271,-0.620982],[102.962156,-0.614977],[102.967054,-0.614568],[102.973224,-0.626258],[102.957806,-0.634918]],[[102.967891,-0.624819],[102.967653,-0.624326],[102.96595,-0.625226],[102.966524,-0.626336],[102.968251,-0.625392],[102.967891,-0.624819]]]}}]}