{"type":"FeatureCollection","features":[{"type":"Feature","properties":{"kdkec":"1403021","nmkec":"SUNGAI BATANG","kddesa":"1403021005","nmdesa":"BENTENG BARAT","idsubsls":"1403021005000400","kdsubsls":"00"},"geometry":{"type":"Polygon","coordinates":[[[103.176699,-0.642966],[103.176425,-0.643007],[103.174459,-0.641789],[103.138146,-0.614775],[103.140667,-0.612335],[103.141438,-0.611215],[103.17993,-0.640197],[103.180124,-0.640621],[103.181538,-0.641476],[103.182294,-0.641758],[103.180743,-0.642214],[103.180337,-0.6422],[103.179955,-0.64245],[103.178336,-0.642767],[103.177524,-0.642734],[103.176699,-0.642966]]]}}]}