{"type":"FeatureCollection","features":[{"type":"Feature","properties":{"kdkec":"1403010","nmkec":"KERITANG","kddesa":"1403010011","nmdesa":"PENGALIHAN","idsubsls":"1403010011102500","kdsubsls":"00"},"geometry":{"type":"Polygon","coordinates":[[[102.79401,-0.647169],[102.796397,-0.647825],[102.797856,-0.648558],[102.792612,-0.662262],[102.786449,-0.662476],[102.788797,-0.651448],[102.789052,-0.649363],[102.792848,-0.649954],[102.793054,-0.649569],[102.793352,-0.646949],[102.79401,-0.647169]]]}}]}