{"type":"FeatureCollection","features":[{"type":"Feature","properties":{"kdkec":"1403010","nmkec":"KERITANG","kddesa":"1403010011","nmdesa":"PENGALIHAN","idsubsls":"1403010011102000","kdsubsls":"00"},"geometry":{"type":"Polygon","coordinates":[[[102.754466,-0.603376],[102.757455,-0.605462],[102.758447,-0.606727],[102.752822,-0.605998],[102.736873,-0.601539],[102.717101,-0.595473],[102.715255,-0.592575],[102.731361,-0.595583],[102.740676,-0.598506],[102.745686,-0.600562],[102.750616,-0.603244],[102.751805,-0.603565],[102.754466,-0.603376]]]}}]}