{"type":"FeatureCollection","features":[{"type":"Feature","properties":{"kdkec":"1403010","nmkec":"KERITANG","kddesa":"1403010011","nmdesa":"PENGALIHAN","idsubsls":"1403010011101000","kdsubsls":"00"},"geometry":{"type":"Polygon","coordinates":[[[102.758433,-0.615373],[102.757237,-0.618568],[102.75712,-0.619488],[102.744434,-0.615006],[102.734806,-0.613234],[102.724857,-0.61244],[102.723926,-0.609069],[102.729726,-0.609158],[102.740476,-0.610399],[102.751581,-0.613234],[102.758433,-0.615373]]]}}]}