{"type":"FeatureCollection","features":[{"type":"Feature","properties":{"kdkec":"1403010","nmkec":"KERITANG","kddesa":"1403010011","nmdesa":"PENGALIHAN","idsubsls":"1403010011101700","kdsubsls":"00"},"geometry":{"type":"Polygon","coordinates":[[[102.757647,-0.623153],[102.738808,-0.617561],[102.732015,-0.616202],[102.725911,-0.616256],[102.724857,-0.61244],[102.734806,-0.613234],[102.744434,-0.615006],[102.75712,-0.619488],[102.757112,-0.619976],[102.757389,-0.620389],[102.757808,-0.622276],[102.757647,-0.623153]]]}}]}