{"type":"FeatureCollection","features":[{"type":"Feature","properties":{"kdkec":"1403010","nmkec":"KERITANG","kddesa":"1403010011","nmdesa":"PENGALIHAN","idsubsls":"1403010011003600","kdsubsls":"00"},"geometry":{"type":"Polygon","coordinates":[[[102.76626,-0.569986],[102.771212,-0.57202],[102.768229,-0.574513],[102.766473,-0.578591],[102.76602,-0.58437],[102.76418,-0.590752],[102.761035,-0.595189],[102.758146,-0.602086],[102.755885,-0.604326],[102.752597,-0.602158],[102.754265,-0.599608],[102.754322,-0.598532],[102.753897,-0.595331],[102.754322,-0.593037],[102.75554,-0.590261],[102.755512,-0.586182],[102.75571,-0.585588],[102.756163,-0.581396],[102.757381,-0.576637],[102.757948,-0.573125],[102.759647,-0.568536],[102.76043,-0.567592],[102.76626,-0.569986]]]}}]}