{"type":"FeatureCollection","features":[{"type":"Feature","properties":{"kdkec":"1403010","nmkec":"KERITANG","kddesa":"1403010011","nmdesa":"PENGALIHAN","idsubsls":"1403010011003300","kdsubsls":"00"},"geometry":{"type":"Polygon","coordinates":[[[102.758433,-0.615373],[102.759067,-0.611685],[102.761446,-0.610846],[102.77064,-0.608485],[102.776207,-0.604014],[102.776197,-0.606279],[102.775585,-0.60938],[102.772856,-0.611],[102.768344,-0.613024],[102.764056,-0.614574],[102.760539,-0.615178],[102.758433,-0.615373]]]}}]}