{"type":"FeatureCollection","features":[{"type":"Feature","properties":{"kdkec":"1403010","nmkec":"KERITANG","kddesa":"1403010011","nmdesa":"PENGALIHAN","idsubsls":"1403010011000800","kdsubsls":"00"},"geometry":{"type":"Polygon","coordinates":[[[102.831544,-0.613101],[102.821821,-0.634728],[102.821055,-0.635842],[102.818903,-0.641599],[102.819441,-0.642924],[102.818934,-0.644279],[102.818883,-0.645384],[102.816502,-0.647514],[102.815325,-0.648082],[102.81526,-0.647055],[102.815685,-0.642314],[102.819001,-0.632583],[102.824494,-0.619058],[102.828853,-0.609344],[102.831544,-0.613101]]]}}]}