{"type":"FeatureCollection","features":[{"type":"Feature","properties":{"kdkec":"1403010","nmkec":"KERITANG","kddesa":"1403010011","nmdesa":"PENGALIHAN","idsubsls":"1403010011001500","kdsubsls":"00"},"geometry":{"type":"Polygon","coordinates":[[[102.798725,-0.583398],[102.800446,-0.584114],[102.799561,-0.590651],[102.798215,-0.604741],[102.797556,-0.609411],[102.796773,-0.620164],[102.791471,-0.639348],[102.78948,-0.645871],[102.787778,-0.645578],[102.785402,-0.645454],[102.791132,-0.627144],[102.792615,-0.621238],[102.794236,-0.605582],[102.795389,-0.597233],[102.795774,-0.587894],[102.796603,-0.582515],[102.798725,-0.583398]]]}}]}