{"type":"FeatureCollection","features":[{"type":"Feature","properties":{"kdkec":"1403010","nmkec":"KERITANG","kddesa":"1403010011","nmdesa":"PENGALIHAN","idsubsls":"1403010011102200","kdsubsls":"00"},"geometry":{"type":"Polygon","coordinates":[[[102.756242,-0.626391],[102.746206,-0.623276],[102.738291,-0.621681],[102.726968,-0.620086],[102.725911,-0.616256],[102.732015,-0.616202],[102.738808,-0.617561],[102.757647,-0.623153],[102.757418,-0.624342],[102.756748,-0.625747],[102.756242,-0.626391]]]}}]}