{"type":"FeatureCollection","features":[{"type":"Feature","properties":{"kdkec":"1403010","nmkec":"KERITANG","kddesa":"1403010011","nmdesa":"PENGALIHAN","idsubsls":"1403010011004800","kdsubsls":"00"},"geometry":{"type":"Polygon","coordinates":[[[102.762259,-0.639997],[102.761487,-0.641926],[102.760557,-0.641742],[102.760367,-0.642168],[102.759877,-0.641987],[102.759832,-0.642102],[102.757593,-0.641015],[102.757502,-0.640364],[102.757652,-0.640371],[102.757664,-0.639923],[102.758124,-0.639919],[102.758876,-0.637879],[102.759426,-0.633828],[102.76044,-0.630746],[102.762294,-0.627766],[102.767884,-0.62127],[102.772114,-0.614527],[102.775428,-0.61018],[102.771802,-0.618914],[102.769083,-0.623638],[102.764949,-0.633169],[102.762259,-0.639997]]]}}]}