{"type":"FeatureCollection","features":[{"type":"Feature","properties":{"kdkec":"1403010","nmkec":"KERITANG","kddesa":"1403010011","nmdesa":"PENGALIHAN","idsubsls":"1403010011100300","kdsubsls":"00"},"geometry":{"type":"Polygon","coordinates":[[[102.750358,-0.657281],[102.750641,-0.660166],[102.750336,-0.664759],[102.749373,-0.672242],[102.747735,-0.681268],[102.746546,-0.686792],[102.745968,-0.69662],[102.745747,-0.697634],[102.748176,-0.698082],[102.745727,-0.706449],[102.743639,-0.714735],[102.742933,-0.721063],[102.740744,-0.749768],[102.737403,-0.747874],[102.736341,-0.750466],[102.734809,-0.752235],[102.73175,-0.753059],[102.735208,-0.728193],[102.739994,-0.704843],[102.742564,-0.693376],[102.742307,-0.684897],[102.744924,-0.675294],[102.746032,-0.662173],[102.747006,-0.657122],[102.74779,-0.654491],[102.748977,-0.655936],[102.750358,-0.657281]]]}}]}