{"type":"FeatureCollection","features":[{"type":"Feature","properties":{"kdkec":"1403010","nmkec":"KERITANG","kddesa":"1403010011","nmdesa":"PENGALIHAN","idsubsls":"1403010011100900","kdsubsls":"00"},"geometry":{"type":"Polygon","coordinates":[[[102.753792,-0.629126],[102.753261,-0.630496],[102.753217,-0.63225],[102.752705,-0.633812],[102.75258,-0.635554],[102.74415,-0.63379],[102.736166,-0.632645],[102.730572,-0.625574],[102.736408,-0.625439],[102.741119,-0.626281],[102.74769,-0.627196],[102.753792,-0.629126]]]}}]}