{"type":"FeatureCollection","features":[{"type":"Feature","properties":{"kdkec":"1403080","nmkec":"BATANG TUAKA","kddesa":"1403080012","nmdesa":"PASIR EMAS","idsubsls":"1403080012000100","kdsubsls":"00"},"geometry":{"type":"Polygon","coordinates":[[[103.014369,-0.310121],[103.013712,-0.310291],[103.012822,-0.309791],[103.012222,-0.309889],[103.012575,-0.309103],[103.013262,-0.308239],[103.015068,-0.309443],[103.015176,-0.309938],[103.015383,-0.309966],[103.015373,-0.310165],[103.014369,-0.310121]]]}}]}