{"type":"FeatureCollection","features":[{"type":"Feature","properties":{"kdkec":"1403090","nmkec":"GAUNG ANAK SERKA","kddesa":"1403090008","nmdesa":"KUALA GAUNG","idsubsls":"1403090008000500","kdsubsls":"00"},"geometry":{"type":"Polygon","coordinates":[[[103.428083,-0.176398],[103.427138,-0.179773],[103.430123,-0.184372],[103.433776,-0.186857],[103.439753,-0.195158],[103.433932,-0.198907],[103.432288,-0.20025],[103.421808,-0.183854],[103.421765,-0.181518],[103.423863,-0.175268],[103.428083,-0.176398]]]}}]}