{"type":"FeatureCollection","features":[{"type":"Feature","properties":{"kdkec":"1403090","nmkec":"GAUNG ANAK SERKA","kddesa":"1403090008","nmdesa":"KUALA GAUNG","idsubsls":"1403090008000600","kdsubsls":"00"},"geometry":{"type":"Polygon","coordinates":[[[103.413391,-0.181653],[103.413441,-0.181054],[103.413134,-0.180504],[103.411521,-0.178162],[103.410945,-0.177765],[103.4106,-0.177266],[103.410421,-0.176537],[103.410216,-0.17486],[103.410203,-0.172267],[103.411105,-0.169636],[103.425525,-0.169484],[103.423863,-0.175268],[103.421765,-0.181518],[103.413391,-0.181653]]]}}]}