{"type":"FeatureCollection","features":[{"type":"Feature","properties":{"kdkec":"1403040","nmkec":"TANAH MERAH","kddesa":"1403040003","nmdesa":"KUALA ENOK","idsubsls":"1403040003000600","kdsubsls":"00"},"geometry":{"type":"Polygon","coordinates":[[[103.386389,-0.521342],[103.38634,-0.522039],[103.383712,-0.521842],[103.383082,-0.525866],[103.381307,-0.525693],[103.381857,-0.521435],[103.380555,-0.521445],[103.38118,-0.51725],[103.38788,-0.518931],[103.387498,-0.520189],[103.386475,-0.520066],[103.386389,-0.521342]]]}}]}