{"type":"FeatureCollection","features":[{"type":"Feature","properties":{"kdkec":"1403040","nmkec":"TANAH MERAH","kddesa":"1403040003","nmdesa":"KUALA ENOK","idsubsls":"1403040003200200","kdsubsls":"00"},"geometry":{"type":"Polygon","coordinates":[[[103.397729,-0.538927],[103.395743,-0.537144],[103.392119,-0.532828],[103.392612,-0.531443],[103.392802,-0.529917],[103.392721,-0.528146],[103.392285,-0.52632],[103.394812,-0.525104],[103.39432,-0.523963],[103.396032,-0.521352],[103.399886,-0.523822],[103.405051,-0.526186],[103.409125,-0.527608],[103.397729,-0.538927]]]}}]}