{"type":"FeatureCollection","features":[{"type":"Feature","properties":{"kdkec":"1403040","nmkec":"TANAH MERAH","kddesa":"1403040003","nmdesa":"KUALA ENOK","idsubsls":"1403040003200100","kdsubsls":"00"},"geometry":{"type":"Polygon","coordinates":[[[103.380744,-0.520025],[103.380555,-0.521445],[103.381857,-0.521435],[103.381307,-0.525693],[103.383082,-0.525866],[103.383712,-0.521842],[103.38634,-0.522039],[103.386253,-0.523264],[103.387905,-0.523725],[103.387772,-0.524278],[103.387595,-0.52428],[103.387205,-0.524901],[103.38719,-0.526977],[103.385725,-0.527012],[103.385596,-0.5324],[103.392119,-0.532828],[103.38827,-0.53601],[103.385442,-0.537911],[103.381389,-0.541522],[103.373474,-0.549882],[103.366594,-0.556343],[103.358528,-0.561314],[103.357263,-0.562665],[103.357075,-0.561339],[103.357508,-0.560617],[103.358683,-0.559495],[103.359181,-0.558626],[103.359299,-0.557694],[103.359171,-0.55695],[103.358709,-0.55607],[103.358164,-0.555611],[103.35657,-0.554827],[103.353979,-0.554634],[103.352989,-0.554373],[103.352018,-0.554425],[103.351599,-0.554084],[103.350523,-0.550778],[103.349355,-0.547878],[103.346166,-0.538128],[103.345864,-0.537879],[103.34487,-0.534279],[103.353379,-0.52795],[103.36149,-0.521315],[103.36831,-0.516707],[103.372936,-0.515243],[103.375094,-0.515587],[103.377185,-0.516237],[103.378291,-0.516061],[103.381574,-0.515963],[103.381187,-0.517205],[103.380744,-0.520025]]]}}]}