{"type":"FeatureCollection","features":[{"type":"Feature","properties":{"kdkec":"1403060","nmkec":"TEMBILAHAN","kddesa":"1403060007","nmdesa":"SEBERANG TEMBILAHAN BARAT","idsubsls":"1403060007000200","kdsubsls":"00"},"geometry":{"type":"Polygon","coordinates":[[[103.137699,-0.347364],[103.139762,-0.350354],[103.141992,-0.348948],[103.143385,-0.350792],[103.144016,-0.35329],[103.149973,-0.367523],[103.14301,-0.370095],[103.140795,-0.36277],[103.140827,-0.361304],[103.140608,-0.358933],[103.139735,-0.35703],[103.13454,-0.349042],[103.137699,-0.347364]]]}}]}