{"type":"FeatureCollection","features":[{"type":"Feature","properties":{"kdkec":"1403110","nmkec":"MANDAH","kddesa":"1403110011","nmdesa":"BOLAK RAYA","idsubsls":"1403110011000600","kdsubsls":"00"},"geometry":{"type":"Polygon","coordinates":[[[103.54748,-0.014238],[103.547996,-0.016673],[103.545995,-0.022276],[103.545242,-0.023097],[103.543368,-0.024338],[103.542304,-0.026001],[103.538661,-0.024792],[103.538629,-0.019723],[103.543087,-0.019552],[103.543119,-0.019093],[103.542846,-0.019064],[103.544936,-0.012906],[103.545588,-0.012857],[103.54748,-0.014238]]]}}]}