{"type":"FeatureCollection","features":[{"type":"Feature","properties":{"kdkec":"1403040","nmkec":"TANAH MERAH","kddesa":"1403040005","nmdesa":"TANJUNG PASIR","idsubsls":"1403040005200100","kdsubsls":"00"},"geometry":{"type":"Polygon","coordinates":[[[103.366585,-0.431748],[103.365833,-0.431464],[103.35947,-0.43191],[103.351276,-0.433731],[103.346023,-0.434507],[103.340199,-0.435969],[103.333575,-0.437271],[103.332251,-0.437203],[103.329167,-0.436312],[103.328345,-0.435467],[103.328254,-0.434804],[103.328436,-0.433617],[103.334763,-0.413266],[103.335311,-0.411394],[103.335951,-0.408219],[103.335311,-0.405387],[103.334649,-0.403468],[103.333598,-0.401961],[103.331154,-0.400362],[103.328688,-0.399837],[103.321955,-0.397651],[103.317861,-0.394058],[103.311546,-0.389834],[103.307557,-0.385213],[103.307264,-0.384488],[103.30715,-0.382867],[103.30764,-0.381071],[103.311489,-0.376494],[103.312791,-0.373639],[103.314076,-0.369155],[103.315008,-0.367347],[103.316232,-0.365484],[103.336928,-0.38324],[103.360883,-0.400683],[103.386176,-0.4133],[103.431607,-0.431715],[103.428106,-0.43841],[103.426581,-0.441799],[103.42195,-0.442025],[103.407688,-0.440528],[103.403509,-0.440443],[103.396348,-0.44548],[103.379346,-0.448441],[103.378594,-0.444307],[103.377498,-0.441475],[103.375031,-0.437181],[103.373158,-0.434943],[103.370509,-0.432887],[103.368088,-0.431654],[103.366585,-0.431748]]]}}]}