{"type":"FeatureCollection","features":[{"type":"Feature","properties":{"kdkec":"1403040","nmkec":"TANAH MERAH","kddesa":"1403040005","nmdesa":"TANJUNG PASIR","idsubsls":"1403040005001100","kdsubsls":"00"},"geometry":{"type":"Polygon","coordinates":[[[103.404206,-0.517969],[103.403881,-0.517841],[103.404202,-0.517087],[103.405117,-0.517332],[103.405336,-0.516355],[103.406726,-0.516559],[103.406471,-0.518333],[103.40591,-0.518184],[103.4058,-0.518695],[103.404045,-0.518208],[103.404206,-0.517969]]]}}]}