{"type":"FeatureCollection","features":[{"type":"Feature","properties":{"kdkec":"1403100","nmkec":"GAUNG","kddesa":"1403100010","nmdesa":"LAHANG HULU","idsubsls":"1403100010100600","kdsubsls":"00"},"geometry":{"type":"Polygon","coordinates":[[[103.235143,0.001578],[103.234155,0.002191],[103.230426,0.003346],[103.220961,0.007388],[103.197293,0.005913],[103.217803,-0.011993],[103.205028,-0.019336],[103.180876,-0.002865],[103.15411,0.024296],[103.133067,0.048122],[103.128312,0.055448],[103.187499,0.054875],[103.201485,0.041988],[103.241858,0.016354],[103.235143,0.001578]],[[103.184696,-0.001579],[103.18727,0.003648],[103.183033,0.005647],[103.180301,0.000579],[103.184696,-0.001579]],[[103.227147,0.017354],[103.2271,0.010855],[103.231211,0.010867],[103.231246,0.017307],[103.227147,0.017354]],[[103.189587,0.024264],[103.188959,0.022903],[103.190023,0.022418],[103.190666,0.023774],[103.189587,0.024264]],[[103.156263,0.028092],[103.157203,0.030181],[103.154595,0.031329],[103.15365,0.0293],[103.156263,0.028092]],[[103.197358,0.034593],[103.196358,0.032603],[103.198328,0.031673],[103.199308,0.033732],[103.197358,0.034593]],[[103.157396,0.03756],[103.155456,0.033343],[103.162187,0.030314],[103.164028,0.03461],[103.157396,0.03756]]]}}]}