{"type":"FeatureCollection","features":[{"type":"Feature","properties":{"kdkec":"1403100","nmkec":"GAUNG","kddesa":"1403100010","nmdesa":"LAHANG HULU","idsubsls":"1403100010002200","kdsubsls":"00"},"geometry":{"type":"Polygon","coordinates":[[[103.267723,-0.031856],[103.271998,-0.025098],[103.279293,-0.011592],[103.282684,-0.015156],[103.282151,-0.016336],[103.282102,-0.016999],[103.282428,-0.018187],[103.282191,-0.018761],[103.28224,-0.019384],[103.280765,-0.023393],[103.279914,-0.025249],[103.27691,-0.029545],[103.273982,-0.036183],[103.272233,-0.035772],[103.271715,-0.035435],[103.268282,-0.032675],[103.267723,-0.031856]]]}}]}