{"type":"FeatureCollection","features":[{"type":"Feature","properties":{"kdkec":"1403100","nmkec":"GAUNG","kddesa":"1403100010","nmdesa":"LAHANG HULU","idsubsls":"1403100010001200","kdsubsls":"00"},"geometry":{"type":"Polygon","coordinates":[[[103.304821,-0.05772],[103.306889,-0.058293],[103.309145,-0.058545],[103.310406,-0.05933],[103.310951,-0.059868],[103.309334,-0.061443],[103.293226,-0.074418],[103.289921,-0.071202],[103.288261,-0.0699],[103.29381,-0.064706],[103.301761,-0.056223],[103.303078,-0.057014],[103.304821,-0.05772]]]}}]}