{"type":"FeatureCollection","features":[{"type":"Feature","properties":{"kdkec":"1403040","nmkec":"TANAH MERAH","kddesa":"1403040010","nmdesa":"TEKULAI BUGIS","idsubsls":"1403040010000800","kdsubsls":"00"},"geometry":{"type":"Polygon","coordinates":[[[103.218875,-0.376926],[103.223173,-0.372885],[103.225378,-0.369249],[103.226998,-0.364885],[103.23418,-0.357067],[103.233012,-0.385106],[103.229802,-0.385199],[103.226718,-0.386143],[103.222752,-0.387838],[103.221994,-0.388313],[103.221338,-0.387371],[103.213884,-0.378881],[103.218875,-0.376926]]]}}]}