{"type":"FeatureCollection","features":[{"type":"Feature","properties":{"kdkec":"1403110","nmkec":"MANDAH","kddesa":"1403110015","nmdesa":"CAHAYA BARU","idsubsls":"1403110015000300","kdsubsls":"00"},"geometry":{"type":"Polygon","coordinates":[[[103.643824,0.045478],[103.643753,0.044503],[103.643349,0.043717],[103.643278,0.042916],[103.643582,0.042866],[103.64334,0.041112],[103.639623,0.041136],[103.636245,0.047972],[103.635962,0.057497],[103.637038,0.065298],[103.639938,0.071444],[103.641675,0.070707],[103.641182,0.069379],[103.642912,0.06874],[103.641789,0.053716],[103.642399,0.045796],[103.643824,0.045478]]]}}]}