{"type":"FeatureCollection","features":[{"type":"Feature","properties":{"kdkec":"1403060","nmkec":"TEMBILAHAN","kddesa":"1403060002","nmdesa":"SUNGAI PERAK","idsubsls":"1403060002000700","kdsubsls":"00"},"geometry":{"type":"Polygon","coordinates":[[[103.217112,-0.371717],[103.222787,-0.36388],[103.221523,-0.321025],[103.221757,-0.308777],[103.226551,-0.308505],[103.226998,-0.364885],[103.225378,-0.369249],[103.223173,-0.372885],[103.218875,-0.376926],[103.213884,-0.378881],[103.212162,-0.378102],[103.217112,-0.371717]]]}}]}