{"type":"FeatureCollection","features":[{"type":"Feature","properties":{"kdkec":"1403060","nmkec":"TEMBILAHAN","kddesa":"1403060002","nmdesa":"SUNGAI PERAK","idsubsls":"1403060002001500","kdsubsls":"00"},"geometry":{"type":"Polygon","coordinates":[[[103.204929,-0.381603],[103.201942,-0.377845],[103.196245,-0.355945],[103.194495,-0.351729],[103.193878,-0.347516],[103.194514,-0.345465],[103.195018,-0.343027],[103.195031,-0.34055],[103.195656,-0.33706],[103.195631,-0.334291],[103.195089,-0.332504],[103.195367,-0.328617],[103.1965,-0.327529],[103.199384,-0.325586],[103.199594,-0.323504],[103.201057,-0.323452],[103.201218,-0.333639],[103.201739,-0.34568],[103.202779,-0.354586],[103.202829,-0.361449],[103.204929,-0.381603]]]}}]}