{"type":"FeatureCollection","features":[{"type":"Feature","properties":{"kdkec":"1403060","nmkec":"TEMBILAHAN","kddesa":"1403060002","nmdesa":"SUNGAI PERAK","idsubsls":"1403060002000300","kdsubsls":"00"},"geometry":{"type":"Polygon","coordinates":[[[103.239537,-0.324109],[103.238955,-0.35185],[103.231009,-0.360533],[103.232326,-0.312828],[103.232156,-0.308188],[103.236761,-0.307928],[103.236343,-0.308669],[103.236753,-0.309871],[103.236366,-0.311812],[103.236564,-0.312379],[103.23648,-0.312834],[103.236675,-0.313658],[103.236372,-0.315944],[103.23649,-0.316826],[103.236316,-0.318232],[103.236378,-0.322791],[103.236155,-0.323438],[103.236192,-0.324102],[103.239537,-0.324109]]]}}]}