{"type":"FeatureCollection","features":[{"type":"Feature","properties":{"kdkec":"1403061","nmkec":"TEMBILAHAN HULU","kddesa":"1403061002","nmdesa":"TEMBILAHAN HULU","idsubsls":"1403061002005401","kdsubsls":"01"},"geometry":{"type":"Polygon","coordinates":[[[103.134615,-0.327538],[103.136047,-0.329176],[103.136785,-0.330456],[103.13261,-0.33259],[103.132374,-0.332164],[103.132805,-0.331907],[103.130297,-0.328528],[103.134253,-0.325119],[103.133797,-0.324512],[103.134346,-0.324056],[103.13649,-0.326488],[103.134615,-0.327538]]]}}]}