{"type":"FeatureCollection","features":[{"type":"Feature","properties":{"kdkec":"1403061","nmkec":"TEMBILAHAN HULU","kddesa":"1403061002","nmdesa":"TEMBILAHAN HULU","idsubsls":"1403061002000900","kdsubsls":"00"},"geometry":{"type":"Polygon","coordinates":[[[103.14994,-0.329189],[103.150074,-0.32951],[103.150324,-0.329387],[103.150762,-0.33041],[103.150569,-0.330513],[103.150734,-0.330839],[103.150507,-0.33097],[103.150319,-0.330588],[103.150009,-0.330674],[103.149122,-0.328812],[103.149529,-0.328618],[103.149803,-0.329241],[103.14994,-0.329189]]]}}]}