{"type":"FeatureCollection","features":[{"type":"Feature","properties":{"kdkec":"1403061","nmkec":"TEMBILAHAN HULU","kddesa":"1403061002","nmdesa":"TEMBILAHAN HULU","idsubsls":"1403061002002501","kdsubsls":"01"},"geometry":{"type":"Polygon","coordinates":[[[103.141751,-0.32264],[103.144161,-0.325806],[103.144545,-0.326381],[103.144272,-0.326514],[103.143507,-0.325482],[103.143041,-0.325799],[103.142753,-0.325361],[103.141623,-0.326058],[103.14051,-0.324548],[103.140125,-0.324788],[103.139708,-0.324181],[103.139939,-0.324057],[103.139778,-0.323769],[103.141751,-0.32264]]]}}]}