{"type":"FeatureCollection","features":[{"type":"Feature","properties":{"kdkec":"1403061","nmkec":"TEMBILAHAN HULU","kddesa":"1403061002","nmdesa":"TEMBILAHAN HULU","idsubsls":"1403061002005602","kdsubsls":"02"},"geometry":{"type":"Polygon","coordinates":[[[103.136785,-0.330456],[103.13771,-0.332109],[103.139183,-0.331496],[103.139435,-0.332495],[103.139684,-0.3324],[103.139827,-0.332848],[103.137535,-0.333562],[103.136771,-0.332268],[103.136737,-0.331834],[103.136129,-0.331018],[103.136089,-0.330785],[103.136785,-0.330456]]]}}]}