{"type":"FeatureCollection","features":[{"type":"Feature","properties":{"kdkec":"1403061","nmkec":"TEMBILAHAN HULU","kddesa":"1403061002","nmdesa":"TEMBILAHAN HULU","idsubsls":"1403061002002301","kdsubsls":"01"},"geometry":{"type":"Polygon","coordinates":[[[103.148348,-0.322989],[103.147702,-0.323279],[103.14492,-0.319808],[103.145363,-0.319499],[103.145611,-0.319638],[103.146442,-0.320636],[103.146538,-0.320984],[103.146872,-0.321122],[103.146914,-0.321456],[103.147269,-0.32168],[103.147905,-0.322642],[103.148348,-0.322989]]]}}]}