{"type":"FeatureCollection","features":[{"type":"Feature","properties":{"kdkec":"1403050","nmkec":"KUALA INDRAGIRI","kddesa":"1403050002","nmdesa":"SUNGAI BULUH","idsubsls":"1403050002000500","kdsubsls":"00"},"geometry":{"type":"Polygon","coordinates":[[[103.596123,-0.416375],[103.596472,-0.416193],[103.596552,-0.416361],[103.596785,-0.416238],[103.596916,-0.416508],[103.596698,-0.416614],[103.596854,-0.416928],[103.59709,-0.416799],[103.597613,-0.417643],[103.596247,-0.418412],[103.595341,-0.416861],[103.596123,-0.416375]]]}}]}