{"type":"FeatureCollection","features":[{"type":"Feature","properties":{"kdkec":"1403050","nmkec":"KUALA INDRAGIRI","kddesa":"1403050002","nmdesa":"SUNGAI BULUH","idsubsls":"1403050002000200","kdsubsls":"00"},"geometry":{"type":"Polygon","coordinates":[[[103.596954,-0.416154],[103.59691,-0.415536],[103.597601,-0.415242],[103.598423,-0.417187],[103.597613,-0.417643],[103.59709,-0.416799],[103.596854,-0.416928],[103.596698,-0.416614],[103.596916,-0.416508],[103.596785,-0.416238],[103.596954,-0.416154]]]}}]}