{"type":"FeatureCollection","features":[{"type":"Feature","properties":{"kdkec":"1403050","nmkec":"KUALA INDRAGIRI","kddesa":"1403050001","nmdesa":"TANJUNG LAJAU","idsubsls":"1403050001000700","kdsubsls":"00"},"geometry":{"type":"Polygon","coordinates":[[[103.440493,-0.372941],[103.440649,-0.373437],[103.440348,-0.373532],[103.440518,-0.374175],[103.440097,-0.374326],[103.440971,-0.377731],[103.440145,-0.378439],[103.438933,-0.374552],[103.438436,-0.374598],[103.438174,-0.373801],[103.440493,-0.372941]]]}}]}