{"type":"FeatureCollection","features":[{"type":"Feature","properties":{"kdkec":"1403080","nmkec":"BATANG TUAKA","kddesa":"1403080003","nmdesa":"SUNGAI JUNJANGAN","idsubsls":"1403080003200300","kdsubsls":"00"},"geometry":{"type":"Polygon","coordinates":[[[103.098343,-0.257823],[103.099635,-0.259712],[103.101579,-0.26091],[103.102522,-0.261239],[103.103679,-0.261381],[103.106851,-0.26101],[103.10938,-0.262824],[103.110623,-0.263125],[103.113638,-0.266248],[103.098534,-0.271275],[103.096551,-0.269432],[103.084248,-0.26051],[103.079179,-0.256249],[103.076687,-0.253326],[103.070206,-0.242671],[103.077567,-0.239256],[103.087567,-0.252221],[103.090808,-0.249453],[103.098343,-0.257823]]]}}]}