{"type":"FeatureCollection","features":[{"type":"Feature","properties":{"kdkec":"1403080","nmkec":"BATANG TUAKA","kddesa":"1403080003","nmdesa":"SUNGAI JUNJANGAN","idsubsls":"1403080003001000","kdsubsls":"00"},"geometry":{"type":"Polygon","coordinates":[[[103.099085,-0.274437],[103.100848,-0.278306],[103.100852,-0.278857],[103.095955,-0.281725],[103.092795,-0.282622],[103.091573,-0.283697],[103.090897,-0.284568],[103.090118,-0.283657],[103.088748,-0.28299],[103.085448,-0.282622],[103.085398,-0.281796],[103.085858,-0.280005],[103.089694,-0.275302],[103.092922,-0.270802],[103.094994,-0.269544],[103.096551,-0.269432],[103.098534,-0.271275],[103.098617,-0.273312],[103.099085,-0.274437]]]}}]}