{"type":"FeatureCollection","features":[{"type":"Feature","properties":{"kdkec":"1403080","nmkec":"BATANG TUAKA","kddesa":"1403080003","nmdesa":"SUNGAI JUNJANGAN","idsubsls":"1403080003000100","kdsubsls":"00"},"geometry":{"type":"Polygon","coordinates":[[[103.076687,-0.253326],[103.079179,-0.256249],[103.07355,-0.25977],[103.072716,-0.260453],[103.071206,-0.258432],[103.065771,-0.259147],[103.065641,-0.258396],[103.065041,-0.258515],[103.063842,-0.253788],[103.071505,-0.251012],[103.074459,-0.249664],[103.076687,-0.253326]]]}}]}