{"type":"FeatureCollection","features":[{"type":"Feature","properties":{"kdkec":"1403080","nmkec":"BATANG TUAKA","kddesa":"1403080003","nmdesa":"SUNGAI JUNJANGAN","idsubsls":"1403080003000500","kdsubsls":"00"},"geometry":{"type":"Polygon","coordinates":[[[103.098611,-0.291732],[103.101402,-0.293722],[103.101712,-0.294436],[103.10288,-0.294313],[103.104971,-0.293606],[103.106514,-0.294082],[103.111748,-0.300672],[103.112671,-0.300845],[103.113623,-0.3006],[103.11411,-0.300842],[103.114329,-0.301523],[103.114041,-0.302489],[103.113218,-0.302949],[103.110159,-0.302364],[103.10872,-0.302283],[103.106613,-0.302591],[103.103714,-0.305036],[103.099973,-0.298811],[103.097771,-0.298406],[103.094583,-0.296812],[103.08625,-0.295541],[103.090172,-0.293132],[103.094951,-0.289082],[103.098611,-0.291732]]]}}]}