{"type":"FeatureCollection","features":[{"type":"Feature","properties":{"kdkec":"1403080","nmkec":"BATANG TUAKA","kddesa":"1403080003","nmdesa":"SUNGAI JUNJANGAN","idsubsls":"1403080003000400","kdsubsls":"00"},"geometry":{"type":"Polygon","coordinates":[[[103.071505,-0.251012],[103.063842,-0.253788],[103.063654,-0.252968],[103.068067,-0.251245],[103.066286,-0.244415],[103.055799,-0.221919],[103.059638,-0.219465],[103.062439,-0.219398],[103.070206,-0.242671],[103.074459,-0.249664],[103.071505,-0.251012]]]}}]}