{"type":"FeatureCollection","features":[{"type":"Feature","properties":{"kdkec":"1403080","nmkec":"BATANG TUAKA","kddesa":"1403080003","nmdesa":"SUNGAI JUNJANGAN","idsubsls":"1403080003000700","kdsubsls":"00"},"geometry":{"type":"Polygon","coordinates":[[[103.090324,-0.284245],[103.075387,-0.295055],[103.072374,-0.296764],[103.067888,-0.294699],[103.050003,-0.305001],[103.04581,-0.296327],[103.040044,-0.285592],[103.08076,-0.276281],[103.081144,-0.276616],[103.081875,-0.277824],[103.081935,-0.279724],[103.082796,-0.281162],[103.084487,-0.282391],[103.088748,-0.28299],[103.090118,-0.283657],[103.090489,-0.284103],[103.090324,-0.284245]]]}}]}