{"type":"FeatureCollection","features":[{"type":"Feature","properties":{"kdkec":"1403011","nmkec":"KEMUNING","kddesa":"1403011006","nmdesa":"KEMUNING MUDA","idsubsls":"1403011006000400","kdsubsls":"00"},"geometry":{"type":"Polygon","coordinates":[[[102.832028,-0.915222],[102.84638,-0.929795],[102.851261,-0.939627],[102.845864,-0.943752],[102.841237,-0.933735],[102.837136,-0.929337],[102.834574,-0.926237],[102.832104,-0.922529],[102.828618,-0.919301],[102.829294,-0.918295],[102.811967,-0.9039],[102.808024,-0.900394],[102.811715,-0.897013],[102.8214,-0.903447],[102.832028,-0.915222]]]}}]}