{"type":"FeatureCollection","features":[{"type":"Feature","properties":{"kdkec":"1403070","nmkec":"TEMPULING","kddesa":"1403070013","nmdesa":"TELUK KIAMBANG","idsubsls":"1403070013002700","kdsubsls":"00"},"geometry":{"type":"Polygon","coordinates":[[[102.832609,-0.493752],[102.832662,-0.499288],[102.832293,-0.508086],[102.832401,-0.510622],[102.831776,-0.516074],[102.831228,-0.523223],[102.831454,-0.524158],[102.831025,-0.525158],[102.824632,-0.525603],[102.824826,-0.519422],[102.82516,-0.515515],[102.828044,-0.495869],[102.827848,-0.493809],[102.832609,-0.493752]]]}}]}