{"type":"FeatureCollection","features":[{"type":"Feature","properties":{"kdkec":"1403030","nmkec":"ENOK","kddesa":"1403030004","nmdesa":"PENGALIHAN","idsubsls":"1403030004002300","kdsubsls":"00"},"geometry":{"type":"Polygon","coordinates":[[[103.080478,-0.525169],[103.08319,-0.526763],[103.083778,-0.527319],[103.084597,-0.526873],[103.089852,-0.530557],[103.088515,-0.531805],[103.082358,-0.540929],[103.080026,-0.546991],[103.069554,-0.612304],[103.066391,-0.61317],[103.061611,-0.613576],[103.064166,-0.59626],[103.06744,-0.577354],[103.074821,-0.532698],[103.077956,-0.528224],[103.079823,-0.527046],[103.080478,-0.525169]]]}}]}