{"type":"FeatureCollection","features":[{"type":"Feature","properties":{"kdkec":"1403030","nmkec":"ENOK","kddesa":"1403030004","nmdesa":"PENGALIHAN","idsubsls":"1403030004001400","kdsubsls":"00"},"geometry":{"type":"Polygon","coordinates":[[[103.099463,-0.515946],[103.099157,-0.516678],[103.101463,-0.526305],[103.097833,-0.526137],[103.098272,-0.524974],[103.098104,-0.524135],[103.096615,-0.522632],[103.095886,-0.522748],[103.095398,-0.522143],[103.095174,-0.521498],[103.095083,-0.520198],[103.09481,-0.519734],[103.093953,-0.519511],[103.093879,-0.519217],[103.0941,-0.51841],[103.093696,-0.518129],[103.093451,-0.517297],[103.093415,-0.516747],[103.093782,-0.516343],[103.094638,-0.516147],[103.094895,-0.515768],[103.095897,-0.515499],[103.096398,-0.514321],[103.097768,-0.51536],[103.099463,-0.515946]]]}}]}