{"type":"FeatureCollection","features":[{"type":"Feature","properties":{"kdkec":"1403030","nmkec":"ENOK","kddesa":"1403030004","nmdesa":"PENGALIHAN","idsubsls":"1403030004001300","kdsubsls":"00"},"geometry":{"type":"Polygon","coordinates":[[[103.104326,-0.538337],[103.099443,-0.561892],[103.098628,-0.563417],[103.096809,-0.551611],[103.097833,-0.526137],[103.101463,-0.526305],[103.099157,-0.516678],[103.100128,-0.513949],[103.099019,-0.513309],[103.098585,-0.512838],[103.098539,-0.512711],[103.099176,-0.511986],[103.099159,-0.511614],[103.098381,-0.510513],[103.098323,-0.509884],[103.098447,-0.509434],[103.10338,-0.50855],[103.104025,-0.513616],[103.10471,-0.516998],[103.104864,-0.532945],[103.104326,-0.538337]]]}}]}