{"type":"FeatureCollection","features":[{"type":"Feature","properties":{"kdkec":"1403090","nmkec":"GAUNG ANAK SERKA","kddesa":"1403090006","nmdesa":"TELUK PANTAIAN","idsubsls":"1403090006001300","kdsubsls":"00"},"geometry":{"type":"Polygon","coordinates":[[[103.325103,-0.167764],[103.325027,-0.165697],[103.324742,-0.164982],[103.32488,-0.164443],[103.324577,-0.163976],[103.324681,-0.163629],[103.324566,-0.162838],[103.325315,-0.16089],[103.325767,-0.160349],[103.329241,-0.163388],[103.330242,-0.16374],[103.32998,-0.164972],[103.329702,-0.165193],[103.328547,-0.167951],[103.325087,-0.167945],[103.325103,-0.167764]]]}}]}