{"type":"FeatureCollection","features":[{"type":"Feature","properties":{"kdkec":"1403090","nmkec":"GAUNG ANAK SERKA","kddesa":"1403090006","nmdesa":"TELUK PANTAIAN","idsubsls":"1403090006001100","kdsubsls":"00"},"geometry":{"type":"Polygon","coordinates":[[[103.325767,-0.160349],[103.325315,-0.16089],[103.324566,-0.162838],[103.324681,-0.163629],[103.324577,-0.163976],[103.32488,-0.164443],[103.324742,-0.164982],[103.325027,-0.165697],[103.325087,-0.167945],[103.318546,-0.168008],[103.31849,-0.16487],[103.319105,-0.164864],[103.319162,-0.163417],[103.317684,-0.158555],[103.316815,-0.157363],[103.318442,-0.156781],[103.319695,-0.156734],[103.321539,-0.156977],[103.322643,-0.157422],[103.323683,-0.15811],[103.325767,-0.160349]]]}}]}