{"type":"FeatureCollection","features":[{"type":"Feature","properties":{"kdkec":"1403080","nmkec":"BATANG TUAKA","kddesa":"1403080010","nmdesa":"GEMILANG JAYA","idsubsls":"1403080010000400","kdsubsls":"00"},"geometry":{"type":"Polygon","coordinates":[[[103.304382,-0.189751],[103.305261,-0.190859],[103.304778,-0.191324],[103.294728,-0.19931],[103.288016,-0.204862],[103.287132,-0.206333],[103.286774,-0.210352],[103.28592,-0.211366],[103.284875,-0.211641],[103.284286,-0.21243],[103.28281,-0.212436],[103.282184,-0.212294],[103.281114,-0.210388],[103.282286,-0.209095],[103.285805,-0.203512],[103.296525,-0.190272],[103.304382,-0.189751]]]}}]}