{"type":"FeatureCollection","features":[{"type":"Feature","properties":{"kdkec":"1403080","nmkec":"BATANG TUAKA","kddesa":"1403080010","nmdesa":"GEMILANG JAYA","idsubsls":"1403080010001400","kdsubsls":"00"},"geometry":{"type":"Polygon","coordinates":[[[103.284521,-0.182128],[103.27717,-0.204363],[103.276921,-0.206295],[103.276967,-0.207022],[103.277367,-0.207807],[103.276543,-0.20707],[103.274082,-0.202039],[103.274362,-0.201778],[103.274464,-0.201036],[103.275718,-0.197339],[103.281858,-0.180757],[103.284521,-0.182128]]]}}]}