{"type":"FeatureCollection","features":[{"type":"Feature","properties":{"kdkec":"1403060","nmkec":"TEMBILAHAN","kddesa":"1403060003","nmdesa":"TEMBILAHAN HILIR","idsubsls":"1403060003001800","kdsubsls":"00"},"geometry":{"type":"Polygon","coordinates":[[[103.160725,-0.313909],[103.16266,-0.317238],[103.163235,-0.317859],[103.16418,-0.319757],[103.16274,-0.320776],[103.158939,-0.314488],[103.158085,-0.313455],[103.158256,-0.313093],[103.158541,-0.313281],[103.158688,-0.313177],[103.15898,-0.313534],[103.160117,-0.312816],[103.160725,-0.313909]]]}}]}