{"type":"FeatureCollection","features":[{"type":"Feature","properties":{"kdkec":"1403060","nmkec":"TEMBILAHAN","kddesa":"1403060003","nmdesa":"TEMBILAHAN HILIR","idsubsls":"1403060003005100","kdsubsls":"00"},"geometry":{"type":"Polygon","coordinates":[[[103.161859,-0.313274],[103.160725,-0.313909],[103.159526,-0.311706],[103.159883,-0.311482],[103.159666,-0.311203],[103.160086,-0.310935],[103.159919,-0.310825],[103.159997,-0.310654],[103.160678,-0.310298],[103.16154,-0.311833],[103.161261,-0.311995],[103.161896,-0.313126],[103.162182,-0.312951],[103.162365,-0.31327],[103.161952,-0.313453],[103.161859,-0.313274]]]}}]}