{"type":"FeatureCollection","features":[{"type":"Feature","properties":{"kdkec":"1403060","nmkec":"TEMBILAHAN","kddesa":"1403060003","nmdesa":"TEMBILAHAN HILIR","idsubsls":"1403060003002800","kdsubsls":"00"},"geometry":{"type":"Polygon","coordinates":[[[103.161896,-0.313126],[103.161261,-0.311995],[103.16154,-0.311833],[103.161423,-0.311606],[103.164553,-0.309716],[103.165036,-0.311257],[103.16567,-0.312436],[103.164976,-0.31277],[103.164805,-0.312467],[103.162886,-0.313308],[103.162694,-0.312919],[103.161896,-0.313126]]]}}]}