{"type":"FeatureCollection","features":[{"type":"Feature","properties":{"kdkec":"1403060","nmkec":"TEMBILAHAN","kddesa":"1403060003","nmdesa":"TEMBILAHAN HILIR","idsubsls":"1403060003004402","kdsubsls":"02"},"geometry":{"type":"Polygon","coordinates":[[[103.181628,-0.313011],[103.179816,-0.30972],[103.190065,-0.306503],[103.197444,-0.301529],[103.204693,-0.296371],[103.206748,-0.294693],[103.208945,-0.298914],[103.20486,-0.300522],[103.199407,-0.302992],[103.196161,-0.304738],[103.189361,-0.308783],[103.184238,-0.311384],[103.181628,-0.313011]]]}}]}