{"type":"FeatureCollection","features":[{"type":"Feature","properties":{"kdkec":"1403060","nmkec":"TEMBILAHAN","kddesa":"1403060003","nmdesa":"TEMBILAHAN HILIR","idsubsls":"1403060003003600","kdsubsls":"00"},"geometry":{"type":"Polygon","coordinates":[[[103.168111,-0.317568],[103.168062,-0.317448],[103.168472,-0.317257],[103.169693,-0.320017],[103.16929,-0.3202],[103.169721,-0.321142],[103.168655,-0.321865],[103.168479,-0.320786],[103.167882,-0.319661],[103.168605,-0.319312],[103.168175,-0.318219],[103.167175,-0.318643],[103.166911,-0.318186],[103.168111,-0.317568]]]}}]}