{"type":"FeatureCollection","features":[{"type":"Feature","properties":{"kdkec":"1403070","nmkec":"TEMPULING","kddesa":"1403070011","nmdesa":"TELUK JIRA","idsubsls":"1403070011000600","kdsubsls":"00"},"geometry":{"type":"Polygon","coordinates":[[[102.954217,-0.475657],[102.952029,-0.477061],[102.949958,-0.473729],[102.944862,-0.468919],[102.933384,-0.45693],[102.936666,-0.453474],[102.948924,-0.466499],[102.950773,-0.468848],[102.95333,-0.473761],[102.953554,-0.474721],[102.954217,-0.475657]]]}}]}