{"type":"FeatureCollection","features":[{"type":"Feature","properties":{"kdkec":"1403070","nmkec":"TEMPULING","kddesa":"1403070011","nmdesa":"TELUK JIRA","idsubsls":"1403070011001600","kdsubsls":"00"},"geometry":{"type":"Polygon","coordinates":[[[102.93795,-0.452159],[102.935035,-0.455191],[102.931595,-0.451321],[102.911375,-0.430044],[102.906835,-0.425915],[102.910565,-0.420942],[102.908052,-0.418732],[102.899456,-0.409269],[102.905693,-0.401801],[102.903607,-0.391157],[102.864251,-0.283695],[102.870231,-0.28765],[102.920367,-0.419024],[102.92993,-0.433011],[102.923993,-0.438004],[102.93795,-0.452159]]]}}]}