{"type":"FeatureCollection","features":[{"type":"Feature","properties":{"kdkec":"1403010","nmkec":"KERITANG","kddesa":"1403010003","nmdesa":"PEBENAAN","idsubsls":"1403010003000300","kdsubsls":"00"},"geometry":{"type":"Polygon","coordinates":[[[103.030782,-0.686509],[103.026369,-0.688847],[103.025648,-0.685918],[103.02485,-0.680807],[103.017319,-0.668648],[103.015767,-0.660005],[103.021707,-0.659355],[103.022999,-0.665715],[103.028153,-0.676735],[103.030029,-0.684338],[103.030782,-0.686509]]]}}]}