{"type":"FeatureCollection","features":[{"type":"Feature","properties":{"kdkec":"1403010","nmkec":"KERITANG","kddesa":"1403010003","nmdesa":"PEBENAAN","idsubsls":"1403010003002300","kdsubsls":"00"},"geometry":{"type":"Polygon","coordinates":[[[103.004094,-0.676235],[103.005431,-0.675804],[103.00575,-0.675257],[103.006799,-0.663202],[103.006343,-0.661044],[103.004702,-0.657426],[103.00385,-0.654355],[103.003333,-0.651801],[103.003364,-0.637421],[103.00309,-0.633742],[103.002665,-0.630641],[103.002426,-0.629986],[103.005586,-0.628202],[103.010267,-0.62824],[103.00917,-0.646639],[103.009723,-0.66438],[103.008732,-0.674491],[103.012697,-0.690612],[103.014068,-0.694632],[103.011894,-0.695458],[103.011646,-0.694544],[103.011295,-0.694342],[103.010426,-0.694367],[103.01019,-0.694033],[103.010428,-0.693252],[103.010015,-0.693205],[103.009428,-0.692493],[103.008991,-0.692279],[103.009134,-0.691913],[103.008802,-0.691233],[103.0092,-0.690708],[103.009004,-0.689593],[103.008162,-0.688067],[103.008084,-0.687561],[103.007932,-0.687458],[103.006939,-0.684791],[103.005353,-0.682792],[103.004916,-0.681549],[103.004734,-0.679442],[103.004449,-0.678656],[103.004094,-0.676235]]]}}]}