{"type":"FeatureCollection","features":[{"type":"Feature","properties":{"kdkec":"1403010","nmkec":"KERITANG","kddesa":"1403010003","nmdesa":"PEBENAAN","idsubsls":"1403010003100200","kdsubsls":"00"},"geometry":{"type":"Polygon","coordinates":[[[103.003333,-0.651801],[103.00385,-0.654355],[103.004702,-0.657426],[103.006343,-0.661044],[103.006799,-0.663202],[103.00575,-0.675257],[103.005431,-0.675804],[103.004094,-0.676235],[103.00409,-0.676647],[103.004449,-0.678656],[103.004734,-0.679442],[103.004916,-0.681549],[103.005353,-0.682792],[103.006939,-0.684791],[103.007932,-0.687458],[103.008084,-0.687561],[103.008162,-0.688067],[102.99692,-0.692225],[102.991485,-0.693915],[102.987772,-0.678374],[102.982478,-0.66888],[102.977801,-0.654482],[102.976779,-0.64513],[102.978592,-0.643946],[102.969824,-0.628168],[102.973224,-0.626258],[102.967054,-0.614568],[102.965315,-0.608653],[102.994665,-0.599678],[103.013008,-0.592769],[103.016652,-0.591285],[103.020179,-0.589453],[103.023867,-0.588425],[103.02638,-0.586808],[103.032326,-0.586127],[103.032395,-0.605245],[103.025297,-0.609298],[103.024035,-0.609225],[103.022236,-0.629735],[103.016975,-0.62888],[103.014748,-0.628126],[103.005586,-0.628202],[103.002426,-0.629986],[103.002665,-0.630641],[103.00309,-0.633742],[103.003364,-0.637421],[103.003333,-0.651801]],[[102.998819,-0.617063],[102.995303,-0.619043],[102.996802,-0.621736],[102.994968,-0.622753],[102.996234,-0.624915],[103.001799,-0.621745],[102.998819,-0.617063]]]}}]}