{"type":"FeatureCollection","features":[{"type":"Feature","properties":{"kdkec":"1403010","nmkec":"KERITANG","kddesa":"1403010003","nmdesa":"PEBENAAN","idsubsls":"1403010003100100","kdsubsls":"00"},"geometry":{"type":"Polygon","coordinates":[[[103.011894,-0.695458],[103.002958,-0.698801],[103.000774,-0.6908],[103.008162,-0.688067],[103.009004,-0.689593],[103.0092,-0.690708],[103.008802,-0.691233],[103.009134,-0.691913],[103.008991,-0.692279],[103.009428,-0.692493],[103.010015,-0.693205],[103.010428,-0.693252],[103.01019,-0.694033],[103.010426,-0.694367],[103.011295,-0.694342],[103.011646,-0.694544],[103.011894,-0.695458]]]}}]}