{"type":"FeatureCollection","features":[{"type":"Feature","properties":{"kdkec":"1403080","nmkec":"BATANG TUAKA","kddesa":"1403080004","nmdesa":"SUNGAI LUAR","idsubsls":"1403080004001300","kdsubsls":"00"},"geometry":{"type":"Polygon","coordinates":[[[103.209742,-0.247474],[103.207467,-0.262193],[103.208416,-0.264129],[103.208504,-0.279453],[103.204073,-0.279771],[103.197453,-0.27747],[103.193832,-0.274905],[103.194739,-0.26453],[103.195456,-0.259881],[103.198705,-0.251282],[103.201796,-0.241775],[103.209742,-0.247474]]]}}]}