{"type":"FeatureCollection","features":[{"type":"Feature","properties":{"kdkec":"1403080","nmkec":"BATANG TUAKA","kddesa":"1403080004","nmdesa":"SUNGAI LUAR","idsubsls":"1403080004001100","kdsubsls":"00"},"geometry":{"type":"Polygon","coordinates":[[[103.164158,-0.265013],[103.171529,-0.257083],[103.17524,-0.250882],[103.178045,-0.245654],[103.178183,-0.240427],[103.176778,-0.233928],[103.177478,-0.228842],[103.17888,-0.222626],[103.180963,-0.211057],[103.184922,-0.217458],[103.18323,-0.22432],[103.182951,-0.228417],[103.183093,-0.233644],[103.183797,-0.241696],[103.183938,-0.245793],[103.182676,-0.248902],[103.17945,-0.253847],[103.176645,-0.257804],[103.176085,-0.261053],[103.172449,-0.266973],[103.166745,-0.267998],[103.166685,-0.267555],[103.164158,-0.265013]]]}}]}