{"type":"FeatureCollection","features":[{"type":"Feature","properties":{"kdkec":"1403051","nmkec":"CONCONG","kddesa":"1403051005","nmdesa":"SUNGAI BERAPIT","idsubsls":"1403051005001200","kdsubsls":"00"},"geometry":{"type":"Polygon","coordinates":[[[103.618911,-0.27421],[103.619855,-0.27409],[103.62002,-0.27521],[103.61891,-0.275429],[103.618982,-0.275927],[103.618587,-0.277845],[103.61851,-0.280664],[103.617661,-0.284559],[103.611008,-0.284441],[103.611086,-0.27291],[103.616976,-0.272907],[103.618978,-0.272691],[103.618911,-0.27421]]]}}]}