{"type":"FeatureCollection","features":[{"type":"Feature","properties":{"kdkec":"1403040","nmkec":"TANAH MERAH","kddesa":"1403040006","nmdesa":"TANAH MERAH","idsubsls":"1403040006200100","kdsubsls":"00"},"geometry":{"type":"MultiPolygon","coordinates":[[[[103.382168,-0.513194],[103.381591,-0.515962],[103.37975,-0.516017],[103.380435,-0.510269],[103.382163,-0.510858],[103.381706,-0.512093],[103.381237,-0.511975],[103.380951,-0.51281],[103.382168,-0.513194]]],[[[103.380545,-0.503888],[103.380279,-0.504676],[103.379718,-0.504758],[103.380252,-0.508523],[103.377976,-0.50866],[103.378031,-0.509779],[103.377389,-0.509793],[103.377391,-0.510411],[103.376807,-0.510458],[103.376812,-0.510943],[103.377183,-0.510902],[103.377185,-0.516237],[103.375094,-0.515587],[103.372936,-0.515243],[103.36831,-0.516707],[103.36149,-0.521315],[103.353379,-0.52795],[103.34487,-0.534279],[103.315485,-0.506209],[103.313467,-0.501138],[103.329491,-0.500726],[103.330434,-0.470527],[103.336215,-0.470645],[103.336569,-0.476425],[103.364173,-0.472178],[103.364527,-0.456725],[103.360044,-0.451416],[103.359336,-0.448349],[103.366237,-0.439678],[103.366842,-0.43629],[103.36816,-0.436483],[103.370901,-0.437853],[103.372591,-0.443198],[103.373185,-0.451055],[103.373185,-0.457404],[103.374464,-0.471017],[103.376794,-0.481752],[103.381042,-0.491025],[103.38643,-0.500495],[103.382685,-0.500941],[103.382693,-0.503753],[103.380545,-0.503888]],[[103.374864,-0.511251],[103.374324,-0.501864],[103.373062,-0.501864],[103.372882,-0.500766],[103.371232,-0.501143],[103.370594,-0.501713],[103.370054,-0.503023],[103.370866,-0.507537],[103.370988,-0.509527],[103.371323,-0.509524],[103.371298,-0.511478],[103.374864,-0.511251]]]]}}]}