{"type":"FeatureCollection","features":[{"type":"Feature","properties":{"kdkec":"1403050","nmkec":"KUALA INDRAGIRI","kddesa":"1403050010","nmdesa":"TELUK DALAM","idsubsls":"1403050010000600","kdsubsls":"00"},"geometry":{"type":"Polygon","coordinates":[[[103.286671,-0.279662],[103.28196,-0.288347],[103.2758,-0.294181],[103.271405,-0.298915],[103.26916,-0.297255],[103.265141,-0.294675],[103.262706,-0.293669],[103.264771,-0.290513],[103.268075,-0.284596],[103.272558,-0.275349],[103.284514,-0.274521],[103.286671,-0.279662]]]}}]}