{"type":"FeatureCollection","features":[{"type":"Feature","properties":{"kdkec":"1403050","nmkec":"KUALA INDRAGIRI","kddesa":"1403050010","nmdesa":"TELUK DALAM","idsubsls":"1403050010001000","kdsubsls":"00"},"geometry":{"type":"Polygon","coordinates":[[[103.253443,-0.267709],[103.258539,-0.27632],[103.251146,-0.27907],[103.247541,-0.280775],[103.244947,-0.28333],[103.244479,-0.28403],[103.24079,-0.2829],[103.23601,-0.282356],[103.233673,-0.281316],[103.231725,-0.279421],[103.231939,-0.278466],[103.246457,-0.272202],[103.250771,-0.269882],[103.253443,-0.267709]]]}}]}