{"type":"FeatureCollection","features":[{"type":"Feature","properties":{"kdkec":"1403020","nmkec":"RETEH","kddesa":"1403020002","nmdesa":"PULAU KECIL","idsubsls":"1403020002002900","kdsubsls":"00"},"geometry":{"type":"Polygon","coordinates":[[[103.164015,-0.721284],[103.162179,-0.724634],[103.158458,-0.730062],[103.155202,-0.736729],[103.149502,-0.752479],[103.146907,-0.751938],[103.144815,-0.751037],[103.147565,-0.741627],[103.151532,-0.734027],[103.158876,-0.721478],[103.159604,-0.719474],[103.164015,-0.721284]]]}}]}