{"type":"FeatureCollection","features":[{"type":"Feature","properties":{"kdkec":"1403020","nmkec":"RETEH","kddesa":"1403020002","nmdesa":"PULAU KECIL","idsubsls":"1403020002002200","kdsubsls":"00"},"geometry":{"type":"Polygon","coordinates":[[[103.163661,-0.691995],[103.160523,-0.69139],[103.161164,-0.686122],[103.161572,-0.685517],[103.161729,-0.684779],[103.168531,-0.68588],[103.167416,-0.687644],[103.167608,-0.687952],[103.167576,-0.68875],[103.167148,-0.68985],[103.16656,-0.689992],[103.164266,-0.689448],[103.163795,-0.692025],[103.163661,-0.691995]]]}}]}