{"type":"FeatureCollection","features":[{"type":"Feature","properties":{"kdkec":"1403020","nmkec":"RETEH","kddesa":"1403020002","nmdesa":"PULAU KECIL","idsubsls":"1403020002000100","kdsubsls":"00"},"geometry":{"type":"Polygon","coordinates":[[[103.119812,-0.688337],[103.119595,-0.697933],[103.118693,-0.702556],[103.115038,-0.71077],[103.112778,-0.710205],[103.104727,-0.725633],[103.103036,-0.73535],[103.101132,-0.755764],[103.097814,-0.75757],[103.101597,-0.722555],[103.113295,-0.701148],[103.113595,-0.698003],[103.114116,-0.68733],[103.119812,-0.688337]]]}}]}