{"type":"FeatureCollection","features":[{"type":"Feature","properties":{"kdkec":"1403020","nmkec":"RETEH","kddesa":"1403020002","nmdesa":"PULAU KECIL","idsubsls":"1403020002001000","kdsubsls":"00"},"geometry":{"type":"Polygon","coordinates":[[[103.132651,-0.748551],[103.131837,-0.748447],[103.130492,-0.746961],[103.126654,-0.743804],[103.1239,-0.742474],[103.121889,-0.742022],[103.126697,-0.717854],[103.127348,-0.711004],[103.128706,-0.689236],[103.134647,-0.688812],[103.138705,-0.688173],[103.139635,-0.720285],[103.132651,-0.748551]]]}}]}