{"type":"FeatureCollection","features":[{"type":"Feature","properties":{"kdkec":"1403030","nmkec":"ENOK","kddesa":"1403030008","nmdesa":"TELUK MEDAN","idsubsls":"1403030008100100","kdsubsls":"00"},"geometry":{"type":"Polygon","coordinates":[[[103.261214,-0.49333],[103.265183,-0.494154],[103.273823,-0.49896],[103.270585,-0.516612],[103.268835,-0.52379],[103.264048,-0.518451],[103.261146,-0.517412],[103.254177,-0.516449],[103.25195,-0.515132],[103.24998,-0.514329],[103.248203,-0.514297],[103.246597,-0.515624],[103.24452,-0.518344],[103.24285,-0.521427],[103.241522,-0.522969],[103.240409,-0.523183],[103.238182,-0.523054],[103.234774,-0.521613],[103.236552,-0.506555],[103.236775,-0.50068],[103.235888,-0.496579],[103.23611,-0.493476],[103.237994,-0.49137],[103.248635,-0.49004],[103.25375,-0.488717],[103.257471,-0.492554],[103.261214,-0.49333]]]}}]}