{"type":"FeatureCollection","features":[{"type":"Feature","properties":{"kdkec":"1403021","nmkec":"SUNGAI BATANG","kddesa":"1403021003","nmdesa":"PASENGGERAHAN","idsubsls":"1403021003000700","kdsubsls":"00"},"geometry":{"type":"Polygon","coordinates":[[[103.293109,-0.64515],[103.292365,-0.645491],[103.291477,-0.645475],[103.290978,-0.646239],[103.290058,-0.646395],[103.289504,-0.648112],[103.28767,-0.646354],[103.289572,-0.595125],[103.291924,-0.596123],[103.293946,-0.595882],[103.293109,-0.64515]]]}}]}