{"type":"FeatureCollection","features":[{"type":"Feature","properties":{"kdkec":"1403021","nmkec":"SUNGAI BATANG","kddesa":"1403021003","nmdesa":"PASENGGERAHAN","idsubsls":"1403021003000800","kdsubsls":"00"},"geometry":{"type":"Polygon","coordinates":[[[103.297052,-0.650189],[103.295456,-0.650235],[103.293192,-0.649702],[103.292833,-0.649872],[103.290894,-0.64935],[103.289504,-0.648112],[103.290058,-0.646395],[103.290978,-0.646239],[103.291477,-0.645475],[103.292365,-0.645491],[103.293109,-0.64515],[103.293946,-0.595882],[103.296229,-0.59561],[103.297211,-0.626512],[103.297052,-0.650189]]]}}]}