{"type":"FeatureCollection","features":[{"type":"Feature","properties":{"kdkec":"1403021","nmkec":"SUNGAI BATANG","kddesa":"1403021003","nmdesa":"PASENGGERAHAN","idsubsls":"1403021003000400","kdsubsls":"00"},"geometry":{"type":"Polygon","coordinates":[[[103.274196,-0.588512],[103.273167,-0.626085],[103.271482,-0.62927],[103.271878,-0.629525],[103.271229,-0.63061],[103.271888,-0.63114],[103.272668,-0.632472],[103.271812,-0.633491],[103.267868,-0.630443],[103.268781,-0.628664],[103.269961,-0.629351],[103.272034,-0.625261],[103.272872,-0.587943],[103.274196,-0.588512]]]}}]}