{"type":"FeatureCollection","features":[{"type":"Feature","properties":{"kdkec":"1403123","nmkec":"PULAU BURUNG","kddesa":"1403123006","nmdesa":"MANUNGGAL JAYA","idsubsls":"1403123006100100","kdsubsls":"00"},"geometry":{"type":"Polygon","coordinates":[[[103.393206,0.361712],[103.388597,0.361271],[103.364447,0.384416],[103.372659,0.393408],[103.399455,0.42385],[103.416088,0.408877],[103.426557,0.399939],[103.393206,0.361712]],[[103.396105,0.378421],[103.398415,0.381088],[103.395056,0.384286],[103.389426,0.377835],[103.392895,0.374715],[103.396105,0.378421]]]}}]}