{"type":"FeatureCollection","features":[{"type":"Feature","properties":{"kdkec":"1403100","nmkec":"GAUNG","kddesa":"1403100003","nmdesa":"PUNGKAT","idsubsls":"1403100003100100","kdsubsls":"00"},"geometry":{"type":"Polygon","coordinates":[[[103.144787,-0.134565],[103.142755,-0.134538],[103.142087,-0.116458],[103.142117,-0.11423],[103.142424,-0.112201],[103.14469,-0.106173],[103.145136,-0.102263],[103.144384,-0.096344],[103.143547,-0.095098],[103.146249,-0.092371],[103.149133,-0.090911],[103.149867,-0.094641],[103.148244,-0.100234],[103.145849,-0.106173],[103.145136,-0.109459],[103.144106,-0.113181],[103.144787,-0.134565]]]}}]}