{"type":"FeatureCollection","features":[{"type":"Feature","properties":{"kdkec":"1403100","nmkec":"GAUNG","kddesa":"1403100003","nmdesa":"PUNGKAT","idsubsls":"1403100003001200","kdsubsls":"00"},"geometry":{"type":"Polygon","coordinates":[[[103.139019,-0.134104],[103.140088,-0.113627],[103.140018,-0.099262],[103.140603,-0.098827],[103.143547,-0.095098],[103.144384,-0.096344],[103.145136,-0.102263],[103.14469,-0.106173],[103.14279,-0.110954],[103.142424,-0.112201],[103.142117,-0.11423],[103.142755,-0.134538],[103.139019,-0.134104]]]}}]}