{"type":"FeatureCollection","features":[{"type":"Feature","properties":{"kdkec":"1403100","nmkec":"GAUNG","kddesa":"1403100003","nmdesa":"PUNGKAT","idsubsls":"1403100003001800","kdsubsls":"00"},"geometry":{"type":"Polygon","coordinates":[[[103.157239,-0.103317],[103.155418,-0.106168],[103.153557,-0.10993],[103.15233,-0.112543],[103.152132,-0.114156],[103.15234,-0.117898],[103.153527,-0.126252],[103.153744,-0.132603],[103.150953,-0.134097],[103.148199,-0.134306],[103.146937,-0.121877],[103.146779,-0.113839],[103.147215,-0.10992],[103.148006,-0.107029],[103.151768,-0.099823],[103.15399,-0.096161],[103.159714,-0.101444],[103.157239,-0.103317]]]}}]}