{"type":"FeatureCollection","features":[{"type":"Feature","properties":{"kdkec":"1403100","nmkec":"GAUNG","kddesa":"1403100012","nmdesa":"GEMBIRA","idsubsls":"1403100012001100","kdsubsls":"00"},"geometry":{"type":"Polygon","coordinates":[[[103.013527,-0.17621],[102.991668,-0.183025],[102.986853,-0.132295],[102.989566,-0.13297],[102.992245,-0.134309],[102.994342,-0.13677],[102.996453,-0.140309],[102.998375,-0.142376],[103.00104,-0.143745],[103.003006,-0.143104],[103.004986,-0.141925],[103.007802,-0.133121],[103.009049,-0.131106],[103.010767,-0.130363],[103.012514,-0.130305],[103.014276,-0.131164],[103.015936,-0.132984],[103.01652,-0.134106],[103.015687,-0.143725],[103.015746,-0.154081],[103.015394,-0.175628],[103.013527,-0.17621]]]}}]}