{"type":"FeatureCollection","features":[{"type":"Feature","properties":{"kdkec":"1403030","nmkec":"ENOK","kddesa":"1403030005","nmdesa":"SUNGAI AMBAT","idsubsls":"1403030005100200","kdsubsls":"00"},"geometry":{"type":"Polygon","coordinates":[[[103.121165,-0.509969],[103.120382,-0.510125],[103.118798,-0.510077],[103.11749,-0.509851],[103.11309,-0.50799],[103.112734,-0.481978],[103.113053,-0.475767],[103.114327,-0.470352],[103.118467,-0.465256],[103.122278,-0.462752],[103.121165,-0.503763],[103.121165,-0.509969]]]}}]}