{"type":"FeatureCollection","features":[{"type":"Feature","properties":{"kdkec":"1403030","nmkec":"ENOK","kddesa":"1403030005","nmdesa":"SUNGAI AMBAT","idsubsls":"1403030005001200","kdsubsls":"00"},"geometry":{"type":"Polygon","coordinates":[[[103.128755,-0.524292],[103.123478,-0.533627],[103.122446,-0.533338],[103.118528,-0.532934],[103.126,-0.519652],[103.129894,-0.515131],[103.13056,-0.515893],[103.132078,-0.516135],[103.132838,-0.515974],[103.136381,-0.516635],[103.134565,-0.519291],[103.129291,-0.524447],[103.129075,-0.524014],[103.128755,-0.524292]]]}}]}