{"type":"FeatureCollection","features":[{"type":"Feature","properties":{"kdkec":"1403010","nmkec":"KERITANG","kddesa":"1403010014","nmdesa":"KAYU RAJA","idsubsls":"1403010014001600","kdsubsls":"00"},"geometry":{"type":"Polygon","coordinates":[[[102.922433,-0.795181],[102.922821,-0.79719],[102.923425,-0.813221],[102.92377,-0.830682],[102.922784,-0.852164],[102.922481,-0.873349],[102.918497,-0.877531],[102.917052,-0.875725],[102.918246,-0.840819],[102.918632,-0.797452],[102.917685,-0.793066],[102.920401,-0.790804],[102.921234,-0.790804],[102.922433,-0.795181]]]}}]}