{"type":"FeatureCollection","features":[{"type":"Feature","properties":{"kdkec":"1403010","nmkec":"KERITANG","kddesa":"1403010014","nmdesa":"KAYU RAJA","idsubsls":"1403010014001500","kdsubsls":"00"},"geometry":{"type":"Polygon","coordinates":[[[102.926558,-0.792044],[102.927628,-0.794296],[102.928999,-0.807548],[102.929097,-0.817389],[102.92713,-0.86847],[102.922481,-0.873349],[102.922784,-0.852164],[102.92377,-0.830682],[102.923425,-0.813221],[102.922821,-0.79719],[102.922433,-0.795181],[102.926558,-0.792044]]]}}]}