{"type":"FeatureCollection","features":[{"type":"Feature","properties":{"kdkec":"1403010","nmkec":"KERITANG","kddesa":"1403010014","nmdesa":"KAYU RAJA","idsubsls":"1403010014000400","kdsubsls":"00"},"geometry":{"type":"Polygon","coordinates":[[[102.980074,-0.796671],[102.979837,-0.79999],[102.979427,-0.802697],[102.978278,-0.804391],[102.953677,-0.777724],[102.955618,-0.776385],[102.955842,-0.775821],[102.955522,-0.774515],[102.955509,-0.773502],[102.957941,-0.775498],[102.980074,-0.796671]]]}}]}