{"type":"FeatureCollection","features":[{"type":"Feature","properties":{"kdkec":"1403080","nmkec":"BATANG TUAKA","kddesa":"1403080003","nmdesa":"SUNGAI JUNJANGAN","idsubsls":"1403080003001200","kdsubsls":"00"},"geometry":{"type":"Polygon","coordinates":[[[103.08795,-0.263195],[103.076799,-0.272505],[103.075622,-0.274572],[103.074813,-0.273994],[103.073771,-0.273708],[103.072986,-0.273237],[103.070068,-0.270319],[103.067347,-0.264283],[103.068702,-0.263744],[103.07355,-0.25977],[103.079179,-0.256249],[103.084248,-0.26051],[103.08795,-0.263195]]]}}]}