{"type":"FeatureCollection","features":[{"type":"Feature","properties":{"kdkec":"1403080","nmkec":"BATANG TUAKA","kddesa":"1403080003","nmdesa":"SUNGAI JUNJANGAN","idsubsls":"1403080003200200","kdsubsls":"00"},"geometry":{"type":"Polygon","coordinates":[[[103.110623,-0.263125],[103.10938,-0.262824],[103.106851,-0.26101],[103.104851,-0.261324],[103.103679,-0.261381],[103.102522,-0.261239],[103.100636,-0.260439],[103.099635,-0.259712],[103.101898,-0.25592],[103.099251,-0.252945],[103.09915,-0.249966],[103.10636,-0.244174],[103.108649,-0.246959],[103.110306,-0.248619],[103.110843,-0.24995],[103.113526,-0.253672],[103.110623,-0.263125]]]}}]}