{"type":"FeatureCollection","features":[{"type":"Feature","properties":{"kdkec":"1403010","nmkec":"KERITANG","kddesa":"1403010004","nmdesa":"NUSANTARA JAYA","idsubsls":"1403010004001300","kdsubsls":"00"},"geometry":{"type":"Polygon","coordinates":[[[102.951065,-0.714942],[102.946095,-0.716153],[102.939369,-0.703172],[102.935999,-0.694826],[102.932819,-0.683061],[102.932485,-0.679881],[102.924759,-0.668132],[102.930512,-0.667012],[102.933815,-0.674601],[102.93438,-0.679298],[102.936751,-0.686144],[102.938854,-0.695763],[102.947847,-0.709699],[102.951065,-0.714942]]]}}]}