{"type":"FeatureCollection","features":[{"type":"Feature","properties":{"kdkec":"1403010","nmkec":"KERITANG","kddesa":"1403010004","nmdesa":"NUSANTARA JAYA","idsubsls":"1403010004000900","kdsubsls":"00"},"geometry":{"type":"Polygon","coordinates":[[[102.95954,-0.707307],[102.959523,-0.707263],[102.959496,-0.707279],[102.95845,-0.70503],[102.957666,-0.702676],[102.957452,-0.702146],[102.957487,-0.702137],[102.954815,-0.694113],[102.950923,-0.685925],[102.946091,-0.67955],[102.943332,-0.668596],[102.949963,-0.666879],[102.956814,-0.688758],[102.960941,-0.701252],[102.960956,-0.701248],[102.962527,-0.70603],[102.96252,-0.706033],[102.962529,-0.706063],[102.962326,-0.706115],[102.95954,-0.707307]]]}}]}