{"type":"FeatureCollection","features":[{"type":"Feature","properties":{"kdkec":"1403010","nmkec":"KERITANG","kddesa":"1403010004","nmdesa":"NUSANTARA JAYA","idsubsls":"1403010004000700","kdsubsls":"00"},"geometry":{"type":"Polygon","coordinates":[[[102.962529,-0.706063],[102.956814,-0.688758],[102.949963,-0.666879],[102.959092,-0.664508],[102.960797,-0.670401],[102.961658,-0.672336],[102.967493,-0.683309],[102.96838,-0.691776],[102.968112,-0.696541],[102.968682,-0.702777],[102.969407,-0.704729],[102.964967,-0.70543],[102.962529,-0.706063]]]}}]}