{"type":"FeatureCollection","features":[{"type":"Feature","properties":{"kdkec":"1403080","nmkec":"BATANG TUAKA","kddesa":"1403080013","nmdesa":"SIMPANG JAYA","idsubsls":"1403080013100100","kdsubsls":"00"},"geometry":{"type":"Polygon","coordinates":[[[103.150531,-0.239013],[103.150973,-0.239094],[103.151226,-0.239449],[103.151826,-0.243473],[103.15257,-0.245132],[103.153093,-0.245816],[103.153089,-0.24651],[103.153803,-0.247263],[103.147931,-0.24984],[103.138891,-0.243086],[103.146008,-0.238156],[103.150531,-0.239013]]]}}]}