{"type":"FeatureCollection","features":[{"type":"Feature","properties":{"kdkec":"1403080","nmkec":"BATANG TUAKA","kddesa":"1403080013","nmdesa":"SIMPANG JAYA","idsubsls":"1403080013000300","kdsubsls":"00"},"geometry":{"type":"Polygon","coordinates":[[[103.154507,-0.248195],[103.154887,-0.248717],[103.155406,-0.248414],[103.15609,-0.24961],[103.154942,-0.250215],[103.154652,-0.249114],[103.154068,-0.249304],[103.154196,-0.249952],[103.149129,-0.252639],[103.147931,-0.24984],[103.153803,-0.247263],[103.154507,-0.248195]]]}}]}