{"type":"FeatureCollection","features":[{"type":"Feature","properties":{"kdkec":"1403090","nmkec":"GAUNG ANAK SERKA","kddesa":"1403090006","nmdesa":"TELUK PANTAIAN","idsubsls":"1403090006001000","kdsubsls":"00"},"geometry":{"type":"Polygon","coordinates":[[[103.334956,-0.164575],[103.334367,-0.16889],[103.331425,-0.183999],[103.327677,-0.183827],[103.328054,-0.167945],[103.328547,-0.167951],[103.329702,-0.165193],[103.32998,-0.164972],[103.330242,-0.16374],[103.332665,-0.164316],[103.334956,-0.164575]]]}}]}