{"type":"FeatureCollection","features":[{"type":"Feature","properties":{"kdkec":"1403070","nmkec":"TEMPULING","kddesa":"1403070010","nmdesa":"SUNGAI SALAK","idsubsls":"1403070010000401","kdsubsls":"01"},"geometry":{"type":"Polygon","coordinates":[[[103.00109,-0.44783],[103.002711,-0.44968],[103.003071,-0.449376],[103.003679,-0.450027],[103.002578,-0.451282],[103.001955,-0.450693],[103.001889,-0.450324],[103.000664,-0.448961],[103.000229,-0.449361],[102.999833,-0.448908],[103.00109,-0.44783]]]}}]}