{"type":"FeatureCollection","features":[{"type":"Feature","properties":{"kdkec":"1403070","nmkec":"TEMPULING","kddesa":"1403070010","nmdesa":"SUNGAI SALAK","idsubsls":"1403070010000600","kdsubsls":"00"},"geometry":{"type":"Polygon","coordinates":[[[102.998676,-0.449865],[102.997265,-0.45097],[102.995755,-0.448852],[102.994425,-0.449849],[102.993934,-0.449267],[102.995571,-0.447973],[102.995305,-0.447636],[102.996204,-0.446975],[102.996868,-0.448084],[102.997279,-0.447788],[102.998676,-0.449865]]]}}]}