{"type":"FeatureCollection","features":[{"type":"Feature","properties":{"kdkec":"1403120","nmkec":"KATEMAN","kddesa":"1403120008","nmdesa":"SUNGAI TERITIP","idsubsls":"1403120008001400","kdsubsls":"00"},"geometry":{"type":"Polygon","coordinates":[[[103.717943,0.289235],[103.720372,0.284395],[103.724878,0.27712],[103.726615,0.27484],[103.729728,0.268423],[103.729746,0.268138],[103.73239,0.264157],[103.733699,0.263721],[103.733535,0.262358],[103.734098,0.26083],[103.721522,0.25639],[103.716784,0.255634],[103.716346,0.262115],[103.710472,0.282932],[103.717943,0.289235]]]}}]}