{"type":"FeatureCollection","features":[{"type":"Feature","properties":{"kdkec":"1403071","nmkec":"KEMPAS","kddesa":"1403071008","nmdesa":"SUNGAI GANTANG","idsubsls":"1403071008000200","kdsubsls":"00"},"geometry":{"type":"Polygon","coordinates":[[[102.893556,-0.556037],[102.897659,-0.570872],[102.895561,-0.572074],[102.891013,-0.560558],[102.885095,-0.542223],[102.879934,-0.527407],[102.88376,-0.525117],[102.886576,-0.524164],[102.887103,-0.524068],[102.887196,-0.53673],[102.887551,-0.538835],[102.88837,-0.540719],[102.891632,-0.54973],[102.893556,-0.556037]]]}}]}