{"type":"FeatureCollection","features":[{"type":"Feature","properties":{"kdkec":"1403071","nmkec":"KEMPAS","kddesa":"1403071008","nmdesa":"SUNGAI GANTANG","idsubsls":"1403071008002300","kdsubsls":"00"},"geometry":{"type":"Polygon","coordinates":[[[102.963217,-0.532055],[102.961635,-0.529669],[102.950547,-0.510653],[102.942557,-0.498997],[102.943693,-0.498103],[102.946131,-0.495524],[102.948321,-0.492088],[102.948796,-0.491049],[102.951097,-0.492959],[102.951418,-0.49552],[102.951204,-0.501494],[102.962702,-0.521571],[102.965485,-0.525603],[102.971635,-0.535581],[102.96696,-0.538025],[102.963217,-0.532055]]]}}]}