{"type":"FeatureCollection","features":[{"type":"Feature","properties":{"kdkec":"1403071","nmkec":"KEMPAS","kddesa":"1403071008","nmdesa":"SUNGAI GANTANG","idsubsls":"1403071008000600","kdsubsls":"00"},"geometry":{"type":"Polygon","coordinates":[[[102.91964,-0.55828],[102.914932,-0.560978],[102.903608,-0.531478],[102.901572,-0.52448],[102.902703,-0.524212],[102.902964,-0.524299],[102.903917,-0.523894],[102.904944,-0.52372],[102.906545,-0.522931],[102.908687,-0.528276],[102.913638,-0.542337],[102.91964,-0.55828]]]}}]}