{"type":"FeatureCollection","features":[{"type":"Feature","properties":{"kdkec":"1403071","nmkec":"KEMPAS","kddesa":"1403071008","nmdesa":"SUNGAI GANTANG","idsubsls":"1403071008002400","kdsubsls":"00"},"geometry":{"type":"Polygon","coordinates":[[[102.893851,-0.525268],[102.903397,-0.548904],[102.897193,-0.551373],[102.896084,-0.54164],[102.896151,-0.541191],[102.895611,-0.535457],[102.895621,-0.531591],[102.895144,-0.530153],[102.894622,-0.529634],[102.894768,-0.529216],[102.894543,-0.528619],[102.893944,-0.528016],[102.893788,-0.527452],[102.893157,-0.526531],[102.892904,-0.525392],[102.893851,-0.525268]]]}}]}