{"type":"FeatureCollection","features":[{"type":"Feature","properties":{"kdkec":"1403071","nmkec":"KEMPAS","kddesa":"1403071008","nmdesa":"SUNGAI GANTANG","idsubsls":"1403071008000902","kdsubsls":"02"},"geometry":{"type":"Polygon","coordinates":[[[102.919163,-0.522234],[102.923172,-0.52014],[102.923514,-0.520754],[102.923141,-0.520902],[102.923472,-0.521628],[102.921564,-0.522297],[102.921991,-0.524714],[102.924649,-0.52434],[102.924785,-0.525571],[102.930887,-0.551838],[102.927281,-0.553904],[102.921087,-0.53749],[102.919619,-0.523274],[102.919413,-0.522127],[102.919163,-0.522234]]]}}]}