{"type":"FeatureCollection","features":[{"type":"Feature","properties":{"kdkec":"1403050","nmkec":"KUALA INDRAGIRI","kddesa":"1403050011","nmdesa":"SUNGAI PIYAI","idsubsls":"1403050011000700","kdsubsls":"00"},"geometry":{"type":"Polygon","coordinates":[[[103.326924,-0.268954],[103.325464,-0.268688],[103.318968,-0.2683],[103.317369,-0.26738],[103.314058,-0.267035],[103.312678,-0.26654],[103.308016,-0.253028],[103.309753,-0.253274],[103.328414,-0.253367],[103.332857,-0.25295],[103.326924,-0.268954]]]}}]}