{"type":"FeatureCollection","features":[{"type":"Feature","properties":{"kdkec":"1403080","nmkec":"BATANG TUAKA","kddesa":"1403080001","nmdesa":"KUALA SEBATU","idsubsls":"1403080001002700","kdsubsls":"00"},"geometry":{"type":"Polygon","coordinates":[[[102.966994,-0.376985],[102.956987,-0.378295],[102.954298,-0.373889],[102.963485,-0.373235],[102.972116,-0.371778],[102.986815,-0.370541],[102.995544,-0.369483],[103.006171,-0.367506],[103.00745,-0.372719],[102.996355,-0.375112],[102.98399,-0.375687],[102.975214,-0.375908],[102.966994,-0.376985]]]}}]}