{"type":"FeatureCollection","features":[{"type":"Feature","properties":{"kdkec":"1403080","nmkec":"BATANG TUAKA","kddesa":"1403080001","nmdesa":"KUALA SEBATU","idsubsls":"1403080001003100","kdsubsls":"00"},"geometry":{"type":"Polygon","coordinates":[[[102.962648,-0.389559],[102.96239,-0.387166],[102.962122,-0.386735],[102.973859,-0.386686],[102.985164,-0.387145],[102.993663,-0.389844],[102.998326,-0.392238],[102.99429,-0.394169],[102.992305,-0.395522],[102.990104,-0.393086],[102.98834,-0.392001],[102.973433,-0.389875],[102.967791,-0.389331],[102.962648,-0.389559]]]}}]}