{"type":"FeatureCollection","features":[{"type":"Feature","properties":{"kdkec":"1403080","nmkec":"BATANG TUAKA","kddesa":"1403080001","nmdesa":"KUALA SEBATU","idsubsls":"1403080001001300","kdsubsls":"00"},"geometry":{"type":"Polygon","coordinates":[[[103.016939,-0.320372],[103.025509,-0.318305],[103.026515,-0.319324],[103.027875,-0.320348],[103.019088,-0.322809],[103.017407,-0.323453],[103.008397,-0.325746],[103.004926,-0.326832],[103.002325,-0.327952],[102.998552,-0.323159],[103.016939,-0.320372]]]}}]}