{"type":"FeatureCollection","features":[{"type":"Feature","properties":{"kdkec":"1403080","nmkec":"BATANG TUAKA","kddesa":"1403080001","nmdesa":"KUALA SEBATU","idsubsls":"1403080001001400","kdsubsls":"00"},"geometry":{"type":"Polygon","coordinates":[[[103.017618,-0.323692],[103.017407,-0.323453],[103.019088,-0.322809],[103.027875,-0.320348],[103.028529,-0.321125],[103.029095,-0.322677],[103.029389,-0.325152],[103.029745,-0.329766],[103.029347,-0.332493],[103.029389,-0.333416],[103.031004,-0.33587],[103.031339,-0.337516],[103.030448,-0.336971],[103.028875,-0.337201],[103.021106,-0.327669],[103.017618,-0.323692]]]}}]}