{"type":"FeatureCollection","features":[{"type":"Feature","properties":{"kdkec":"1403080","nmkec":"BATANG TUAKA","kddesa":"1403080001","nmdesa":"KUALA SEBATU","idsubsls":"1403080001000800","kdsubsls":"00"},"geometry":{"type":"Polygon","coordinates":[[[103.029342,-0.315458],[103.029198,-0.311577],[103.029319,-0.305478],[103.030578,-0.275407],[103.034436,-0.275051],[103.035943,-0.27785],[103.035774,-0.309984],[103.036547,-0.337641],[103.03522,-0.337786],[103.031339,-0.337516],[103.031004,-0.33587],[103.029389,-0.333416],[103.029347,-0.332493],[103.029745,-0.329766],[103.029095,-0.322677],[103.029342,-0.315458]]]}}]}