{"type":"FeatureCollection","features":[{"type":"Feature","properties":{"kdkec":"1403080","nmkec":"BATANG TUAKA","kddesa":"1403080001","nmdesa":"KUALA SEBATU","idsubsls":"1403080001003000","kdsubsls":"00"},"geometry":{"type":"Polygon","coordinates":[[[103.002505,-0.389574],[103.001651,-0.390648],[102.998326,-0.392238],[102.993663,-0.389844],[102.985164,-0.387145],[102.973859,-0.386686],[102.962122,-0.386735],[102.960463,-0.384006],[102.982231,-0.383867],[102.988129,-0.384481],[103.005309,-0.385221],[103.002505,-0.389574]]]}}]}