{"type":"FeatureCollection","features":[{"type":"Feature","properties":{"kdkec":"1403021","nmkec":"SUNGAI BATANG","kddesa":"1403021004","nmdesa":"BENTENG","idsubsls":"1403021004001700","kdsubsls":"00"},"geometry":{"type":"Polygon","coordinates":[[[103.225219,-0.646418],[103.225221,-0.65964],[103.220326,-0.659629],[103.219073,-0.653275],[103.218806,-0.639847],[103.218649,-0.638805],[103.220396,-0.638593],[103.222817,-0.637835],[103.224474,-0.637013],[103.227644,-0.634886],[103.226552,-0.637634],[103.225219,-0.646418]]]}}]}