{"type":"FeatureCollection","features":[{"type":"Feature","properties":{"kdkec":"1403021","nmkec":"SUNGAI BATANG","kddesa":"1403021004","nmdesa":"BENTENG","idsubsls":"1403021004001900","kdsubsls":"00"},"geometry":{"type":"Polygon","coordinates":[[[103.220326,-0.659629],[103.21428,-0.659748],[103.213896,-0.650662],[103.212751,-0.640284],[103.212113,-0.639132],[103.214446,-0.639112],[103.215605,-0.639377],[103.216499,-0.639101],[103.218166,-0.639012],[103.218649,-0.638805],[103.218806,-0.639847],[103.219073,-0.653275],[103.220326,-0.659629]]]}}]}