{"type":"FeatureCollection","features":[{"type":"Feature","properties":{"kdkec":"1403071","nmkec":"KEMPAS","kddesa":"1403071011","nmdesa":"KULIM JAYA","idsubsls":"1403071011000800","kdsubsls":"00"},"geometry":{"type":"Polygon","coordinates":[[[102.772069,-0.558407],[102.769596,-0.562795],[102.76626,-0.569986],[102.760103,-0.567458],[102.762734,-0.566392],[102.763352,-0.565822],[102.764602,-0.564122],[102.765689,-0.562101],[102.765905,-0.561416],[102.763811,-0.560864],[102.764022,-0.558192],[102.766079,-0.558162],[102.76596,-0.557007],[102.767993,-0.556861],[102.772069,-0.558407]]]}}]}