{"type":"FeatureCollection","features":[{"type":"Feature","properties":{"kdkec":"1403090","nmkec":"GAUNG ANAK SERKA","kddesa":"1403090012","nmdesa":"TANJUNG HARAPAN","idsubsls":"1403090012100100","kdsubsls":"00"},"geometry":{"type":"Polygon","coordinates":[[[103.374108,-0.141431],[103.388507,-0.152044],[103.399701,-0.158433],[103.392037,-0.167386],[103.38945,-0.169373],[103.388223,-0.169694],[103.386054,-0.169962],[103.381209,-0.169234],[103.378499,-0.169811],[103.374999,-0.172107],[103.371881,-0.174684],[103.371966,-0.164044],[103.367711,-0.164017],[103.367722,-0.174958],[103.363324,-0.174979],[103.363111,-0.147535],[103.360306,-0.147488],[103.360375,-0.170563],[103.357676,-0.170485],[103.3576,-0.174926],[103.35648,-0.174894],[103.356388,-0.180485],[103.354245,-0.180076],[103.353014,-0.179193],[103.350763,-0.173847],[103.349203,-0.170561],[103.350369,-0.169833],[103.350924,-0.1678],[103.350949,-0.165343],[103.352264,-0.149567],[103.352293,-0.135805],[103.359446,-0.136045],[103.365087,-0.13463],[103.369306,-0.135429],[103.374108,-0.141431]],[[103.354237,-0.164745],[103.354745,-0.159462],[103.353081,-0.159352],[103.352677,-0.164616],[103.354237,-0.164745]]]}}]}