{"type":"FeatureCollection","features":[{"type":"Feature","properties":{"kdkec":"1403120","nmkec":"KATEMAN","kddesa":"1403120007","nmdesa":"TANJUNG RAJA","idsubsls":"1403120007000400","kdsubsls":"00"},"geometry":{"type":"Polygon","coordinates":[[[103.596467,0.291853],[103.597686,0.292079],[103.597449,0.293166],[103.596773,0.293055],[103.596651,0.29366],[103.598522,0.293947],[103.601794,0.293947],[103.60353,0.294219],[103.604324,0.291876],[103.596632,0.289231],[103.596237,0.291065],[103.596608,0.291132],[103.596467,0.291853]]]}}]}