{"type":"FeatureCollection","features":[{"type":"Feature","properties":{"kdkec":"1403123","nmkec":"PULAU BURUNG","kddesa":"1403123007","nmdesa":"TELUK NIBUNG","idsubsls":"1403123007000800","kdsubsls":"00"},"geometry":{"type":"Polygon","coordinates":[[[103.502107,0.452098],[103.494284,0.444313],[103.492494,0.442914],[103.491402,0.444337],[103.490252,0.447068],[103.48881,0.449564],[103.488392,0.450216],[103.488207,0.449957],[103.487992,0.45011],[103.48756,0.451313],[103.486276,0.453846],[103.487323,0.454636],[103.491302,0.458821],[103.502107,0.452098]]]}}]}