{"type":"FeatureCollection","features":[{"type":"Feature","properties":{"kdkec":"1403123","nmkec":"PULAU BURUNG","kddesa":"1403123007","nmdesa":"TELUK NIBUNG","idsubsls":"1403123007001400","kdsubsls":"00"},"geometry":{"type":"Polygon","coordinates":[[[103.491302,0.458821],[103.487323,0.454636],[103.486276,0.453846],[103.483941,0.45113],[103.482082,0.45298],[103.481164,0.453361],[103.481756,0.454021],[103.4725,0.45775],[103.480649,0.468163],[103.482345,0.467315],[103.484055,0.465106],[103.487902,0.461972],[103.489398,0.459692],[103.491302,0.458821]]]}}]}