{"type":"FeatureCollection","features":[{"type":"Feature","properties":{"kdkec":"1403123","nmkec":"PULAU BURUNG","kddesa":"1403123009","nmdesa":"SRI DANAI","idsubsls":"1403123009100100","kdsubsls":"00"},"geometry":{"type":"Polygon","coordinates":[[[103.372659,0.393408],[103.362848,0.402029],[103.344528,0.417562],[103.373735,0.44695],[103.392551,0.430268],[103.399455,0.42385],[103.372659,0.393408]],[[103.363699,0.423103],[103.360212,0.426016],[103.354929,0.420101],[103.358433,0.417061],[103.363699,0.423103]]]}}]}