{"type":"FeatureCollection","features":[{"type":"Feature","properties":{"kdkec":"1403090","nmkec":"GAUNG ANAK SERKA","kddesa":"1403090011","nmdesa":"HARAPAN MAKMUR","idsubsls":"1403090011000100","kdsubsls":"00"},"geometry":{"type":"Polygon","coordinates":[[[103.224998,-0.148181],[103.224912,-0.150566],[103.222569,-0.151156],[103.22263,-0.151912],[103.220908,-0.15198],[103.220675,-0.149249],[103.221027,-0.149234],[103.220995,-0.149003],[103.221478,-0.149001],[103.221707,-0.149494],[103.223288,-0.149375],[103.224998,-0.148181]]]}}]}