{"type":"FeatureCollection","features":[{"type":"Feature","properties":{"kdkec":"1403011","nmkec":"KEMUNING","kddesa":"1403011006","nmdesa":"KEMUNING MUDA","idsubsls":"1403011006000900","kdsubsls":"00"},"geometry":{"type":"Polygon","coordinates":[[[102.808033,-0.905314],[102.81805,-0.914141],[102.826708,-0.921284],[102.828618,-0.919301],[102.832104,-0.922529],[102.834574,-0.926237],[102.837136,-0.929337],[102.841237,-0.933735],[102.845864,-0.943752],[102.838611,-0.949288],[102.832101,-0.935673],[102.824694,-0.927339],[102.80548,-0.907851],[102.808033,-0.905314]]]}}]}