{"type":"FeatureCollection","features":[{"type":"Feature","properties":{"kdkec":"1403123","nmkec":"PULAU BURUNG","kddesa":"1403123004","nmdesa":"MAYANG SARI JAYA","idsubsls":"1403123004100100","kdsubsls":"00"},"geometry":{"type":"Polygon","coordinates":[[[103.436331,0.368821],[103.435276,0.359704],[103.426655,0.351867],[103.401343,0.333397],[103.381124,0.331471],[103.36248,0.347723],[103.371257,0.357312],[103.374914,0.354212],[103.374167,0.353462],[103.380955,0.347693],[103.382914,0.349957],[103.386194,0.346962],[103.388246,0.349269],[103.391661,0.346166],[103.394799,0.349812],[103.391418,0.352836],[103.39324,0.354885],[103.396589,0.351846],[103.397062,0.352391],[103.40054,0.34934],[103.405454,0.355011],[103.401594,0.357539],[103.400503,0.356322],[103.399291,0.357347],[103.396454,0.353998],[103.394185,0.355947],[103.39982,0.362346],[103.393206,0.361712],[103.426557,0.399939],[103.438075,0.389967],[103.436331,0.368821]],[[103.422702,0.350573],[103.418829,0.353977],[103.417798,0.352725],[103.421901,0.349046],[103.422702,0.350573]],[[103.425627,0.371469],[103.424573,0.370313],[103.424268,0.370575],[103.424076,0.370243],[103.425654,0.368993],[103.42689,0.370491],[103.425627,0.371469]]]}}]}