{"type":"FeatureCollection","features":[{"type":"Feature","properties":{"kdkec":"1403070","nmkec":"TEMPULING","kddesa":"1403070009","nmdesa":"TEMPULING","idsubsls":"1403070009000300","kdsubsls":"00"},"geometry":{"type":"Polygon","coordinates":[[[103.021663,-0.432806],[103.016768,-0.435487],[103.016393,-0.434792],[103.014911,-0.435719],[103.013895,-0.434282],[103.007671,-0.423434],[103.006639,-0.424026],[103.003126,-0.417659],[103.008199,-0.414957],[103.012494,-0.422458],[103.018297,-0.431578],[103.02063,-0.430839],[103.021663,-0.432806]]]}}]}