{"type":"FeatureCollection","features":[{"type":"Feature","properties":{"kdkec":"1403070","nmkec":"TEMPULING","kddesa":"1403070009","nmdesa":"TEMPULING","idsubsls":"1403070009000700","kdsubsls":"00"},"geometry":{"type":"Polygon","coordinates":[[[103.003126,-0.417659],[103.001812,-0.418355],[102.991851,-0.401307],[102.993627,-0.400314],[102.993231,-0.394891],[102.995788,-0.39339],[102.996529,-0.396056],[102.99746,-0.398088],[103.001904,-0.405135],[103.003969,-0.40757],[103.008199,-0.414957],[103.003126,-0.417659]]]}}]}