{"type":"FeatureCollection","features":[{"type":"Feature","properties":{"kdkec":"1403060","nmkec":"TEMBILAHAN","kddesa":"1403060002","nmdesa":"SUNGAI PERAK","idsubsls":"1403060002001700","kdsubsls":"00"},"geometry":{"type":"Polygon","coordinates":[[[103.20235,-0.316252],[103.199649,-0.317873],[103.198716,-0.319321],[103.199305,-0.321875],[103.199305,-0.32271],[103.199594,-0.323504],[103.199384,-0.325586],[103.1965,-0.327529],[103.195367,-0.328617],[103.194211,-0.329287],[103.19251,-0.327112],[103.187341,-0.330709],[103.182325,-0.323409],[103.194012,-0.316582],[103.207969,-0.311148],[103.205713,-0.313685],[103.20235,-0.316252]]]}}]}