{"type":"FeatureCollection","features":[{"type":"Feature","properties":{"kdkec":"1403060","nmkec":"TEMBILAHAN","kddesa":"1403060002","nmdesa":"SUNGAI PERAK","idsubsls":"1403060002001600","kdsubsls":"00"},"geometry":{"type":"Polygon","coordinates":[[[103.195367,-0.328617],[103.195089,-0.332504],[103.195631,-0.334291],[103.195656,-0.33706],[103.195031,-0.34055],[103.195018,-0.343027],[103.194514,-0.345465],[103.193878,-0.347516],[103.194495,-0.351729],[103.196245,-0.355945],[103.201942,-0.377845],[103.194957,-0.369057],[103.194086,-0.360811],[103.188735,-0.348105],[103.186335,-0.343343],[103.193293,-0.340095],[103.187341,-0.330709],[103.19251,-0.327112],[103.194211,-0.329287],[103.195367,-0.328617]]]}}]}