{"type":"FeatureCollection","features":[{"type":"Feature","properties":{"kdkec":"1403060","nmkec":"TEMBILAHAN","kddesa":"1403060002","nmdesa":"SUNGAI PERAK","idsubsls":"1403060002100200","kdsubsls":"00"},"geometry":{"type":"Polygon","coordinates":[[[103.202923,-0.319235],[103.203431,-0.321877],[103.204644,-0.323655],[103.204745,-0.324445],[103.205264,-0.33395],[103.205329,-0.348257],[103.206403,-0.37778],[103.20802,-0.385492],[103.204929,-0.381603],[103.202829,-0.361449],[103.202779,-0.354586],[103.201739,-0.34568],[103.201218,-0.333639],[103.201057,-0.323452],[103.199594,-0.323504],[103.199305,-0.32271],[103.199305,-0.321875],[103.198716,-0.319321],[103.199649,-0.317873],[103.20235,-0.316252],[103.202923,-0.319235]]]}}]}