{"type":"FeatureCollection","features":[{"type":"Feature","properties":{"kdkec":"1403060","nmkec":"TEMBILAHAN","kddesa":"1403060002","nmdesa":"SUNGAI PERAK","idsubsls":"1403060002000900","kdsubsls":"00"},"geometry":{"type":"Polygon","coordinates":[[[103.21352,-0.314135],[103.213221,-0.313338],[103.212697,-0.313417],[103.211958,-0.311493],[103.211782,-0.311519],[103.211174,-0.310259],[103.213695,-0.309687],[103.214111,-0.311767],[103.216081,-0.311246],[103.21654,-0.313854],[103.21352,-0.314135]]]}}]}