{"type":"FeatureCollection","features":[{"type":"Feature","properties":{"kdkec":"1403060","nmkec":"TEMBILAHAN","kddesa":"1403060002","nmdesa":"SUNGAI PERAK","idsubsls":"1403060002001200","kdsubsls":"00"},"geometry":{"type":"Polygon","coordinates":[[[103.215713,-0.319638],[103.21451,-0.31982],[103.212708,-0.319538],[103.210872,-0.319731],[103.21086,-0.318046],[103.213557,-0.318074],[103.213748,-0.316937],[103.212588,-0.314385],[103.21352,-0.314135],[103.21654,-0.313854],[103.217504,-0.319452],[103.215713,-0.319638]]]}}]}