{"type":"FeatureCollection","features":[{"type":"Feature","properties":{"kdkec":"1403020","nmkec":"RETEH","kddesa":"1403020003","nmdesa":"PULAU KIJANG","idsubsls":"1403020003001300","kdsubsls":"00"},"geometry":{"type":"Polygon","coordinates":[[[103.209471,-0.693559],[103.209433,-0.693381],[103.209686,-0.693344],[103.20926,-0.692434],[103.210161,-0.692185],[103.210909,-0.694687],[103.210242,-0.694823],[103.210191,-0.694602],[103.208674,-0.694862],[103.208573,-0.694047],[103.208799,-0.694022],[103.208761,-0.693664],[103.209471,-0.693559]]]}}]}