{"type":"FeatureCollection","features":[{"type":"Feature","properties":{"kdkec":"1403020","nmkec":"RETEH","kddesa":"1403020003","nmdesa":"PULAU KIJANG","idsubsls":"1403020003003400","kdsubsls":"00"},"geometry":{"type":"Polygon","coordinates":[[[103.201056,-0.691567],[103.201105,-0.692493],[103.200756,-0.692484],[103.200748,-0.692692],[103.200192,-0.692698],[103.200241,-0.691187],[103.201053,-0.691039],[103.20107,-0.691301],[103.200771,-0.691348],[103.200774,-0.691584],[103.201056,-0.691567]]]}}]}