{"type":"FeatureCollection","features":[{"type":"Feature","properties":{"kdkec":"1403011","nmkec":"KEMUNING","kddesa":"1403011003","nmdesa":"KERITANG","idsubsls":"1403011003001400","kdsubsls":"00"},"geometry":{"type":"Polygon","coordinates":[[[102.646941,-0.862977],[102.647518,-0.862173],[102.648814,-0.862601],[102.6488,-0.863308],[102.65102,-0.864236],[102.650938,-0.865074],[102.650203,-0.867007],[102.650997,-0.868762],[102.648458,-0.870184],[102.647188,-0.86523],[102.647011,-0.864609],[102.646882,-0.86463],[102.646941,-0.862977]]]}}]}