{"type":"FeatureCollection","features":[{"type":"Feature","properties":{"kdkec":"1403011","nmkec":"KEMUNING","kddesa":"1403011003","nmdesa":"KERITANG","idsubsls":"1403011003001200","kdsubsls":"00"},"geometry":{"type":"Polygon","coordinates":[[[102.630395,-0.873482],[102.633944,-0.878311],[102.628246,-0.881501],[102.62987,-0.884521],[102.628313,-0.886233],[102.627494,-0.887586],[102.627414,-0.888029],[102.626848,-0.888306],[102.626571,-0.888694],[102.626257,-0.889919],[102.625931,-0.890331],[102.625063,-0.890928],[102.62414,-0.891876],[102.622041,-0.89198],[102.621684,-0.892128],[102.621191,-0.892676],[102.621604,-0.893876],[102.620804,-0.894732],[102.620191,-0.895047],[102.619468,-0.895102],[102.618237,-0.896509],[102.617677,-0.897546],[102.617345,-0.897755],[102.616545,-0.897755],[102.614575,-0.899214],[102.61327,-0.898924],[102.610488,-0.90077],[102.608359,-0.901553],[102.608002,-0.902906],[102.607166,-0.903528],[102.605088,-0.903975],[102.604331,-0.904285],[102.603719,-0.905237],[102.60318,-0.905544],[102.602712,-0.905707],[102.601509,-0.905718],[102.601131,-0.906194],[102.600626,-0.907689],[102.599975,-0.908126],[102.598576,-0.909564],[102.598071,-0.910457],[102.597411,-0.911195],[102.596809,-0.911409],[102.596168,-0.911137],[102.595313,-0.910263],[102.593196,-0.909447],[102.591312,-0.910554],[102.591234,-0.911079],[102.591487,-0.912011],[102.59139,-0.912807],[102.590807,-0.913273],[102.588554,-0.912885],[102.587699,-0.912652],[102.587078,-0.912263],[102.586806,-0.911564],[102.586767,-0.909661],[102.585796,-0.908068],[102.585951,-0.907408],[102.586767,-0.906281],[102.586379,-0.905388],[102.584359,-0.904106],[102.58498,-0.90228],[102.593149,-0.894399],[102.619285,-0.8711],[102.618908,-0.870735],[102.61858,-0.870091],[102.618095,-0.867847],[102.620414,-0.868009],[102.622908,-0.868895],[102.626257,-0.870618],[102.630395,-0.873482]]]}}]}