{"type":"FeatureCollection","features":[{"type":"Feature","properties":{"kdkec":"1403011","nmkec":"KEMUNING","kddesa":"1403011003","nmdesa":"KERITANG","idsubsls":"1403011003001600","kdsubsls":"00"},"geometry":{"type":"Polygon","coordinates":[[[102.653422,-0.845322],[102.64987,-0.856889],[102.649912,-0.861173],[102.648814,-0.862601],[102.64768,-0.862257],[102.644216,-0.860469],[102.642759,-0.86044],[102.648523,-0.848992],[102.647702,-0.848604],[102.648368,-0.847237],[102.649155,-0.847569],[102.651334,-0.84353],[102.653422,-0.845322]]]}}]}