{"type":"FeatureCollection","features":[{"type":"Feature","properties":{"kdkec":"1403011","nmkec":"KEMUNING","kddesa":"1403011003","nmdesa":"KERITANG","idsubsls":"1403011003002200","kdsubsls":"00"},"geometry":{"type":"Polygon","coordinates":[[[102.682626,-0.912794],[102.681727,-0.913562],[102.681607,-0.913425],[102.678004,-0.915281],[102.642698,-0.935681],[102.637559,-0.929297],[102.663769,-0.910149],[102.666422,-0.908356],[102.669584,-0.909553],[102.671205,-0.909652],[102.674775,-0.909746],[102.677136,-0.909061],[102.678604,-0.90917],[102.678936,-0.908952],[102.67968,-0.909594],[102.679559,-0.909948],[102.681443,-0.909941],[102.681382,-0.911247],[102.682626,-0.912794]]]}}]}