{"type":"FeatureCollection","features":[{"type":"Feature","properties":{"kdkec":"1403011","nmkec":"KEMUNING","kddesa":"1403011003","nmdesa":"KERITANG","idsubsls":"1403011003002300","kdsubsls":"00"},"geometry":{"type":"Polygon","coordinates":[[[102.657266,-0.877606],[102.657217,-0.876994],[102.677693,-0.859861],[102.68694,-0.860231],[102.666043,-0.878552],[102.662904,-0.882659],[102.661745,-0.881543],[102.660422,-0.880839],[102.65997,-0.880347],[102.658791,-0.879553],[102.658126,-0.878913],[102.657266,-0.877606]]]}}]}