{"type":"FeatureCollection","features":[{"type":"Feature","properties":{"kdkec":"1403011","nmkec":"KEMUNING","kddesa":"1403011003","nmdesa":"KERITANG","idsubsls":"1403011003001900","kdsubsls":"00"},"geometry":{"type":"Polygon","coordinates":[[[102.648814,-0.862601],[102.649912,-0.861173],[102.64987,-0.856889],[102.65351,-0.860033],[102.654642,-0.861535],[102.652866,-0.862865],[102.653104,-0.863166],[102.652747,-0.863365],[102.653142,-0.864659],[102.652997,-0.865048],[102.650476,-0.86761],[102.650203,-0.867007],[102.650938,-0.865074],[102.65102,-0.864236],[102.6488,-0.863308],[102.648814,-0.862601]]]}}]}