{"type":"FeatureCollection","features":[{"type":"Feature","properties":{"kdkec":"1403011","nmkec":"KEMUNING","kddesa":"1403011003","nmdesa":"KERITANG","idsubsls":"1403011003000500","kdsubsls":"00"},"geometry":{"type":"Polygon","coordinates":[[[102.630802,-0.826146],[102.618302,-0.842473],[102.617607,-0.844955],[102.617064,-0.845905],[102.614914,-0.845803],[102.613778,-0.845558],[102.613061,-0.845248],[102.611688,-0.843944],[102.610492,-0.843687],[102.609681,-0.843235],[102.609372,-0.842862],[102.62589,-0.827162],[102.628266,-0.824216],[102.630802,-0.826146]]]}}]}