{"type":"FeatureCollection","features":[{"type":"Feature","properties":{"kdkec":"1403011","nmkec":"KEMUNING","kddesa":"1403011003","nmdesa":"KERITANG","idsubsls":"1403011003005000","kdsubsls":"00"},"geometry":{"type":"Polygon","coordinates":[[[102.687111,-0.804287],[102.679885,-0.808061],[102.668167,-0.793225],[102.670785,-0.790915],[102.673817,-0.78389],[102.676057,-0.782881],[102.676767,-0.78283],[102.678928,-0.783397],[102.681679,-0.783799],[102.682803,-0.784277],[102.6835,-0.784958],[102.684633,-0.785494],[102.686104,-0.785854],[102.688589,-0.786825],[102.689401,-0.787821],[102.692273,-0.790367],[102.695532,-0.794992],[102.696614,-0.795738],[102.69815,-0.796483],[102.693889,-0.798971],[102.687111,-0.804287]]]}}]}