{"type":"FeatureCollection","features":[{"type":"Feature","properties":{"kdkec":"1403011","nmkec":"KEMUNING","kddesa":"1403011003","nmdesa":"KERITANG","idsubsls":"1403011003002400","kdsubsls":"00"},"geometry":{"type":"Polygon","coordinates":[[[102.60856,-0.913245],[102.657266,-0.877606],[102.658126,-0.878913],[102.658791,-0.879553],[102.65997,-0.880347],[102.660422,-0.880839],[102.661745,-0.881543],[102.663551,-0.883283],[102.659022,-0.887743],[102.655478,-0.885424],[102.612007,-0.91746],[102.60856,-0.913245]]]}}]}