{"type":"FeatureCollection","features":[{"type":"Feature","properties":{"kdkec":"1403011","nmkec":"KEMUNING","kddesa":"1403011003","nmdesa":"KERITANG","idsubsls":"1403011003000800","kdsubsls":"00"},"geometry":{"type":"Polygon","coordinates":[[[102.643251,-0.836543],[102.638343,-0.842761],[102.635034,-0.843828],[102.630482,-0.851725],[102.629253,-0.852829],[102.626893,-0.855369],[102.624857,-0.853268],[102.626746,-0.849073],[102.626912,-0.848746],[102.627364,-0.848911],[102.627713,-0.847929],[102.629202,-0.848376],[102.629144,-0.848711],[102.629615,-0.849022],[102.638404,-0.832252],[102.643251,-0.836543]]]}}]}