{"type":"FeatureCollection","features":[{"type":"Feature","properties":{"kdkec":"1403011","nmkec":"KEMUNING","kddesa":"1403011003","nmdesa":"KERITANG","idsubsls":"1403011003003200","kdsubsls":"00"},"geometry":{"type":"Polygon","coordinates":[[[102.666422,-0.908356],[102.678156,-0.900357],[102.678419,-0.897941],[102.703381,-0.878839],[102.710405,-0.885725],[102.682626,-0.912794],[102.681382,-0.911247],[102.681443,-0.909941],[102.679559,-0.909948],[102.67968,-0.909594],[102.678936,-0.908952],[102.678604,-0.90917],[102.677136,-0.909061],[102.674775,-0.909746],[102.671205,-0.909652],[102.669584,-0.909553],[102.666422,-0.908356]]]}}]}