{"type":"FeatureCollection","features":[{"type":"Feature","properties":{"kdkec":"1403011","nmkec":"KEMUNING","kddesa":"1403011003","nmdesa":"KERITANG","idsubsls":"1403011003004500","kdsubsls":"00"},"geometry":{"type":"Polygon","coordinates":[[[102.678546,-0.819237],[102.677764,-0.821596],[102.673594,-0.827994],[102.671469,-0.8294],[102.666404,-0.829609],[102.664205,-0.83138],[102.662611,-0.831651],[102.660225,-0.833319],[102.657776,-0.833725],[102.656734,-0.834725],[102.654337,-0.836372],[102.647136,-0.839925],[102.634955,-0.829309],[102.679885,-0.808061],[102.678546,-0.819237]]]}}]}