{"type":"FeatureCollection","features":[{"type":"Feature","properties":{"kdkec":"1403011","nmkec":"KEMUNING","kddesa":"1403011003","nmdesa":"KERITANG","idsubsls":"1403011003002500","kdsubsls":"00"},"geometry":{"type":"Polygon","coordinates":[[[102.659022,-0.887743],[102.663334,-0.88358],[102.663551,-0.883283],[102.662904,-0.882659],[102.666043,-0.878552],[102.68694,-0.860231],[102.692076,-0.860466],[102.668992,-0.879794],[102.665828,-0.884774],[102.66631,-0.88528],[102.665902,-0.887045],[102.665675,-0.887365],[102.664149,-0.886256],[102.661551,-0.890014],[102.659022,-0.887743]]]}}]}