{"type":"FeatureCollection","features":[{"type":"Feature","properties":{"kdkec":"1403040","nmkec":"TANAH MERAH","kddesa":"1403040007","nmdesa":"TANJUNG BARU","idsubsls":"1403040007000800","kdsubsls":"00"},"geometry":{"type":"Polygon","coordinates":[[[103.322855,-0.431869],[103.323605,-0.432082],[103.323539,-0.432389],[103.32392,-0.432498],[103.323684,-0.433509],[103.324115,-0.433593],[103.323602,-0.434857],[103.322721,-0.43459],[103.322466,-0.435142],[103.321907,-0.434812],[103.322316,-0.434198],[103.322163,-0.43337],[103.322393,-0.433131],[103.322574,-0.431774],[103.322855,-0.431869]]]}}]}