{"type":"FeatureCollection","features":[{"type":"Feature","properties":{"kdkec":"1403040","nmkec":"TANAH MERAH","kddesa":"1403040007","nmdesa":"TANJUNG BARU","idsubsls":"1403040007001000","kdsubsls":"00"},"geometry":{"type":"Polygon","coordinates":[[[103.321194,-0.4325],[103.32069,-0.432525],[103.320387,-0.429863],[103.32022,-0.426324],[103.319437,-0.424427],[103.316875,-0.423086],[103.315421,-0.422753],[103.314294,-0.420878],[103.31316,-0.418184],[103.313093,-0.413848],[103.311086,-0.413775],[103.309925,-0.412801],[103.309058,-0.410133],[103.307077,-0.410659],[103.306749,-0.407847],[103.32826,-0.402075],[103.331794,-0.403194],[103.33289,-0.404861],[103.333347,-0.407214],[103.332867,-0.411805],[103.326592,-0.430382],[103.326674,-0.430127],[103.325827,-0.429786],[103.325352,-0.4315],[103.321067,-0.430566],[103.321194,-0.4325]]]}}]}