{"type":"FeatureCollection","features":[{"type":"Feature","properties":{"kdkec":"1403080","nmkec":"BATANG TUAKA","kddesa":"1403080011","nmdesa":"TASIK RAYA","idsubsls":"1403080011001000","kdsubsls":"00"},"geometry":{"type":"Polygon","coordinates":[[[103.236538,-0.202092],[103.248747,-0.185062],[103.249301,-0.193403],[103.250435,-0.19333],[103.241527,-0.207324],[103.240826,-0.206618],[103.239944,-0.206412],[103.239531,-0.205444],[103.2392,-0.205078],[103.238757,-0.204777],[103.238138,-0.204734],[103.237699,-0.204304],[103.237497,-0.203835],[103.236228,-0.202523],[103.236538,-0.202092]]]}}]}