{"type":"FeatureCollection","features":[{"type":"Feature","properties":{"kdkec":"1403080","nmkec":"BATANG TUAKA","kddesa":"1403080011","nmdesa":"TASIK RAYA","idsubsls":"1403080011000300","kdsubsls":"00"},"geometry":{"type":"Polygon","coordinates":[[[103.224445,-0.193053],[103.224076,-0.193446],[103.224386,-0.193913],[103.224226,-0.194062],[103.223271,-0.193078],[103.22364,-0.192381],[103.223643,-0.190931],[103.223286,-0.190926],[103.223317,-0.185546],[103.224891,-0.185516],[103.224775,-0.192981],[103.224588,-0.193186],[103.224445,-0.193053]]]}}]}