{"type":"FeatureCollection","features":[{"type":"Feature","properties":{"kdkec":"1403021","nmkec":"SUNGAI BATANG","kddesa":"1403021008","nmdesa":"MUGO MULYO","idsubsls":"1403021008001000","kdsubsls":"00"},"geometry":{"type":"Polygon","coordinates":[[[103.173555,-0.625732],[103.183353,-0.631888],[103.191152,-0.638899],[103.192427,-0.642433],[103.193622,-0.65015],[103.191303,-0.650469],[103.188486,-0.651697],[103.187479,-0.643068],[103.186728,-0.640495],[103.185715,-0.638835],[103.158728,-0.62066],[103.143145,-0.608954],[103.145136,-0.606315],[103.173555,-0.625732]]]}}]}