{"type":"FeatureCollection","features":[{"type":"Feature","properties":{"kdkec":"1403100","nmkec":"GAUNG","kddesa":"1403100004","nmdesa":"BELANTARAYA","idsubsls":"1403100004002100","kdsubsls":"00"},"geometry":{"type":"Polygon","coordinates":[[[103.205857,-0.089384],[103.205332,-0.088932],[103.205767,-0.088973],[103.206162,-0.088403],[103.20658,-0.088456],[103.206995,-0.088269],[103.207528,-0.088619],[103.208076,-0.088708],[103.208463,-0.088086],[103.209787,-0.089197],[103.207576,-0.089551],[103.205857,-0.089384]]]}}]}