{"type":"FeatureCollection","features":[{"type":"Feature","properties":{"kdkec":"1403100","nmkec":"GAUNG","kddesa":"1403100004","nmdesa":"BELANTARAYA","idsubsls":"1403100004003000","kdsubsls":"00"},"geometry":{"type":"Polygon","coordinates":[[[103.194359,-0.036427],[103.192919,-0.080344],[103.19257,-0.079849],[103.191214,-0.079607],[103.190393,-0.080275],[103.190224,-0.080804],[103.189442,-0.081695],[103.188717,-0.082251],[103.1871,-0.082476],[103.186076,-0.08185],[103.185759,-0.081533],[103.185604,-0.081054],[103.185669,-0.080363],[103.187105,-0.077637],[103.186499,-0.075785],[103.185743,-0.074655],[103.185019,-0.074021],[103.182905,-0.07072],[103.181612,-0.069354],[103.180409,-0.068476],[103.177503,-0.067105],[103.177726,-0.044833],[103.177562,-0.036585],[103.173899,-0.020264],[103.194168,-0.019655],[103.194359,-0.036427]]]}}]}