{"type":"FeatureCollection","features":[{"type":"Feature","properties":{"kdkec":"1403010","nmkec":"KERITANG","kddesa":"1403010005","nmdesa":"KEMBANG MEKAR SARI","idsubsls":"1403010005001900","kdsubsls":"00"},"geometry":{"type":"Polygon","coordinates":[[[102.884238,-0.669288],[102.885429,-0.699662],[102.885191,-0.7073],[102.886238,-0.738635],[102.885666,-0.745949],[102.881309,-0.746044],[102.881025,-0.746011],[102.882386,-0.732387],[102.881009,-0.711425],[102.880745,-0.669185],[102.884238,-0.669288]]]}}]}