{"type":"FeatureCollection","features":[{"type":"Feature","properties":{"kdkec":"1403010","nmkec":"KERITANG","kddesa":"1403010005","nmdesa":"KEMBANG MEKAR SARI","idsubsls":"1403010005001400","kdsubsls":"00"},"geometry":{"type":"Polygon","coordinates":[[[102.899081,-0.732046],[102.899039,-0.735319],[102.898084,-0.739783],[102.895382,-0.747582],[102.892298,-0.746524],[102.893341,-0.737052],[102.893748,-0.735952],[102.89346,-0.72848],[102.892547,-0.72257],[102.891319,-0.71789],[102.890825,-0.712962],[102.889823,-0.688936],[102.892173,-0.688713],[102.899081,-0.732046]]]}}]}