{"type":"FeatureCollection","features":[{"type":"Feature","properties":{"kdkec":"1403100","nmkec":"GAUNG","kddesa":"1403100015","nmdesa":"SOREN","idsubsls":"1403100015000400","kdsubsls":"00"},"geometry":{"type":"Polygon","coordinates":[[[103.280189,-0.063574],[103.284535,-0.06698],[103.276622,-0.09261],[103.275156,-0.096722],[103.275057,-0.097704],[103.272439,-0.097147],[103.272645,-0.092594],[103.271598,-0.084767],[103.270998,-0.070166],[103.271496,-0.057475],[103.27714,-0.061184],[103.280189,-0.063574]]]}}]}