{"type":"FeatureCollection","features":[{"type":"Feature","properties":{"kdkec":"1403120","nmkec":"KATEMAN","kddesa":"1403120005","nmdesa":"SARI MULYA","idsubsls":"1403120005100100","kdsubsls":"00"},"geometry":{"type":"Polygon","coordinates":[[[103.557818,0.359163],[103.560416,0.358782],[103.563303,0.357601],[103.564838,0.36058],[103.564812,0.361],[103.565795,0.364139],[103.567211,0.364214],[103.574252,0.36184],[103.571733,0.354091],[103.564582,0.350611],[103.564438,0.35006],[103.560515,0.347816],[103.561781,0.343682],[103.557459,0.334863],[103.548607,0.331325],[103.55166,0.324414],[103.537311,0.321172],[103.512367,0.327598],[103.491168,0.333323],[103.482555,0.332068],[103.482131,0.350402],[103.484355,0.352208],[103.48932,0.349652],[103.494192,0.349619],[103.500405,0.351345],[103.504202,0.354106],[103.510572,0.355698],[103.517073,0.35652],[103.517641,0.357235],[103.518888,0.357144],[103.519876,0.357503],[103.520926,0.358203],[103.522705,0.358396],[103.526634,0.360408],[103.528682,0.361138],[103.529636,0.362265],[103.531193,0.362633],[103.532139,0.362284],[103.533143,0.36347],[103.533721,0.3635],[103.534299,0.363196],[103.535079,0.364119],[103.53513,0.365011],[103.537472,0.366015],[103.538101,0.366866],[103.539834,0.366978],[103.540727,0.367667],[103.541071,0.368205],[103.541217,0.368829],[103.541479,0.368948],[103.542339,0.370227],[103.544241,0.371709],[103.545122,0.372184],[103.547459,0.372823],[103.549476,0.373948],[103.551646,0.376077],[103.552731,0.376817],[103.553812,0.377159],[103.556081,0.364891],[103.557818,0.359163]],[[103.504671,0.339325],[103.504654,0.340286],[103.503555,0.340271],[103.503565,0.339318],[103.504671,0.339325]],[[103.485885,0.339552],[103.485886,0.340587],[103.484919,0.340586],[103.484927,0.339554],[103.485885,0.339552]],[[103.522604,0.344136],[103.522581,0.349048],[103.520009,0.349066],[103.519976,0.344135],[103.522604,0.344136]],[[103.540791,0.347533],[103.540807,0.349154],[103.538402,0.349188],[103.538399,0.347562],[103.540791,0.347533]]]}}]}