{"type":"FeatureCollection","features":[{"type":"Feature","properties":{"kdkec":"1403040","nmkec":"TANAH MERAH","kddesa":"1403040004","nmdesa":"SUNGAI LAUT","idsubsls":"1403040004001000","kdsubsls":"00"},"geometry":{"type":"Polygon","coordinates":[[[103.510479,-0.511745],[103.510128,-0.511466],[103.509855,-0.511838],[103.509611,-0.511911],[103.508833,-0.511182],[103.509127,-0.510543],[103.509407,-0.51077],[103.510154,-0.509925],[103.510314,-0.510058],[103.510635,-0.511559],[103.510479,-0.511745]]]}}]}