{"type":"FeatureCollection","features":[{"type":"Feature","properties":{"kdkec":"1403010","nmkec":"KERITANG","kddesa":"1403010002","nmdesa":"SEBERANG PEBENAAN","idsubsls":"1403010002000100","kdsubsls":"00"},"geometry":{"type":"Polygon","coordinates":[[[102.987959,-0.719431],[102.988526,-0.719266],[102.988238,-0.718247],[102.990345,-0.717565],[102.994643,-0.746609],[102.996022,-0.749498],[102.997551,-0.754085],[102.998044,-0.760325],[102.999349,-0.768794],[102.99822,-0.770343],[102.996745,-0.759849],[102.996207,-0.758017],[102.994601,-0.753925],[102.992399,-0.749734],[102.991758,-0.746805],[102.990988,-0.745138],[102.990881,-0.74362],[102.991223,-0.740755],[102.989705,-0.727349],[102.987959,-0.719431]]]}}]}