{"type":"FeatureCollection","features":[{"type":"Feature","properties":{"kdkec":"1403010","nmkec":"KERITANG","kddesa":"1403010002","nmdesa":"SEBERANG PEBENAAN","idsubsls":"1403010002000700","kdsubsls":"00"},"geometry":{"type":"Polygon","coordinates":[[[102.995634,-0.704135],[102.997445,-0.703036],[102.997773,-0.703728],[103.001405,-0.71431],[103.004084,-0.72339],[103.006397,-0.732439],[103.006092,-0.739196],[103.005443,-0.745222],[103.005889,-0.749686],[103.007323,-0.759368],[103.005684,-0.760939],[103.002626,-0.745288],[103.004004,-0.732326],[103.002805,-0.726942],[103.000483,-0.718317],[102.995634,-0.704135]]]}}]}