{"type":"FeatureCollection","features":[{"type":"Feature","properties":{"kdkec":"1403010","nmkec":"KERITANG","kddesa":"1403010002","nmdesa":"SEBERANG PEBENAAN","idsubsls":"1403010002001600","kdsubsls":"00"},"geometry":{"type":"Polygon","coordinates":[[[103.009656,-0.715108],[103.013621,-0.713541],[103.016263,-0.724009],[103.017967,-0.732734],[103.018231,-0.738395],[103.016576,-0.755195],[103.013606,-0.755299],[103.014406,-0.748895],[103.015421,-0.742646],[103.015685,-0.735382],[103.014569,-0.731364],[103.012956,-0.724516],[103.009656,-0.715108]]]}}]}