{"type":"FeatureCollection","features":[{"type":"Feature","properties":{"kdkec":"1403010","nmkec":"KERITANG","kddesa":"1403010002","nmdesa":"SEBERANG PEBENAAN","idsubsls":"1403010002000900","kdsubsls":"00"},"geometry":{"type":"Polygon","coordinates":[[[103.004822,-0.710615],[103.007936,-0.721365],[103.011383,-0.736457],[103.010068,-0.757016],[103.008723,-0.758052],[103.008578,-0.750325],[103.007787,-0.741966],[103.007908,-0.732084],[103.005007,-0.718682],[103.002866,-0.712002],[103.001507,-0.708314],[103.001187,-0.707015],[103.000634,-0.702749],[103.000199,-0.701686],[103.002145,-0.701062],[103.004822,-0.710615]]]}}]}