{"type":"FeatureCollection","features":[{"type":"Feature","properties":{"kdkec":"1403061","nmkec":"TEMBILAHAN HULU","kddesa":"1403061003","nmdesa":"SIALANG PANJANG","idsubsls":"1403061003000300","kdsubsls":"00"},"geometry":{"type":"Polygon","coordinates":[[[103.058911,-0.37892],[103.054055,-0.367915],[103.062175,-0.362578],[103.064505,-0.358225],[103.065299,-0.358702],[103.06988,-0.359148],[103.071296,-0.358983],[103.070815,-0.3596],[103.06852,-0.365727],[103.074356,-0.377692],[103.073323,-0.379267],[103.071529,-0.38026],[103.070128,-0.37865],[103.062631,-0.378698],[103.058911,-0.37892]]]}}]}