{"type":"FeatureCollection","features":[{"type":"Feature","properties":{"kdkec":"1403061","nmkec":"TEMBILAHAN HULU","kddesa":"1403061003","nmdesa":"SIALANG PANJANG","idsubsls":"1403061003000200","kdsubsls":"00"},"geometry":{"type":"Polygon","coordinates":[[[103.082241,-0.358456],[103.085741,-0.366019],[103.079061,-0.375431],[103.076909,-0.377386],[103.074356,-0.377692],[103.06852,-0.365727],[103.070815,-0.3596],[103.071296,-0.358983],[103.072714,-0.358818],[103.076732,-0.356411],[103.078673,-0.354819],[103.080897,-0.354572],[103.082241,-0.358456]]]}}]}