{"type":"FeatureCollection","features":[{"type":"Feature","properties":{"kdkec":"1403061","nmkec":"TEMBILAHAN HULU","kddesa":"1403061003","nmdesa":"SIALANG PANJANG","idsubsls":"1403061003000600","kdsubsls":"00"},"geometry":{"type":"Polygon","coordinates":[[[103.055112,-0.34636],[103.056153,-0.347644],[103.056981,-0.349151],[103.057309,-0.350471],[103.057311,-0.351083],[103.058138,-0.353302],[103.057965,-0.353508],[103.057372,-0.353121],[103.055556,-0.356208],[103.051862,-0.353747],[103.050689,-0.355338],[103.048552,-0.35394],[103.054193,-0.34554],[103.055112,-0.34636]]]}}]}