{"type":"FeatureCollection","features":[{"type":"Feature","properties":{"kdkec":"1403061","nmkec":"TEMBILAHAN HULU","kddesa":"1403061003","nmdesa":"SIALANG PANJANG","idsubsls":"1403061003001900","kdsubsls":"00"},"geometry":{"type":"Polygon","coordinates":[[[103.004551,-0.386399],[103.006039,-0.384054],[103.012992,-0.389258],[103.021038,-0.396958],[103.02405,-0.400237],[103.022946,-0.401591],[103.020534,-0.403274],[103.016362,-0.398],[103.013382,-0.39598],[103.011359,-0.395413],[103.005416,-0.387202],[103.004551,-0.386399]]]}}]}