{"type":"FeatureCollection","features":[{"type":"Feature","properties":{"kdkec":"1403010","nmkec":"KERITANG","kddesa":"1403010016","nmdesa":"NYIUR PERMAI","idsubsls":"1403010016000300","kdsubsls":"00"},"geometry":{"type":"Polygon","coordinates":[[[102.79618,-0.682347],[102.795184,-0.683797],[102.794535,-0.685783],[102.775255,-0.685216],[102.765688,-0.690756],[102.755123,-0.699714],[102.756439,-0.69544],[102.759553,-0.683722],[102.762561,-0.681886],[102.764183,-0.680601],[102.765661,-0.679766],[102.770583,-0.678241],[102.774437,-0.677277],[102.780014,-0.679407],[102.790723,-0.681655],[102.79618,-0.682347]]]}}]}