{"type":"FeatureCollection","features":[{"type":"Feature","properties":{"kdkec":"1403010","nmkec":"KERITANG","kddesa":"1403010016","nmdesa":"NYIUR PERMAI","idsubsls":"1403010016000500","kdsubsls":"00"},"geometry":{"type":"Polygon","coordinates":[[[102.795228,-0.691932],[102.794862,-0.691566],[102.794333,-0.692123],[102.760972,-0.714772],[102.76228,-0.716717],[102.74983,-0.725711],[102.750573,-0.717634],[102.752012,-0.711826],[102.76906,-0.70164],[102.794678,-0.68746],[102.795321,-0.688365],[102.797528,-0.689881],[102.795228,-0.691932]]]}}]}