{"type":"FeatureCollection","features":[{"type":"Feature","properties":{"kdkec":"1403051","nmkec":"CONCONG","kddesa":"1403051001","nmdesa":"CONCONG LUAR","idsubsls":"1403051001001500","kdsubsls":"00"},"geometry":{"type":"Polygon","coordinates":[[[103.608669,-0.245406],[103.607874,-0.245177],[103.607712,-0.242537],[103.606403,-0.237056],[103.606993,-0.236114],[103.611025,-0.235392],[103.614558,-0.235056],[103.623561,-0.234884],[103.625121,-0.237789],[103.626413,-0.239337],[103.627685,-0.241543],[103.625926,-0.243101],[103.624186,-0.243632],[103.623233,-0.243602],[103.622977,-0.243815],[103.623169,-0.244625],[103.624015,-0.245682],[103.625411,-0.246658],[103.62506,-0.247275],[103.624657,-0.247171],[103.622696,-0.248581],[103.617622,-0.249088],[103.613476,-0.249216],[103.611081,-0.249659],[103.608669,-0.245406]]]}}]}