{"type":"FeatureCollection","features":[{"type":"Feature","properties":{"kdkec":"1403060","nmkec":"TEMBILAHAN","kddesa":"1403060001","nmdesa":"SEBERANG TEMBILAHAN","idsubsls":"1403060001001500","kdsubsls":"00"},"geometry":{"type":"Polygon","coordinates":[[[103.178497,-0.343852],[103.173878,-0.335677],[103.179107,-0.332326],[103.185095,-0.341231],[103.186335,-0.343343],[103.188735,-0.348105],[103.194086,-0.360811],[103.188175,-0.364505],[103.186764,-0.361499],[103.184411,-0.35458],[103.178497,-0.343852]]]}}]}