{"type":"FeatureCollection","features":[{"type":"Feature","properties":{"kdkec":"1403122","nmkec":"TELUK BELENGKONG","kddesa":"1403122012","nmdesa":"GEMBARAN","idsubsls":"1403122012001100","kdsubsls":"00"},"geometry":{"type":"Polygon","coordinates":[[[103.417934,0.284836],[103.421214,0.283048],[103.424399,0.283266],[103.424789,0.283499],[103.424638,0.284106],[103.425012,0.284195],[103.425926,0.284929],[103.42663,0.28407],[103.426335,0.283328],[103.426708,0.282711],[103.426739,0.282368],[103.426475,0.280641],[103.426713,0.280049],[103.426607,0.274789],[103.425037,0.250558],[103.41958,0.248388],[103.417993,0.262208],[103.417934,0.284836]]]}}]}