{"type":"FeatureCollection","features":[{"type":"Feature","properties":{"kdkec":"1403122","nmkec":"TELUK BELENGKONG","kddesa":"1403122012","nmdesa":"GEMBARAN","idsubsls":"1403122012100200","kdsubsls":"00"},"geometry":{"type":"Polygon","coordinates":[[[103.171208,0.323715],[103.188072,0.309473],[103.186798,0.308012],[103.190385,0.304961],[103.191662,0.30644],[103.238065,0.265638],[103.268312,0.29947],[103.281148,0.300753],[103.310111,0.275316],[103.291948,0.253147],[103.288421,0.253147],[103.285035,0.253641],[103.27409,0.251193],[103.272575,0.250404],[103.267532,0.249471],[103.272117,0.227056],[103.275044,0.227267],[103.2791,0.228484],[103.282885,0.228794],[103.284716,0.192334],[103.282547,0.186179],[103.280392,0.185662],[103.27549,0.183969],[103.27355,0.190564],[103.267659,0.189294],[103.269952,0.181076],[103.262122,0.181394],[103.260359,0.186437],[103.258454,0.185662],[103.257184,0.18672],[103.255809,0.185979],[103.251365,0.198147],[103.24692,0.196384],[103.238138,0.19589],[103.235987,0.201992],[103.230872,0.202803],[103.226746,0.201498],[103.224418,0.208305],[103.198123,0.239167],[103.15857,0.262778],[103.132546,0.289052],[103.116168,0.310466],[103.059789,0.268662],[103.037121,0.252205],[103.011756,0.23435],[102.980472,0.278502],[103.030667,0.314817],[103.109152,0.342128],[103.133717,0.343002],[103.1374,0.343504],[103.145539,0.346218],[103.147716,0.343497],[103.171208,0.323715]],[[103.082559,0.319828],[103.084104,0.317734],[103.088179,0.320626],[103.086635,0.322812],[103.082559,0.319828]],[[103.06076,0.303818],[103.062909,0.301027],[103.066366,0.303374],[103.064366,0.306412],[103.06076,0.303818]],[[103.035381,0.285219],[103.038135,0.281601],[103.041753,0.284404],[103.039283,0.288072],[103.035381,0.285219]],[[103.010521,0.266793],[103.013559,0.262496],[103.017733,0.265188],[103.014497,0.269683],[103.010521,0.266793]],[[103.140884,0.292958],[103.137324,0.295877],[103.13502,0.29321],[103.138487,0.290211],[103.140884,0.292958]],[[103.260497,0.223779],[103.260762,0.223162],[103.262053,0.222627],[103.262826,0.222918],[103.263101,0.223432],[103.263755,0.224039],[103.264834,0.224443],[103.265893,0.223333],[103.267999,0.224433],[103.26845,0.225403],[103.266645,0.226653],[103.264393,0.227841],[103.262557,0.229232],[103.261021,0.229439],[103.259205,0.229356],[103.258925,0.228547],[103.259164,0.227717],[103.259703,0.226804],[103.260072,0.226669],[103.261037,0.223992],[103.260497,0.223779]],[[103.218285,0.225697],[103.214378,0.22927],[103.212109,0.226981],[103.216091,0.223495],[103.218285,0.225697]],[[103.246065,0.224477],[103.247211,0.221329],[103.248102,0.221593],[103.246912,0.224741],[103.246065,0.224477]],[[103.258402,0.218254],[103.258862,0.216999],[103.261613,0.218049],[103.260397,0.221628],[103.257504,0.220641],[103.258402,0.218254]]]}}]}