{"type":"FeatureCollection","features":[{"type":"Feature","properties":{"kdkec":"1403122","nmkec":"TELUK BELENGKONG","kddesa":"1403122012","nmdesa":"GEMBARAN","idsubsls":"1403122012002700","kdsubsls":"00"},"geometry":{"type":"Polygon","coordinates":[[[103.282885,0.228794],[103.2791,0.228484],[103.275044,0.227267],[103.272117,0.227056],[103.267532,0.249471],[103.272575,0.250404],[103.27409,0.251193],[103.285035,0.253641],[103.288421,0.253147],[103.291948,0.253147],[103.294064,0.248844],[103.301195,0.239523],[103.29592,0.235992],[103.290881,0.234026],[103.287107,0.232262],[103.282885,0.228794]]]}}]}