{"type":"FeatureCollection","features":[{"type":"Feature","properties":{"kdkec":"1403010","nmkec":"KERITANG","kddesa":"1403010006","nmdesa":"KOTABARU SEBERIDA","idsubsls":"1403010006004500","kdsubsls":"00"},"geometry":{"type":"Polygon","coordinates":[[[102.924562,-0.743214],[102.924285,-0.742587],[102.924543,-0.742429],[102.923802,-0.740871],[102.925134,-0.739539],[102.925794,-0.741474],[102.924886,-0.741905],[102.92498,-0.742113],[102.924695,-0.742225],[102.925025,-0.743046],[102.924562,-0.743214]]]}}]}