{"type":"FeatureCollection","features":[{"type":"Feature","properties":{"kdkec":"1403010","nmkec":"KERITANG","kddesa":"1403010006","nmdesa":"KOTABARU SEBERIDA","idsubsls":"1403010006002000","kdsubsls":"00"},"geometry":{"type":"Polygon","coordinates":[[[102.932548,-0.764239],[102.930891,-0.77202],[102.930361,-0.772154],[102.932642,-0.77596],[102.927179,-0.775985],[102.927588,-0.771909],[102.928715,-0.767668],[102.928706,-0.766124],[102.927331,-0.758675],[102.932579,-0.758763],[102.932548,-0.764239]]]}}]}