{"type":"FeatureCollection","features":[{"type":"Feature","properties":{"kdkec":"1403010","nmkec":"KERITANG","kddesa":"1403010006","nmdesa":"KOTABARU SEBERIDA","idsubsls":"1403010006003700","kdsubsls":"00"},"geometry":{"type":"Polygon","coordinates":[[[102.927591,-0.742028],[102.927843,-0.742006],[102.928012,-0.743695],[102.927127,-0.743771],[102.926971,-0.742771],[102.926674,-0.742134],[102.92691,-0.742112],[102.926891,-0.741931],[102.927299,-0.741884],[102.927321,-0.74207],[102.927591,-0.742028]]]}}]}