{"type":"FeatureCollection","features":[{"type":"Feature","properties":{"kdkec":"1403010","nmkec":"KERITANG","kddesa":"1403010006","nmdesa":"KOTABARU SEBERIDA","idsubsls":"1403010006004800","kdsubsls":"00"},"geometry":{"type":"Polygon","coordinates":[[[102.927858,-0.748951],[102.928316,-0.748992],[102.928205,-0.752364],[102.928521,-0.75445],[102.92847,-0.756208],[102.928667,-0.757146],[102.928571,-0.758695],[102.927331,-0.758675],[102.927152,-0.757652],[102.924261,-0.757986],[102.924237,-0.748815],[102.927858,-0.748951]]]}}]}