{"type":"FeatureCollection","features":[{"type":"Feature","properties":{"kdkec":"1403010","nmkec":"KERITANG","kddesa":"1403010006","nmdesa":"KOTABARU SEBERIDA","idsubsls":"1403010006002800","kdsubsls":"00"},"geometry":{"type":"Polygon","coordinates":[[[102.935636,-0.741889],[102.936376,-0.741958],[102.936582,-0.742751],[102.93634,-0.743639],[102.936332,-0.744992],[102.934519,-0.744407],[102.934163,-0.745795],[102.932128,-0.745186],[102.931687,-0.744062],[102.933049,-0.740514],[102.935636,-0.741889]]]}}]}