{"type":"FeatureCollection","features":[{"type":"Feature","properties":{"kdkec":"1403010","nmkec":"KERITANG","kddesa":"1403010006","nmdesa":"KOTABARU SEBERIDA","idsubsls":"1403010006000700","kdsubsls":"00"},"geometry":{"type":"Polygon","coordinates":[[[102.919202,-0.760897],[102.916186,-0.750585],[102.921206,-0.749148],[102.921718,-0.758873],[102.921385,-0.777551],[102.920353,-0.781499],[102.923667,-0.794193],[102.922433,-0.795181],[102.917516,-0.777229],[102.918119,-0.775266],[102.91902,-0.766583],[102.919202,-0.760897]]]}}]}