{"type":"FeatureCollection","features":[{"type":"Feature","properties":{"kdkec":"1403010","nmkec":"KERITANG","kddesa":"1403010006","nmdesa":"KOTABARU SEBERIDA","idsubsls":"1403010006003600","kdsubsls":"00"},"geometry":{"type":"Polygon","coordinates":[[[102.927371,-0.739309],[102.927988,-0.739331],[102.928151,-0.741524],[102.928261,-0.741509],[102.92837,-0.742567],[102.928621,-0.742534],[102.928729,-0.743309],[102.928406,-0.743351],[102.928449,-0.743658],[102.928012,-0.743695],[102.927843,-0.742006],[102.927591,-0.742028],[102.927156,-0.739302],[102.927371,-0.739309]]]}}]}