{"type":"FeatureCollection","features":[{"type":"Feature","properties":{"kdkec":"1403010","nmkec":"KERITANG","kddesa":"1403010006","nmdesa":"KOTABARU SEBERIDA","idsubsls":"1403010006004900","kdsubsls":"00"},"geometry":{"type":"Polygon","coordinates":[[[102.928571,-0.758695],[102.928667,-0.757146],[102.92847,-0.756208],[102.928521,-0.75445],[102.928205,-0.752364],[102.928284,-0.750552],[102.928802,-0.750591],[102.928802,-0.750361],[102.930648,-0.750417],[102.930644,-0.75065],[102.932581,-0.750686],[102.932579,-0.758763],[102.928571,-0.758695]]]}}]}