{"type":"FeatureCollection","features":[{"type":"Feature","properties":{"kdkec":"1403123","nmkec":"PULAU BURUNG","kddesa":"1403123002","nmdesa":"BANGUN HARJO JAYA","idsubsls":"1403123002100100","kdsubsls":"00"},"geometry":{"type":"Polygon","coordinates":[[[103.358618,0.393629],[103.360382,0.392131],[103.366496,0.398864],[103.372659,0.393408],[103.344713,0.363209],[103.335866,0.370686],[103.326743,0.360269],[103.307313,0.377432],[103.335967,0.40932],[103.344528,0.417562],[103.362848,0.402029],[103.356798,0.395175],[103.358618,0.393629]]]}}]}