{"type":"FeatureCollection","features":[{"type":"Feature","properties":{"kdkec":"1403121","nmkec":"PELANGIRAN","kddesa":"1403121003","nmdesa":"PELANGIRAN","idsubsls":"1403121003002400","kdsubsls":"00"},"geometry":{"type":"Polygon","coordinates":[[[103.50129,0.156613],[103.506475,0.145476],[103.505429,0.1446],[103.48981,0.158155],[103.48535,0.161041],[103.484266,0.159225],[103.483464,0.159794],[103.485586,0.164972],[103.486346,0.167424],[103.487561,0.170253],[103.488777,0.171777],[103.490168,0.172813],[103.49089,0.173128],[103.493366,0.173634],[103.50129,0.156613]]]}}]}