{"type":"FeatureCollection","features":[{"type":"Feature","properties":{"kdkec":"1403121","nmkec":"PELANGIRAN","kddesa":"1403121003","nmdesa":"PELANGIRAN","idsubsls":"1403121003002800","kdsubsls":"00"},"geometry":{"type":"Polygon","coordinates":[[[103.478482,0.147694],[103.493763,0.131753],[103.491586,0.128678],[103.483269,0.135257],[103.481522,0.134005],[103.474126,0.141649],[103.47299,0.142522],[103.471667,0.143113],[103.472252,0.146409],[103.471364,0.148643],[103.469523,0.150714],[103.469047,0.152002],[103.469541,0.153926],[103.471084,0.15541],[103.478482,0.147694]]]}}]}