{"type":"FeatureCollection","features":[{"type":"Feature","properties":{"kdkec":"1403121","nmkec":"PELANGIRAN","kddesa":"1403121003","nmdesa":"PELANGIRAN","idsubsls":"1403121003001300","kdsubsls":"00"},"geometry":{"type":"Polygon","coordinates":[[[103.500082,0.188601],[103.499656,0.185355],[103.500666,0.182008],[103.500977,0.179003],[103.50094,0.177259],[103.500215,0.175828],[103.499564,0.174926],[103.498576,0.174215],[103.497277,0.173663],[103.495038,0.173713],[103.494527,0.1754],[103.494029,0.176421],[103.476921,0.201567],[103.480643,0.206969],[103.502411,0.192715],[103.500082,0.188601]]]}}]}