{"type":"FeatureCollection","features":[{"type":"Feature","properties":{"kdkec":"1403100","nmkec":"GAUNG","kddesa":"1403100012","nmdesa":"GEMBIRA","idsubsls":"1403100012000600","kdsubsls":"00"},"geometry":{"type":"Polygon","coordinates":[[[103.043185,-0.128648],[103.045183,-0.130882],[103.046366,-0.166352],[103.044466,-0.166988],[103.043809,-0.134574],[103.043353,-0.133901],[103.042174,-0.132778],[103.042027,-0.132337],[103.040902,-0.131432],[103.041933,-0.129653],[103.042478,-0.128006],[103.043185,-0.128648]]]}}]}