{"type":"FeatureCollection","features":[{"type":"Feature","properties":{"kdkec":"1403123","nmkec":"PULAU BURUNG","kddesa":"1403123001","nmdesa":"PULAU BURUNG","idsubsls":"1403123001200400","kdsubsls":"00"},"geometry":{"type":"Polygon","coordinates":[[[103.579163,0.43117],[103.581954,0.428789],[103.587175,0.419347],[103.589621,0.415852],[103.589832,0.411838],[103.58888,0.409799],[103.588401,0.407702],[103.585979,0.406562],[103.58117,0.409589],[103.568697,0.416619],[103.568703,0.416785],[103.565319,0.418993],[103.556058,0.42626],[103.548791,0.432743],[103.543947,0.437623],[103.541311,0.440651],[103.538633,0.445917],[103.538561,0.44664],[103.538818,0.447347],[103.54174,0.448994],[103.543987,0.449655],[103.547579,0.449444],[103.550114,0.448387],[103.554551,0.447331],[103.563635,0.443106],[103.578846,0.431697],[103.579163,0.43117]]]}}]}