{"type":"FeatureCollection","features":[{"type":"Feature","properties":{"kdkec":"1403123","nmkec":"PULAU BURUNG","kddesa":"1403123001","nmdesa":"PULAU BURUNG","idsubsls":"1403123001003900","kdsubsls":"00"},"geometry":{"type":"Polygon","coordinates":[[[103.498827,0.359854],[103.491208,0.366598],[103.506027,0.383561],[103.529636,0.362265],[103.528682,0.361138],[103.526634,0.360408],[103.522705,0.358396],[103.520926,0.358203],[103.519876,0.357503],[103.518888,0.357144],[103.517641,0.357235],[103.517073,0.35652],[103.510572,0.355698],[103.504509,0.360976],[103.498827,0.359854]]]}}]}