{"type":"FeatureCollection","features":[{"type":"Feature","properties":{"kdkec":"1403123","nmkec":"PULAU BURUNG","kddesa":"1403123001","nmdesa":"PULAU BURUNG","idsubsls":"1403123001000200","kdsubsls":"00"},"geometry":{"type":"Polygon","coordinates":[[[103.532549,0.439972],[103.539194,0.433593],[103.53337,0.428087],[103.530601,0.430394],[103.527415,0.432327],[103.526708,0.432651],[103.523617,0.433443],[103.522995,0.434241],[103.524197,0.435295],[103.524419,0.435314],[103.525085,0.436017],[103.528026,0.438125],[103.52932,0.438736],[103.530301,0.439993],[103.531115,0.440123],[103.531891,0.439919],[103.532549,0.439972]]]}}]}