{"type":"FeatureCollection","features":[{"type":"Feature","properties":{"kdkec":"1403011","nmkec":"KEMUNING","kddesa":"1403011008","nmdesa":"SEKARA","idsubsls":"1403011008000100","kdsubsls":"00"},"geometry":{"type":"Polygon","coordinates":[[[102.751951,-0.840601],[102.75176,-0.841417],[102.751782,-0.844224],[102.757128,-0.847279],[102.753258,-0.858357],[102.752854,-0.86164],[102.752029,-0.865023],[102.752096,-0.867026],[102.752403,-0.868886],[102.751869,-0.868907],[102.751322,-0.868533],[102.75072,-0.867548],[102.750421,-0.867317],[102.745628,-0.865777],[102.747348,-0.849859],[102.747849,-0.846825],[102.749367,-0.840083],[102.750029,-0.83934],[102.750867,-0.838767],[102.751932,-0.839381],[102.751951,-0.840601]]]}}]}