{"type":"FeatureCollection","features":[{"type":"Feature","properties":{"kdkec":"1403011","nmkec":"KEMUNING","kddesa":"1403011008","nmdesa":"SEKARA","idsubsls":"1403011008000400","kdsubsls":"00"},"geometry":{"type":"Polygon","coordinates":[[[102.752403,-0.868886],[102.753505,-0.868482],[102.753527,-0.868178],[102.755276,-0.868302],[102.75529,-0.86858],[102.756249,-0.868718],[102.756946,-0.869011],[102.755713,-0.870825],[102.747162,-0.880199],[102.736448,-0.88404],[102.734073,-0.88243],[102.740995,-0.868667],[102.743691,-0.865174],[102.750421,-0.867317],[102.75072,-0.867548],[102.751322,-0.868533],[102.751869,-0.868907],[102.752403,-0.868886]]]}}]}