{"type":"FeatureCollection","features":[{"type":"Feature","properties":{"kdkec":"1403011","nmkec":"KEMUNING","kddesa":"1403011008","nmdesa":"SEKARA","idsubsls":"1403011008000300","kdsubsls":"00"},"geometry":{"type":"Polygon","coordinates":[[[102.762917,-0.828324],[102.76378,-0.820376],[102.761324,-0.816286],[102.767807,-0.812403],[102.776306,-0.819494],[102.775189,-0.822111],[102.778628,-0.824272],[102.77615,-0.835983],[102.775924,-0.836409],[102.77444,-0.836132],[102.771713,-0.835927],[102.770523,-0.844768],[102.770287,-0.84515],[102.764467,-0.845444],[102.763505,-0.845312],[102.766667,-0.837454],[102.764382,-0.8365],[102.765317,-0.834018],[102.761226,-0.829073],[102.762917,-0.828324]]]}}]}