{"type":"FeatureCollection","features":[{"type":"Feature","properties":{"kdkec":"1403011","nmkec":"KEMUNING","kddesa":"1403011008","nmdesa":"SEKARA","idsubsls":"1403011008000200","kdsubsls":"00"},"geometry":{"type":"Polygon","coordinates":[[[102.765317,-0.834018],[102.765014,-0.834973],[102.761371,-0.834476],[102.757187,-0.834958],[102.75517,-0.834747],[102.754974,-0.835545],[102.754402,-0.836644],[102.752737,-0.838933],[102.752884,-0.840579],[102.751951,-0.840601],[102.751932,-0.839381],[102.750867,-0.838767],[102.75119,-0.838503],[102.749835,-0.833004],[102.761226,-0.829073],[102.765317,-0.834018]]]}}]}