{"type":"FeatureCollection","features":[{"type":"Feature","properties":{"kdkec":"1403121","nmkec":"PELANGIRAN","kddesa":"1403121006","nmdesa":"TAGAGIRI TAMA JAYA","idsubsls":"1403121006100100","kdsubsls":"00"},"geometry":{"type":"Polygon","coordinates":[[[103.420664,0.229873],[103.416345,0.228376],[103.417848,0.223967],[103.427318,0.227333],[103.430113,0.219271],[103.426377,0.217809],[103.427756,0.213074],[103.404953,0.20482],[103.39593,0.230687],[103.416658,0.238039],[103.429275,0.242327],[103.432001,0.233801],[103.420664,0.229873]]]}}]}