{"type":"FeatureCollection","features":[{"type":"Feature","properties":{"kdkec":"1403071","nmkec":"KEMPAS","kddesa":"1403071009","nmdesa":"SUNGAI RABIT","idsubsls":"1403071009000500","kdsubsls":"00"},"geometry":{"type":"Polygon","coordinates":[[[102.723067,-0.441983],[102.726863,-0.442032],[102.726876,-0.441456],[102.733711,-0.441635],[102.733538,-0.448527],[102.732197,-0.448278],[102.729826,-0.446962],[102.728067,-0.445626],[102.726869,-0.445025],[102.723082,-0.443899],[102.723067,-0.441983]]]}}]}