{"type":"FeatureCollection","features":[{"type":"Feature","properties":{"kdkec":"1403011","nmkec":"KEMUNING","kddesa":"1403011003","nmdesa":"KERITANG","idsubsls":"1403011003003500","kdsubsls":"00"},"geometry":{"type":"Polygon","coordinates":[[[102.65805,-0.869261],[102.655399,-0.870227],[102.654282,-0.871873],[102.653631,-0.872077],[102.633575,-0.886432],[102.632936,-0.886221],[102.631945,-0.886455],[102.631642,-0.886275],[102.631384,-0.885309],[102.62987,-0.884521],[102.628246,-0.881501],[102.652309,-0.868028],[102.656399,-0.867425],[102.65805,-0.869261]]]}}]}