{"type":"FeatureCollection","features":[{"type":"Feature","properties":{"kdkec":"1403011","nmkec":"KEMUNING","kddesa":"1403011003","nmdesa":"KERITANG","idsubsls":"1403011003100100","kdsubsls":"00"},"geometry":{"type":"Polygon","coordinates":[[[102.611321,-0.854262],[102.615706,-0.847802],[102.620144,-0.849937],[102.622638,-0.851836],[102.624857,-0.853268],[102.626893,-0.855369],[102.63208,-0.859733],[102.630949,-0.860949],[102.63213,-0.862754],[102.634662,-0.863708],[102.632849,-0.866422],[102.629207,-0.872574],[102.626257,-0.870618],[102.622908,-0.868895],[102.620414,-0.868009],[102.618095,-0.867847],[102.615229,-0.869196],[102.613424,-0.867703],[102.611028,-0.865192],[102.605414,-0.862825],[102.591014,-0.858152],[102.601806,-0.84918],[102.611321,-0.854262]]]}}]}