{"type":"FeatureCollection","features":[{"type":"Feature","properties":{"kdkec":"1403011","nmkec":"KEMUNING","kddesa":"1403011003","nmdesa":"KERITANG","idsubsls":"1403011003004000","kdsubsls":"00"},"geometry":{"type":"Polygon","coordinates":[[[102.692946,-0.843508],[102.693435,-0.844849],[102.6935,-0.845469],[102.69339,-0.848444],[102.694354,-0.851468],[102.694413,-0.852095],[102.694319,-0.853488],[102.693605,-0.857144],[102.692727,-0.857977],[102.692698,-0.859044],[102.69205,-0.860435],[102.677693,-0.859861],[102.678454,-0.850519],[102.678652,-0.850441],[102.678626,-0.849993],[102.678796,-0.849852],[102.678988,-0.849954],[102.678923,-0.851126],[102.679223,-0.851223],[102.679629,-0.851033],[102.680033,-0.850493],[102.68039,-0.850566],[102.68051,-0.850941],[102.680124,-0.851697],[102.68021,-0.851944],[102.680987,-0.852135],[102.681242,-0.852051],[102.681281,-0.851418],[102.681466,-0.851181],[102.681726,-0.851303],[102.68207,-0.852523],[102.682511,-0.852364],[102.68249,-0.851697],[102.682774,-0.851366],[102.683026,-0.851421],[102.683673,-0.852476],[102.683894,-0.85258],[102.684235,-0.852455],[102.684446,-0.851533],[102.684853,-0.851046],[102.68473,-0.850472],[102.684926,-0.850254],[102.685882,-0.850699],[102.686184,-0.850647],[102.686218,-0.850295],[102.685311,-0.849704],[102.685259,-0.849451],[102.685608,-0.849428],[102.686497,-0.850022],[102.686718,-0.849928],[102.686619,-0.849076],[102.686939,-0.849021],[102.687252,-0.849287],[102.688521,-0.849136],[102.689008,-0.848167],[102.689623,-0.847807],[102.689868,-0.847859],[102.689829,-0.848388],[102.689956,-0.848576],[102.690232,-0.848472],[102.690412,-0.848034],[102.689779,-0.847062],[102.690313,-0.846708],[102.69072,-0.846666],[102.691074,-0.846828],[102.691217,-0.846148],[102.691548,-0.846104],[102.691694,-0.846255],[102.692093,-0.846028],[102.692225,-0.845564],[102.692246,-0.84522],[102.692009,-0.845119],[102.691394,-0.845356],[102.691327,-0.844319],[102.691519,-0.843441],[102.691725,-0.843246],[102.692569,-0.843647],[102.692946,-0.843508]]]}}]}