{"type":"FeatureCollection","features":[{"type":"Feature","properties":{"kdkec":"1403011","nmkec":"KEMUNING","kddesa":"1403011003","nmdesa":"KERITANG","idsubsls":"1403011003004900","kdsubsls":"00"},"geometry":{"type":"Polygon","coordinates":[[[102.699097,-0.799008],[102.698585,-0.800512],[102.698562,-0.80189],[102.698347,-0.802725],[102.69873,-0.804617],[102.699442,-0.806639],[102.700752,-0.808753],[102.70151,-0.810986],[102.699994,-0.818951],[102.700103,-0.827257],[102.696129,-0.827852],[102.697768,-0.811818],[102.696628,-0.809225],[102.695148,-0.805037],[102.693889,-0.798971],[102.69815,-0.796483],[102.699085,-0.797726],[102.699209,-0.798431],[102.699097,-0.799008]]]}}]}