{"type":"FeatureCollection","features":[{"type":"Feature","properties":{"kdkec":"1403011","nmkec":"KEMUNING","kddesa":"1403011003","nmdesa":"KERITANG","idsubsls":"1403011003002000","kdsubsls":"00"},"geometry":{"type":"Polygon","coordinates":[[[102.65805,-0.869261],[102.655834,-0.866842],[102.655439,-0.866091],[102.655387,-0.864707],[102.653142,-0.864659],[102.652747,-0.863365],[102.653104,-0.863166],[102.652866,-0.862865],[102.654642,-0.861535],[102.65351,-0.860033],[102.64987,-0.856889],[102.651496,-0.851594],[102.658975,-0.85841],[102.662722,-0.865538],[102.65805,-0.869261]]]}}]}