{"type":"FeatureCollection","features":[{"type":"Feature","properties":{"kdkec":"1403011","nmkec":"KEMUNING","kddesa":"1403011003","nmdesa":"KERITANG","idsubsls":"1403011003003900","kdsubsls":"00"},"geometry":{"type":"Polygon","coordinates":[[[102.677693,-0.859861],[102.673132,-0.859719],[102.673214,-0.85457],[102.673069,-0.854184],[102.672672,-0.854276],[102.672398,-0.853052],[102.672869,-0.848584],[102.673208,-0.84838],[102.673577,-0.847797],[102.674026,-0.848526],[102.674838,-0.848969],[102.674917,-0.849204],[102.674171,-0.849553],[102.674088,-0.849819],[102.674281,-0.850006],[102.674599,-0.849996],[102.675568,-0.849308],[102.676104,-0.849871],[102.676396,-0.8496],[102.676344,-0.848401],[102.676641,-0.848209],[102.677391,-0.848193],[102.677584,-0.848302],[102.677173,-0.849443],[102.677204,-0.849761],[102.677746,-0.849964],[102.678454,-0.850519],[102.677693,-0.859861]]]}}]}