{"type":"FeatureCollection","features":[{"type":"Feature","properties":{"kdkec":"1403011","nmkec":"KEMUNING","kddesa":"1403011003","nmdesa":"KERITANG","idsubsls":"1403011003001700","kdsubsls":"00"},"geometry":{"type":"Polygon","coordinates":[[[102.651334,-0.84353],[102.649155,-0.847569],[102.648368,-0.847237],[102.647702,-0.848604],[102.648523,-0.848992],[102.642759,-0.86044],[102.642266,-0.865021],[102.642436,-0.866373],[102.639205,-0.866126],[102.638061,-0.865468],[102.638365,-0.864986],[102.638783,-0.865084],[102.638934,-0.864762],[102.638759,-0.864403],[102.639938,-0.858949],[102.649145,-0.841546],[102.651334,-0.84353]]]}}]}