{"type":"FeatureCollection","features":[{"type":"Feature","properties":{"kdkec":"1403011","nmkec":"KEMUNING","kddesa":"1403011003","nmdesa":"KERITANG","idsubsls":"1403011003002100","kdsubsls":"00"},"geometry":{"type":"Polygon","coordinates":[[[102.683632,-0.917205],[102.682817,-0.917649],[102.680763,-0.91946],[102.669732,-0.928138],[102.668353,-0.928669],[102.667844,-0.929447],[102.667599,-0.929586],[102.666186,-0.930018],[102.665683,-0.930355],[102.665323,-0.93127],[102.663759,-0.931632],[102.662481,-0.931668],[102.662058,-0.932201],[102.661938,-0.932955],[102.661173,-0.933378],[102.66061,-0.933458],[102.660328,-0.933398],[102.660167,-0.933177],[102.648446,-0.942819],[102.642698,-0.935681],[102.678004,-0.915281],[102.681607,-0.913425],[102.681727,-0.913562],[102.710405,-0.885725],[102.713769,-0.889023],[102.690006,-0.912257],[102.684787,-0.916435],[102.683632,-0.917205]]]}}]}