{"type":"FeatureCollection","features":[{"type":"Feature","properties":{"kdkec":"1403011","nmkec":"KEMUNING","kddesa":"1403011003","nmdesa":"KERITANG","idsubsls":"1403011003004400","kdsubsls":"00"},"geometry":{"type":"Polygon","coordinates":[[[102.696129,-0.827852],[102.690347,-0.833291],[102.682823,-0.841274],[102.683026,-0.851421],[102.682774,-0.851366],[102.68249,-0.851697],[102.682511,-0.852364],[102.682333,-0.852531],[102.68207,-0.852523],[102.681726,-0.851303],[102.681466,-0.851181],[102.681281,-0.851418],[102.681242,-0.852051],[102.680987,-0.852135],[102.68021,-0.851944],[102.680124,-0.851697],[102.68051,-0.850941],[102.68039,-0.850566],[102.680033,-0.850493],[102.679629,-0.851033],[102.679223,-0.851223],[102.678923,-0.851126],[102.678856,-0.850861],[102.678988,-0.849954],[102.678796,-0.849852],[102.678626,-0.849993],[102.678652,-0.850441],[102.678454,-0.850519],[102.677746,-0.849964],[102.677204,-0.849761],[102.677173,-0.849443],[102.677584,-0.848302],[102.677391,-0.848193],[102.676641,-0.848209],[102.676344,-0.848401],[102.676396,-0.8496],[102.676104,-0.849871],[102.675568,-0.849308],[102.674599,-0.849996],[102.674281,-0.850006],[102.674088,-0.849819],[102.674171,-0.849553],[102.674917,-0.849204],[102.674838,-0.848969],[102.674026,-0.848526],[102.673577,-0.847797],[102.673208,-0.84838],[102.672869,-0.848584],[102.672389,-0.848479],[102.671608,-0.84862],[102.670529,-0.848276],[102.670395,-0.829454],[102.671469,-0.8294],[102.673594,-0.827994],[102.677764,-0.821596],[102.678103,-0.820637],[102.696129,-0.827852]]]}}]}