{"type":"FeatureCollection","features":[{"type":"Feature","properties":{"kdkec":"1403122","nmkec":"TELUK BELENGKONG","kddesa":"1403122013","nmdesa":"SAKA ROTAN","idsubsls":"1403122013000800","kdsubsls":"00"},"geometry":{"type":"Polygon","coordinates":[[[103.49601,0.295634],[103.493092,0.299686],[103.490635,0.301677],[103.489168,0.30257],[103.486176,0.303175],[103.479196,0.302233],[103.47691,0.302648],[103.474899,0.304135],[103.47335,0.305604],[103.472174,0.306245],[103.470141,0.306983],[103.470123,0.308769],[103.486701,0.308947],[103.493823,0.309483],[103.498326,0.309548],[103.49601,0.295634]]]}}]}