{"type":"FeatureCollection","features":[{"type":"Feature","properties":{"kdkec":"1403122","nmkec":"TELUK BELENGKONG","kddesa":"1403122013","nmdesa":"SAKA ROTAN","idsubsls":"1403122013100100","kdsubsls":"00"},"geometry":{"type":"Polygon","coordinates":[[[103.455296,0.32789],[103.452898,0.325022],[103.449508,0.321556],[103.441624,0.316193],[103.436803,0.313267],[103.431509,0.309774],[103.416795,0.310054],[103.416798,0.300325],[103.410395,0.300822],[103.406387,0.301677],[103.397431,0.3017],[103.391214,0.301461],[103.383532,0.299847],[103.376239,0.296267],[103.368465,0.293435],[103.365579,0.292687],[103.363763,0.293649],[103.36208,0.295145],[103.360156,0.295946],[103.35687,0.294904],[103.354653,0.291271],[103.352222,0.284886],[103.348508,0.274841],[103.348027,0.271849],[103.346852,0.268349],[103.345142,0.26517],[103.344341,0.263113],[103.343325,0.258384],[103.342444,0.257049],[103.341055,0.255686],[103.338837,0.254083],[103.327163,0.247645],[103.324277,0.24703],[103.320029,0.246496],[103.316369,0.244866],[103.310412,0.24142],[103.301195,0.239523],[103.294064,0.248844],[103.291948,0.253147],[103.310111,0.275316],[103.330585,0.29969],[103.341975,0.316483],[103.348904,0.321927],[103.381124,0.331471],[103.401343,0.333397],[103.426655,0.351867],[103.431372,0.350654],[103.434134,0.350654],[103.43793,0.354106],[103.450184,0.351172],[103.468477,0.349791],[103.470715,0.349916],[103.470462,0.341147],[103.470409,0.330232],[103.455296,0.32789]],[[103.371941,0.315287],[103.371941,0.315607],[103.371276,0.315607],[103.371285,0.315433],[103.371015,0.315308],[103.371015,0.315038],[103.371941,0.315038],[103.371941,0.315287]],[[103.414191,0.320104],[103.414193,0.320282],[103.413036,0.320286],[103.413041,0.319121],[103.414182,0.31911],[103.414191,0.320104]],[[103.384036,0.321785],[103.385685,0.321713],[103.385736,0.32394],[103.384067,0.32395],[103.384036,0.321785]],[[103.431346,0.327881],[103.431369,0.329007],[103.429954,0.329037],[103.429934,0.327908],[103.431346,0.327881]],[[103.423953,0.33039],[103.422121,0.330407],[103.422121,0.327936],[103.423995,0.327959],[103.423953,0.33039]],[[103.414385,0.332582],[103.413215,0.332587],[103.413236,0.331423],[103.414406,0.331412],[103.414385,0.332582]],[[103.422169,0.333077],[103.422164,0.331059],[103.423576,0.331075],[103.42359,0.333083],[103.422169,0.333077]],[[103.466319,0.336328],[103.467607,0.336313],[103.467607,0.337405],[103.466303,0.337421],[103.466319,0.336328]],[[103.45086,0.339851],[103.450896,0.341031],[103.449845,0.341051],[103.449847,0.339885],[103.45086,0.339851]],[[103.431833,0.34134],[103.430545,0.341366],[103.430529,0.340371],[103.431807,0.340345],[103.431833,0.34134]]]}}]}