{"type":"FeatureCollection","features":[{"type":"Feature","properties":{"kdkec":"1403110","nmkec":"MANDAH","kddesa":"1403110007","nmdesa":"BENTE","idsubsls":"1403110007002900","kdsubsls":"00"},"geometry":{"type":"Polygon","coordinates":[[[103.451016,0.056931],[103.449936,0.056273],[103.449198,0.055323],[103.446382,0.058537],[103.44414,0.062956],[103.439752,0.065745],[103.442578,0.06891],[103.442566,0.06912],[103.446001,0.072661],[103.44867,0.072017],[103.44966,0.070828],[103.451046,0.070036],[103.452634,0.071185],[103.454394,0.070094],[103.455403,0.068254],[103.456591,0.06766],[103.45877,0.067264],[103.458968,0.066075],[103.459372,0.065367],[103.451016,0.056931]]]}}]}