{"type":"FeatureCollection","features":[{"type":"Feature","properties":{"kdkec":"1403110","nmkec":"MANDAH","kddesa":"1403110007","nmdesa":"BENTE","idsubsls":"1403110007200200","kdsubsls":"00"},"geometry":{"type":"Polygon","coordinates":[[[103.532792,0.062782],[103.534698,0.061466],[103.540506,0.060431],[103.555174,0.055959],[103.553918,0.049487],[103.554235,0.049179],[103.556135,0.04826],[103.556165,0.047678],[103.555828,0.046176],[103.556686,0.045594],[103.556977,0.044767],[103.556656,0.043326],[103.555935,0.042254],[103.555767,0.041518],[103.556916,0.041013],[103.558632,0.041426],[103.559153,0.041748],[103.559582,0.04158],[103.559168,0.039971],[103.560287,0.039435],[103.560685,0.039542],[103.562447,0.038331],[103.562662,0.037964],[103.56257,0.036646],[103.562938,0.036018],[103.562202,0.033842],[103.562401,0.033107],[103.562172,0.031436],[103.563305,0.030011],[103.564746,0.029536],[103.56542,0.029598],[103.565742,0.030027],[103.565987,0.031099],[103.566063,0.032586],[103.566906,0.032601],[103.567596,0.033398],[103.568438,0.033765],[103.569526,0.033643],[103.569863,0.035696],[103.569817,0.038117],[103.570093,0.039404],[103.570997,0.039312],[103.571947,0.039588],[103.573047,0.040171],[103.575434,0.027086],[103.574444,0.024512],[103.574284,0.023002],[103.575987,0.022201],[103.57764,0.02165],[103.579543,0.019947],[103.581346,0.018945],[103.583649,0.018394],[103.584851,0.016366],[103.586754,0.015214],[103.588182,0.012861],[103.589183,0.010657],[103.591161,0.008929],[103.603256,0.00297],[103.606536,-0.001312],[103.609115,-0.004242],[103.613781,-0.007046],[103.6118,-0.008139],[103.604228,-0.014089],[103.599225,-0.017199],[103.596521,-0.017739],[103.588679,-0.021255],[103.58399,-0.0245],[103.579057,-0.018011],[103.574502,-0.012466],[103.568957,-0.001376],[103.566185,0.001991],[103.559253,0.005555],[103.557471,0.007734],[103.555887,0.011695],[103.554104,0.014467],[103.549351,0.019022],[103.546183,0.021399],[103.541232,0.024369],[103.538459,0.026548],[103.533508,0.031301],[103.528359,0.03546],[103.524992,0.034073],[103.522814,0.032687],[103.52222,0.030509],[103.521626,0.029122],[103.520239,0.026746],[103.517665,0.027934],[103.515882,0.029122],[103.5141,0.031895],[103.513506,0.032489],[103.512318,0.033083],[103.510337,0.033677],[103.509347,0.033281],[103.504792,0.033083],[103.503406,0.034865],[103.502812,0.037242],[103.501822,0.038232],[103.499247,0.040014],[103.497861,0.041401],[103.494098,0.041995],[103.492712,0.042787],[103.492178,0.042431],[103.490654,0.044885],[103.490456,0.04845],[103.49006,0.050034],[103.489268,0.051024],[103.48808,0.052014],[103.486495,0.052014],[103.484911,0.052807],[103.483916,0.053055],[103.48702,0.057558],[103.488618,0.059518],[103.499582,0.05936],[103.513114,0.05655],[103.527517,0.057194],[103.527778,0.05723],[103.526111,0.062466],[103.530901,0.063359],[103.532792,0.062782]]]}}]}