{"type":"FeatureCollection","features":[{"type":"Feature","properties":{"kdkec":"1403110","nmkec":"MANDAH","kddesa":"1403110017","nmdesa":"BIDARI TANJUNG DATUK","idsubsls":"1403110017000100","kdsubsls":"00"},"geometry":{"type":"Polygon","coordinates":[[[103.757893,0.01443],[103.757689,0.01289],[103.757838,0.011283],[103.74698,0.010658],[103.74448,0.010408],[103.737549,0.009303],[103.737326,0.010539],[103.736852,0.011433],[103.737365,0.011696],[103.737641,0.012287],[103.73797,0.012589],[103.737935,0.012918],[103.738475,0.013208],[103.740051,0.013485],[103.746151,0.015186],[103.746931,0.015787],[103.757553,0.015834],[103.757929,0.014913],[103.757893,0.01443]]]}}]}