{"type":"FeatureCollection","features":[{"type":"Feature","properties":{"kdkec":"1403110","nmkec":"MANDAH","kddesa":"1403110017","nmdesa":"BIDARI TANJUNG DATUK","idsubsls":"1403110017000300","kdsubsls":"00"},"geometry":{"type":"Polygon","coordinates":[[[103.775406,0.006425],[103.758432,0.006456],[103.757998,0.007192],[103.757689,0.01289],[103.757893,0.01443],[103.778787,0.016412],[103.77982,0.014308],[103.779168,0.012778],[103.77829,0.01179],[103.774693,0.009931],[103.774321,0.007748],[103.775406,0.006425]]]}}]}