{"type":"FeatureCollection","features":[{"type":"Feature","properties":{"kdkec":"1403110","nmkec":"MANDAH","kddesa":"1403110017","nmdesa":"BIDARI TANJUNG DATUK","idsubsls":"1403110017000800","kdsubsls":"00"},"geometry":{"type":"Polygon","coordinates":[[[103.764303,0.028773],[103.764066,0.029381],[103.762289,0.028739],[103.752695,0.063977],[103.758529,0.065617],[103.759767,0.061303],[103.761414,0.050955],[103.763192,0.044189],[103.763808,0.04118],[103.765975,0.034266],[103.766344,0.033693],[103.766454,0.032282],[103.766947,0.030684],[103.767055,0.029931],[103.764303,0.028773]]]}}]}