{"type":"FeatureCollection","features":[{"type":"Feature","properties":{"kdkec":"1403110","nmkec":"MANDAH","kddesa":"1403110017","nmdesa":"BIDARI TANJUNG DATUK","idsubsls":"1403110017200100","kdsubsls":"00"},"geometry":{"type":"Polygon","coordinates":[[[103.775406,0.006425],[103.775747,0.005974],[103.77551,0.005425],[103.77576,0.004871],[103.775735,0.004419],[103.775436,0.004273],[103.77529,0.003968],[103.77504,0.002017],[103.775168,0.001304],[103.775595,0.000755],[103.776351,-0.001476],[103.776894,-0.003537],[103.778186,-0.005902],[103.777906,-0.010217],[103.765729,-0.010459],[103.763018,-0.010643],[103.76133,-0.01103],[103.755065,-0.013162],[103.752735,-0.013306],[103.749185,-0.014479],[103.746104,-0.006729],[103.744394,-0.007263],[103.743978,-0.006934],[103.743329,-0.005778],[103.741915,-0.004966],[103.741609,-0.005154],[103.741656,-0.005899],[103.741405,-0.006143],[103.741102,-0.006184],[103.74077,-0.005909],[103.740573,-0.005314],[103.739912,-0.004469],[103.739965,-0.003405],[103.739236,-0.001624],[103.738776,0.000207],[103.737707,0.00716],[103.738127,0.008409],[103.737983,0.008869],[103.737549,0.009303],[103.74448,0.010408],[103.74698,0.010658],[103.757838,0.011283],[103.757998,0.007192],[103.758432,0.006456],[103.775406,0.006425]]]}}]}