{"type":"FeatureCollection","features":[{"type":"Feature","properties":{"kdkec":"1403010","nmkec":"KERITANG","kddesa":"1403010003","nmdesa":"PEBENAAN","idsubsls":"1403010003001800","kdsubsls":"00"},"geometry":{"type":"Polygon","coordinates":[[[103.017953,-0.629075],[103.015282,-0.643215],[103.014653,-0.651546],[103.015767,-0.660005],[103.017319,-0.668648],[103.014408,-0.669495],[103.014408,-0.67233],[103.01509,-0.680063],[103.015735,-0.685216],[103.016035,-0.686465],[103.014679,-0.686826],[103.014739,-0.687052],[103.014209,-0.687188],[103.01404,-0.686247],[103.013774,-0.685692],[103.012389,-0.677096],[103.011784,-0.674639],[103.011703,-0.672019],[103.011916,-0.668482],[103.01229,-0.66628],[103.012566,-0.660318],[103.012582,-0.656858],[103.012176,-0.651383],[103.01242,-0.643308],[103.012338,-0.641083],[103.012891,-0.637833],[103.014369,-0.634844],[103.015027,-0.633114],[103.014748,-0.628126],[103.017953,-0.629075]]]}}]}