{"type":"FeatureCollection","features":[{"type":"Feature","properties":{"kdkec":"1403080","nmkec":"BATANG TUAKA","kddesa":"1403080006","nmdesa":"SUNGAI PIRING","idsubsls":"1403080006000100","kdsubsls":"00"},"geometry":{"type":"Polygon","coordinates":[[[103.286833,-0.22844],[103.292951,-0.229958],[103.295314,-0.23075],[103.294625,-0.236838],[103.286797,-0.236507],[103.286292,-0.23651],[103.286278,-0.237203],[103.282205,-0.236903],[103.282269,-0.236401],[103.281754,-0.236318],[103.281717,-0.235573],[103.281527,-0.23521],[103.281538,-0.233885],[103.28386,-0.228333],[103.286833,-0.22844]]]}}]}