{"type":"FeatureCollection","features":[{"type":"Feature","properties":{"kdkec":"1403080","nmkec":"BATANG TUAKA","kddesa":"1403080006","nmdesa":"SUNGAI PIRING","idsubsls":"1403080006001700","kdsubsls":"00"},"geometry":{"type":"Polygon","coordinates":[[[103.283554,-0.225938],[103.281618,-0.225418],[103.281153,-0.227218],[103.278693,-0.226701],[103.275517,-0.216779],[103.284669,-0.215671],[103.284597,-0.215862],[103.286336,-0.215616],[103.286354,-0.215805],[103.287233,-0.216548],[103.287528,-0.216568],[103.283554,-0.225938]]]}}]}