{"type":"FeatureCollection","features":[{"type":"Feature","properties":{"kdkec":"1403080","nmkec":"BATANG TUAKA","kddesa":"1403080006","nmdesa":"SUNGAI PIRING","idsubsls":"1403080006000800","kdsubsls":"00"},"geometry":{"type":"Polygon","coordinates":[[[103.274729,-0.231249],[103.276616,-0.235485],[103.27712,-0.238365],[103.276476,-0.238342],[103.275871,-0.236561],[103.274367,-0.233608],[103.273282,-0.2309],[103.27303,-0.229666],[103.272596,-0.228935],[103.271842,-0.229084],[103.269432,-0.228867],[103.267649,-0.229312],[103.267101,-0.228958],[103.266438,-0.22809],[103.26613,-0.227119],[103.266313,-0.225325],[103.265856,-0.223257],[103.265239,-0.222526],[103.264485,-0.222206],[103.262837,-0.222206],[103.261172,-0.219658],[103.264285,-0.22019],[103.272556,-0.228035],[103.274729,-0.231249]]]}}]}