{"type":"FeatureCollection","features":[{"type":"Feature","properties":{"kdkec":"1403080","nmkec":"BATANG TUAKA","kddesa":"1403080006","nmdesa":"SUNGAI PIRING","idsubsls":"1403080006001600","kdsubsls":"00"},"geometry":{"type":"Polygon","coordinates":[[[103.235477,-0.215562],[103.264591,-0.230661],[103.265325,-0.233283],[103.255653,-0.238854],[103.251918,-0.231911],[103.247903,-0.230005],[103.241939,-0.228241],[103.235794,-0.22449],[103.228277,-0.221924],[103.221482,-0.21406],[103.21984,-0.212713],[103.223874,-0.209545],[103.235477,-0.215562]]]}}]}