{"type":"FeatureCollection","features":[{"type":"Feature","properties":{"kdkec":"1403120","nmkec":"KATEMAN","kddesa":"1403120009","nmdesa":"MAKMUR JAYA","idsubsls":"1403120009000200","kdsubsls":"00"},"geometry":{"type":"Polygon","coordinates":[[[103.753113,0.128375],[103.752863,0.127696],[103.752339,0.127844],[103.750753,0.126073],[103.749231,0.125145],[103.748964,0.125371],[103.748566,0.126201],[103.747588,0.126407],[103.747388,0.126278],[103.74677,0.124958],[103.745284,0.124603],[103.745015,0.123919],[103.744055,0.124099],[103.741033,0.131492],[103.74018,0.136136],[103.739241,0.144372],[103.740683,0.145096],[103.742383,0.145493],[103.742681,0.145963],[103.744156,0.146056],[103.745055,0.147131],[103.745413,0.147336],[103.74661,0.147475],[103.747263,0.147268],[103.747626,0.145103],[103.753113,0.128375]]]}}]}