{"type":"FeatureCollection","features":[{"type":"Feature","properties":{"kdkec":"1403120","nmkec":"KATEMAN","kddesa":"1403120009","nmdesa":"MAKMUR JAYA","idsubsls":"1403120009000600","kdsubsls":"00"},"geometry":{"type":"Polygon","coordinates":[[[103.733398,0.119666],[103.733714,0.119516],[103.735334,0.119591],[103.736053,0.120358],[103.736887,0.120536],[103.737592,0.121208],[103.738494,0.121542],[103.738916,0.120659],[103.738981,0.11827],[103.738464,0.109314],[103.738636,0.108022],[103.742289,0.101528],[103.736198,0.09958],[103.731446,0.107506],[103.730483,0.118543],[103.730975,0.118949],[103.731155,0.119357],[103.732172,0.119684],[103.733398,0.119666]]]}}]}