{"type":"FeatureCollection","features":[{"type":"Feature","properties":{"kdkec":"1403020","nmkec":"RETEH","kddesa":"1403020004","nmdesa":"SUNGAI UNDAN","idsubsls":"1403020004200200","kdsubsls":"00"},"geometry":{"type":"Polygon","coordinates":[[[103.3803,-0.697519],[103.383857,-0.698824],[103.382691,-0.701298],[103.386461,-0.702917],[103.387562,-0.700615],[103.391034,-0.702544],[103.394514,-0.703985],[103.395465,-0.704737],[103.404967,-0.706198],[103.412824,-0.70629],[103.428616,-0.706897],[103.433729,-0.708211],[103.435684,-0.708987],[103.437212,-0.711016],[103.437308,-0.711558],[103.436421,-0.717471],[103.434906,-0.720638],[103.402616,-0.71406],[103.373186,-0.70405],[103.364492,-0.705198],[103.349682,-0.70683],[103.329365,-0.717804],[103.32606,-0.718131],[103.323531,-0.719477],[103.322989,-0.718931],[103.321635,-0.719265],[103.316968,-0.719377],[103.315148,-0.701395],[103.320131,-0.698948],[103.32723,-0.697883],[103.335123,-0.698615],[103.345812,-0.69825],[103.356683,-0.69825],[103.369748,-0.695692],[103.375574,-0.695813],[103.3803,-0.697519]]]}}]}