{"type":"FeatureCollection","features":[{"type":"Feature","properties":{"kdkec":"1403020","nmkec":"RETEH","kddesa":"1403020004","nmdesa":"SUNGAI UNDAN","idsubsls":"1403020004200300","kdsubsls":"00"},"geometry":{"type":"Polygon","coordinates":[[[103.384509,-0.671039],[103.393813,-0.672538],[103.392445,-0.692095],[103.391017,-0.691302],[103.379806,-0.689111],[103.374933,-0.688598],[103.372121,-0.688571],[103.365786,-0.689991],[103.360106,-0.69152],[103.357922,-0.691848],[103.348092,-0.692722],[103.337934,-0.692722],[103.323702,-0.693407],[103.316621,-0.695302],[103.314407,-0.696074],[103.314145,-0.692997],[103.313631,-0.689833],[103.327604,-0.683946],[103.326185,-0.677838],[103.339063,-0.673343],[103.354476,-0.668261],[103.384509,-0.671039]]]}}]}