{"type":"FeatureCollection","features":[{"type":"Feature","properties":{"kdkec":"1403020","nmkec":"RETEH","kddesa":"1403020004","nmdesa":"SUNGAI UNDAN","idsubsls":"1403020004100400","kdsubsls":"00"},"geometry":{"type":"Polygon","coordinates":[[[103.280191,-0.673554],[103.282995,-0.673062],[103.284524,-0.672406],[103.287473,-0.672188],[103.290181,-0.671329],[103.294354,-0.69352],[103.313631,-0.689833],[103.314145,-0.692997],[103.314407,-0.696074],[103.30899,-0.697965],[103.305713,-0.698838],[103.302109,-0.700149],[103.298177,-0.700258],[103.295992,-0.701023],[103.291623,-0.701787],[103.287364,-0.701897],[103.277752,-0.698729],[103.273711,-0.696982],[103.266611,-0.696763],[103.262679,-0.6972],[103.262133,-0.697418],[103.260822,-0.697091],[103.258529,-0.697418],[103.254051,-0.697528],[103.250228,-0.696545],[103.2484,-0.695227],[103.245094,-0.693814],[103.244111,-0.693705],[103.240835,-0.691411],[103.237667,-0.688244],[103.235483,-0.684967],[103.236793,-0.684312],[103.238322,-0.682564],[103.239415,-0.682236],[103.240734,-0.681224],[103.245897,-0.680989],[103.254111,-0.681067],[103.259743,-0.679659],[103.262788,-0.679178],[103.26672,-0.677103],[103.26956,-0.67612],[103.27456,-0.675026],[103.278626,-0.673826],[103.280191,-0.673554]]]}}]}