{"type":"FeatureCollection","features":[{"type":"Feature","properties":{"kdkec":"1403020","nmkec":"RETEH","kddesa":"1403020004","nmdesa":"SUNGAI UNDAN","idsubsls":"1403020004000500","kdsubsls":"00"},"geometry":{"type":"Polygon","coordinates":[[[103.239279,-0.730313],[103.239163,-0.73175],[103.237155,-0.743317],[103.233778,-0.757916],[103.231965,-0.764878],[103.230268,-0.764572],[103.231589,-0.753819],[103.231977,-0.748739],[103.23493,-0.731192],[103.237264,-0.731338],[103.23749,-0.73014],[103.239279,-0.730313]]]}}]}