{"type":"FeatureCollection","features":[{"type":"Feature","properties":{"kdkec":"1403040","nmkec":"TANAH MERAH","kddesa":"1403040008","nmdesa":"TEKULAI HULU","idsubsls":"1403040008000400","kdsubsls":"00"},"geometry":{"type":"Polygon","coordinates":[[[103.267958,-0.390344],[103.267532,-0.391588],[103.247536,-0.422575],[103.242506,-0.422558],[103.25779,-0.400693],[103.264958,-0.391692],[103.265613,-0.392408],[103.266927,-0.390758],[103.266954,-0.389717],[103.267421,-0.389748],[103.267401,-0.390347],[103.267958,-0.390344]]]}}]}