{"type":"FeatureCollection","features":[{"type":"Feature","properties":{"kdkec":"1403080","nmkec":"BATANG TUAKA","kddesa":"1403080002","nmdesa":"SUNGAI RAYA","idsubsls":"1403080002000500","kdsubsls":"00"},"geometry":{"type":"Polygon","coordinates":[[[103.095566,-0.316411],[103.094583,-0.322491],[103.060912,-0.306117],[103.058684,-0.307587],[103.056932,-0.306267],[103.060189,-0.304173],[103.061048,-0.304693],[103.062082,-0.30444],[103.065623,-0.302384],[103.095658,-0.316041],[103.095566,-0.316411]]]}}]}