{"type":"FeatureCollection","features":[{"type":"Feature","properties":{"kdkec":"1403080","nmkec":"BATANG TUAKA","kddesa":"1403080002","nmdesa":"SUNGAI RAYA","idsubsls":"1403080002100300","kdsubsls":"00"},"geometry":{"type":"Polygon","coordinates":[[[103.082211,-0.298091],[103.087263,-0.299856],[103.088918,-0.301197],[103.094954,-0.302397],[103.094827,-0.302882],[103.099094,-0.304706],[103.099891,-0.3062],[103.098297,-0.306914],[103.0977,-0.308125],[103.092372,-0.305971],[103.079276,-0.299942],[103.082211,-0.298091]]]}}]}