{"type":"FeatureCollection","features":[{"type":"Feature","properties":{"kdkec":"1403040","nmkec":"TANAH MERAH","kddesa":"1403040001","nmdesa":"SUNGAI NYIUR","idsubsls":"1403040001000600","kdsubsls":"00"},"geometry":{"type":"Polygon","coordinates":[[[103.301692,-0.566795],[103.301581,-0.56679],[103.301652,-0.561761],[103.307333,-0.561988],[103.306634,-0.563893],[103.30655,-0.564813],[103.306718,-0.565649],[103.306496,-0.566346],[103.305627,-0.566229],[103.305184,-0.567046],[103.301692,-0.566795]]]}}]}