{"type":"FeatureCollection","features":[{"type":"Feature","properties":{"kdkec":"1403040","nmkec":"TANAH MERAH","kddesa":"1403040001","nmdesa":"SUNGAI NYIUR","idsubsls":"1403040001200200","kdsubsls":"00"},"geometry":{"type":"Polygon","coordinates":[[[103.259524,-0.546034],[103.259283,-0.580325],[103.246999,-0.573625],[103.24836,-0.516156],[103.250214,-0.516493],[103.250006,-0.526174],[103.25046,-0.561173],[103.252924,-0.561112],[103.252433,-0.515418],[103.254177,-0.516449],[103.258651,-0.517067],[103.258476,-0.521999],[103.25961,-0.542976],[103.259524,-0.546034]]]}}]}