{"type":"FeatureCollection","features":[{"type":"Feature","properties":{"kdkec":"1403040","nmkec":"TANAH MERAH","kddesa":"1403040001","nmdesa":"SUNGAI NYIUR","idsubsls":"1403040001001300","kdsubsls":"00"},"geometry":{"type":"Polygon","coordinates":[[[103.282862,-0.540941],[103.267472,-0.564506],[103.263808,-0.562381],[103.264048,-0.518451],[103.266349,-0.520881],[103.268534,-0.52359],[103.269591,-0.524292],[103.271822,-0.524725],[103.275625,-0.524331],[103.278645,-0.524232],[103.279955,-0.524497],[103.281265,-0.525225],[103.281702,-0.52668],[103.281702,-0.528427],[103.277918,-0.537158],[103.278064,-0.538032],[103.2785,-0.538905],[103.280538,-0.540069],[103.282862,-0.540941]]]}}]}