{"type":"FeatureCollection","features":[{"type":"Feature","properties":{"kdkec":"1403110","nmkec":"MANDAH","kddesa":"1403110009","nmdesa":"BEKAWAN","idsubsls":"1403110009001000","kdsubsls":"00"},"geometry":{"type":"Polygon","coordinates":[[[103.754137,0.017754],[103.73805,0.017254],[103.738081,0.018439],[103.737215,0.019042],[103.73729,0.019397],[103.739675,0.019339],[103.739678,0.01983],[103.741122,0.019826],[103.741121,0.020173],[103.744439,0.020156],[103.75078,0.020503],[103.755112,0.021136],[103.754137,0.017754]]]}}]}