{"type":"FeatureCollection","features":[{"type":"Feature","properties":{"kdkec":"1403090","nmkec":"GAUNG ANAK SERKA","kddesa":"1403090010","nmdesa":"IDAMAN","idsubsls":"1403090010000200","kdsubsls":"00"},"geometry":{"type":"Polygon","coordinates":[[[103.181321,-0.165452],[103.180098,-0.166507],[103.176773,-0.176867],[103.174099,-0.186541],[103.173035,-0.198641],[103.170535,-0.198742],[103.17247,-0.186476],[103.175061,-0.176491],[103.180286,-0.165028],[103.180141,-0.164308],[103.180916,-0.163938],[103.180988,-0.164686],[103.181321,-0.165452]]]}}]}