{"type":"FeatureCollection","features":[{"type":"Feature","properties":{"kdkec":"1403090","nmkec":"GAUNG ANAK SERKA","kddesa":"1403090010","nmdesa":"IDAMAN","idsubsls":"1403090010001100","kdsubsls":"00"},"geometry":{"type":"Polygon","coordinates":[[[103.187332,-0.186245],[103.187413,-0.179445],[103.187073,-0.174922],[103.187222,-0.167098],[103.186923,-0.165372],[103.188762,-0.164336],[103.189148,-0.164791],[103.190185,-0.168108],[103.190164,-0.175355],[103.189,-0.187717],[103.187332,-0.186245]]]}}]}