{"type":"FeatureCollection","features":[{"type":"Feature","properties":{"kdkec":"1403122","nmkec":"TELUK BELENGKONG","kddesa":"1403122006","nmdesa":"SUMBER MAKMUR JAYA","idsubsls":"1403122006100100","kdsubsls":"00"},"geometry":{"type":"Polygon","coordinates":[[[103.267111,0.355442],[103.281108,0.342929],[103.254652,0.311428],[103.251325,0.314139],[103.192555,0.365808],[103.186909,0.370233],[103.177555,0.375664],[103.197239,0.395461],[103.20761,0.407812],[103.24838,0.372984],[103.246967,0.371171],[103.249818,0.368708],[103.250879,0.369922],[103.267111,0.355442]],[[103.256757,0.34346],[103.25587,0.342445],[103.258516,0.340144],[103.258709,0.34036],[103.259881,0.339362],[103.261799,0.341673],[103.261661,0.341794],[103.2629,0.343341],[103.26305,0.343216],[103.264033,0.344429],[103.261377,0.346739],[103.260361,0.345513],[103.259246,0.34645],[103.256757,0.34346]]]}}]}