{"type":"FeatureCollection","features":[{"type":"Feature","properties":{"kdkec":"1403090","nmkec":"GAUNG ANAK SERKA","kddesa":"1403090002","nmdesa":"SUNGAI EMPAT","idsubsls":"1403090002100200","kdsubsls":"00"},"geometry":{"type":"Polygon","coordinates":[[[103.169326,-0.123594],[103.171454,-0.134845],[103.171145,-0.146888],[103.171181,-0.154369],[103.172036,-0.154975],[103.17388,-0.156972],[103.173213,-0.159458],[103.172994,-0.161709],[103.171904,-0.166196],[103.167881,-0.163983],[103.165025,-0.158786],[103.162746,-0.150733],[103.162814,-0.138403],[103.160896,-0.128182],[103.164724,-0.125541],[103.169326,-0.123594]]]}}]}