{"type":"FeatureCollection","features":[{"type":"Feature","properties":{"kdkec":"1403090","nmkec":"GAUNG ANAK SERKA","kddesa":"1403090002","nmdesa":"SUNGAI EMPAT","idsubsls":"1403090002000200","kdsubsls":"00"},"geometry":{"type":"Polygon","coordinates":[[[103.196913,-0.149884],[103.196877,-0.148815],[103.197462,-0.148804],[103.197401,-0.149919],[103.19763,-0.149901],[103.19754,-0.151368],[103.196884,-0.151356],[103.196886,-0.151033],[103.196691,-0.150927],[103.19648,-0.149983],[103.196913,-0.149884]]]}}]}