{"type":"FeatureCollection","features":[{"type":"Feature","properties":{"kdkec":"1403110","nmkec":"MANDAH","kddesa":"1403110007","nmdesa":"BENTE","idsubsls":"1403110007001900","kdsubsls":"00"},"geometry":{"type":"Polygon","coordinates":[[[103.47803,0.10244],[103.478042,0.100828],[103.478866,0.09721],[103.478995,0.095551],[103.474493,0.095466],[103.471921,0.094843],[103.470704,0.094769],[103.461917,0.084864],[103.460162,0.083322],[103.455833,0.087329],[103.45507,0.088288],[103.453573,0.09113],[103.464749,0.096998],[103.47783,0.104372],[103.47803,0.10244]]]}}]}