{"type":"FeatureCollection","features":[{"type":"Feature","properties":{"kdkec":"1403110","nmkec":"MANDAH","kddesa":"1403110007","nmdesa":"BENTE","idsubsls":"1403110007003100","kdsubsls":"00"},"geometry":{"type":"Polygon","coordinates":[[[103.461608,0.042098],[103.464733,0.045953],[103.462599,0.047132],[103.462213,0.04652],[103.461432,0.047025],[103.461821,0.047674],[103.459905,0.048696],[103.46211,0.051864],[103.462647,0.051576],[103.463254,0.052428],[103.463791,0.052061],[103.46259,0.050053],[103.467357,0.047214],[103.466445,0.045125],[103.462961,0.04105],[103.461608,0.042098]]]}}]}