{"type":"FeatureCollection","features":[{"type":"Feature","properties":{"kdkec":"1403110","nmkec":"MANDAH","kddesa":"1403110007","nmdesa":"BENTE","idsubsls":"1403110007003000","kdsubsls":"00"},"geometry":{"type":"Polygon","coordinates":[[[103.467643,0.059712],[103.459905,0.048696],[103.45678,0.050541],[103.452495,0.053388],[103.449936,0.056273],[103.451016,0.056931],[103.459372,0.065367],[103.460156,0.064293],[103.46273,0.063303],[103.464909,0.061322],[103.466889,0.060728],[103.467643,0.059712]]]}}]}