{"type":"FeatureCollection","features":[{"type":"Feature","properties":{"kdkec":"1403110","nmkec":"MANDAH","kddesa":"1403110007","nmdesa":"BENTE","idsubsls":"1403110007003500","kdsubsls":"00"},"geometry":{"type":"Polygon","coordinates":[[[103.489147,0.040411],[103.487266,0.039783],[103.485004,0.037265],[103.484315,0.034638],[103.482506,0.032359],[103.476157,0.035381],[103.475793,0.035702],[103.488079,0.052014],[103.489268,0.051024],[103.49006,0.050034],[103.490456,0.04845],[103.490654,0.044885],[103.492178,0.042431],[103.489147,0.040411]]]}}]}