{"type":"FeatureCollection","features":[{"type":"Feature","properties":{"kdkec":"1403110","nmkec":"MANDAH","kddesa":"1403110007","nmdesa":"BENTE","idsubsls":"1403110007003200","kdsubsls":"00"},"geometry":{"type":"Polygon","coordinates":[[[103.471565,0.056475],[103.47184,0.056371],[103.47283,0.056569],[103.474542,0.057654],[103.475471,0.057568],[103.470607,0.051432],[103.470328,0.050776],[103.467357,0.047214],[103.46259,0.050053],[103.463791,0.052061],[103.463254,0.052428],[103.462647,0.051576],[103.46211,0.051864],[103.467643,0.059712],[103.469464,0.05756],[103.470256,0.056965],[103.471565,0.056475]]]}}]}