{"type":"FeatureCollection","features":[{"type":"Feature","properties":{"kdkec":"1403110","nmkec":"MANDAH","kddesa":"1403110007","nmdesa":"BENTE","idsubsls":"1403110007000100","kdsubsls":"00"},"geometry":{"type":"Polygon","coordinates":[[[103.573047,0.040171],[103.571947,0.039588],[103.570997,0.039312],[103.570093,0.039404],[103.569817,0.038117],[103.569863,0.035696],[103.569526,0.033643],[103.568438,0.033765],[103.567596,0.033398],[103.566906,0.032601],[103.566063,0.032586],[103.565987,0.031099],[103.565742,0.030027],[103.56542,0.029598],[103.564746,0.029536],[103.563305,0.030011],[103.562172,0.031436],[103.562401,0.033107],[103.562202,0.033842],[103.562938,0.036018],[103.56257,0.036646],[103.562662,0.037964],[103.562447,0.038331],[103.560685,0.039542],[103.560287,0.039435],[103.559168,0.039971],[103.559582,0.04158],[103.559153,0.041748],[103.558632,0.041426],[103.556916,0.041013],[103.555767,0.041518],[103.555935,0.042254],[103.556656,0.043326],[103.556977,0.044767],[103.556686,0.045594],[103.555828,0.046176],[103.556165,0.047678],[103.556135,0.04826],[103.561558,0.045525],[103.562037,0.046243],[103.573047,0.040171]]]}}]}