{"type":"FeatureCollection","features":[{"type":"Feature","properties":{"kdkec":"1403050","nmkec":"KUALA INDRAGIRI","kddesa":"1403050001","nmdesa":"TANJUNG LAJAU","idsubsls":"1403050001001400","kdsubsls":"00"},"geometry":{"type":"Polygon","coordinates":[[[103.490839,-0.429681],[103.489561,-0.427514],[103.487927,-0.425296],[103.487534,-0.419272],[103.487592,-0.418178],[103.488526,-0.4165],[103.489415,-0.412664],[103.490101,-0.410476],[103.491866,-0.405997],[103.492855,-0.402015],[103.492946,-0.40059],[103.500321,-0.40232],[103.500756,-0.425709],[103.499536,-0.434561],[103.489358,-0.434696],[103.490839,-0.429681]]]}}]}