{"type":"FeatureCollection","features":[{"type":"Feature","properties":{"kdkec":"1403050","nmkec":"KUALA INDRAGIRI","kddesa":"1403050003","nmdesa":"SUNGAI BELA","idsubsls":"1403050003001600","kdsubsls":"00"},"geometry":{"type":"Polygon","coordinates":[[[103.587752,-0.387364],[103.587908,-0.38704],[103.588615,-0.387458],[103.588346,-0.387964],[103.588994,-0.388293],[103.588696,-0.388831],[103.58829,-0.388631],[103.588055,-0.388815],[103.58702,-0.388239],[103.587587,-0.387281],[103.587752,-0.387364]]]}}]}