{"type":"FeatureCollection","features":[{"type":"Feature","properties":{"kdkec":"1403080","nmkec":"BATANG TUAKA","kddesa":"1403080005","nmdesa":"SUNGAI DUSUN","idsubsls":"1403080005001300","kdsubsls":"00"},"geometry":{"type":"Polygon","coordinates":[[[103.200669,-0.208542],[103.201295,-0.213427],[103.201408,-0.227001],[103.201155,-0.231567],[103.198513,-0.239421],[103.196549,-0.236254],[103.198176,-0.226043],[103.198039,-0.208363],[103.194292,-0.193457],[103.193618,-0.187914],[103.194169,-0.186071],[103.199738,-0.185996],[103.200669,-0.208542]]]}}]}