{"type":"FeatureCollection","features":[{"type":"Feature","properties":{"kdkec":"1403080","nmkec":"BATANG TUAKA","kddesa":"1403080005","nmdesa":"SUNGAI DUSUN","idsubsls":"1403080005000800","kdsubsls":"00"},"geometry":{"type":"Polygon","coordinates":[[[103.222889,-0.237058],[103.223074,-0.229422],[103.224868,-0.217979],[103.228277,-0.221924],[103.22865,-0.22368],[103.226393,-0.232829],[103.225723,-0.241271],[103.223905,-0.240639],[103.222797,-0.240875],[103.221825,-0.240284],[103.222889,-0.237058]]]}}]}