{"type":"FeatureCollection","features":[{"type":"Feature","properties":{"kdkec":"1403060","nmkec":"TEMBILAHAN","kddesa":"1403060007","nmdesa":"SEBERANG TEMBILAHAN BARAT","idsubsls":"1403060007000900","kdsubsls":"00"},"geometry":{"type":"Polygon","coordinates":[[[103.130539,-0.371978],[103.128607,-0.372576],[103.117885,-0.360247],[103.119646,-0.357556],[103.121275,-0.356381],[103.121855,-0.358214],[103.123835,-0.357094],[103.122799,-0.355535],[103.125342,-0.354156],[103.12702,-0.35682],[103.12767,-0.356624],[103.128357,-0.35813],[103.12745,-0.35852],[103.130539,-0.371978]]]}}]}