{"type":"FeatureCollection","features":[{"type":"Feature","properties":{"kdkec":"1403060","nmkec":"TEMBILAHAN","kddesa":"1403060007","nmdesa":"SEBERANG TEMBILAHAN BARAT","idsubsls":"1403060007000300","kdsubsls":"00"},"geometry":{"type":"Polygon","coordinates":[[[103.161852,-0.38233],[103.169698,-0.395372],[103.172802,-0.399765],[103.169742,-0.40154],[103.168461,-0.399134],[103.162207,-0.391575],[103.159126,-0.387379],[103.153715,-0.376332],[103.151791,-0.371813],[103.155897,-0.370342],[103.161852,-0.38233]]]}}]}