{"type":"FeatureCollection","features":[{"type":"Feature","properties":{"kdkec":"1403060","nmkec":"TEMBILAHAN","kddesa":"1403060007","nmdesa":"SEBERANG TEMBILAHAN BARAT","idsubsls":"1403060007000500","kdsubsls":"00"},"geometry":{"type":"Polygon","coordinates":[[[103.150514,-0.368814],[103.153715,-0.376332],[103.159126,-0.387379],[103.162207,-0.391575],[103.168461,-0.399134],[103.176727,-0.414578],[103.175958,-0.415154],[103.173336,-0.419027],[103.163994,-0.406884],[103.157233,-0.395671],[103.145163,-0.376497],[103.14379,-0.372785],[103.14301,-0.370095],[103.149973,-0.367523],[103.150514,-0.368814]]]}}]}