{"type":"FeatureCollection","features":[{"type":"Feature","properties":{"kdkec":"1403060","nmkec":"TEMBILAHAN","kddesa":"1403060007","nmdesa":"SEBERANG TEMBILAHAN BARAT","idsubsls":"1403060007000800","kdsubsls":"00"},"geometry":{"type":"Polygon","coordinates":[[[103.133831,-0.355119],[103.137106,-0.360953],[103.137262,-0.362419],[103.140476,-0.375335],[103.142141,-0.379275],[103.146419,-0.392944],[103.165442,-0.424055],[103.160178,-0.427388],[103.143635,-0.400752],[103.130539,-0.371978],[103.12745,-0.35852],[103.128357,-0.35813],[103.12767,-0.356624],[103.12702,-0.35682],[103.125342,-0.354156],[103.130893,-0.351056],[103.133831,-0.355119]]]}}]}