{"type":"FeatureCollection","features":[{"type":"Feature","properties":{"kdkec":"1403060","nmkec":"TEMBILAHAN","kddesa":"1403060007","nmdesa":"SEBERANG TEMBILAHAN BARAT","idsubsls":"1403060007000700","kdsubsls":"00"},"geometry":{"type":"Polygon","coordinates":[[[103.14301,-0.370095],[103.14379,-0.372785],[103.145163,-0.376497],[103.146063,-0.377927],[103.142141,-0.379275],[103.140476,-0.375335],[103.137262,-0.362419],[103.137106,-0.360953],[103.133831,-0.355119],[103.130893,-0.351056],[103.13454,-0.349042],[103.139735,-0.35703],[103.140608,-0.358933],[103.140827,-0.361304],[103.140795,-0.36277],[103.14301,-0.370095]]]}}]}