{"type":"FeatureCollection","features":[{"type":"Feature","properties":{"kdkec":"1403050","nmkec":"KUALA INDRAGIRI","kddesa":"1403050009","nmdesa":"SAPAT","idsubsls":"1403050009200100","kdsubsls":"00"},"geometry":{"type":"Polygon","coordinates":[[[103.308882,-0.303533],[103.313891,-0.30792],[103.319309,-0.309322],[103.336993,-0.308303],[103.346432,-0.303402],[103.350334,-0.299681],[103.352333,-0.298443],[103.358968,-0.307381],[103.356194,-0.307589],[103.354954,-0.308674],[103.353868,-0.311],[103.352318,-0.311775],[103.350923,-0.31162],[103.346117,-0.316271],[103.343171,-0.321697],[103.33945,-0.327279],[103.333249,-0.335496],[103.329612,-0.339832],[103.324782,-0.334669],[103.321206,-0.331694],[103.315391,-0.328207],[103.316598,-0.325877],[103.315639,-0.325487],[103.315786,-0.325143],[103.315966,-0.325207],[103.317191,-0.32294],[103.318485,-0.319833],[103.316118,-0.318781],[103.314797,-0.321907],[103.315267,-0.322114],[103.314649,-0.323534],[103.31255,-0.322623],[103.312361,-0.322532],[103.312476,-0.322257],[103.309077,-0.320606],[103.310877,-0.316455],[103.304403,-0.313198],[103.308882,-0.303533]]]}}]}