{"type":"FeatureCollection","features":[{"type":"Feature","properties":{"kdkec":"1403050","nmkec":"KUALA INDRAGIRI","kddesa":"1403050009","nmdesa":"SAPAT","idsubsls":"1403050009000300","kdsubsls":"00"},"geometry":{"type":"Polygon","coordinates":[[[103.312883,-0.326682],[103.313197,-0.326024],[103.312904,-0.325881],[103.313342,-0.325309],[103.313976,-0.325607],[103.31425,-0.325037],[103.315,-0.325465],[103.314509,-0.326454],[103.314163,-0.326272],[103.314027,-0.326561],[103.313695,-0.326405],[103.313402,-0.326997],[103.312883,-0.326682]]]}}]}