{"type":"FeatureCollection","features":[{"type":"Feature","properties":{"kdkec":"1403080","nmkec":"BATANG TUAKA","kddesa":"1403080007","nmdesa":"TANJUNG SIANTAR","idsubsls":"1403080007000400","kdsubsls":"00"},"geometry":{"type":"Polygon","coordinates":[[[103.125081,-0.279395],[103.123213,-0.277781],[103.124297,-0.277118],[103.126747,-0.282075],[103.129843,-0.287001],[103.128994,-0.28787],[103.126775,-0.285796],[103.123667,-0.282456],[103.12365,-0.282102],[103.125596,-0.281893],[103.125399,-0.280083],[103.125081,-0.279395]]]}}]}