{"type":"FeatureCollection","features":[{"type":"Feature","properties":{"kdkec":"1403080","nmkec":"BATANG TUAKA","kddesa":"1403080007","nmdesa":"TANJUNG SIANTAR","idsubsls":"1403080007000600","kdsubsls":"00"},"geometry":{"type":"Polygon","coordinates":[[[103.11893,-0.280028],[103.112241,-0.279745],[103.110526,-0.280784],[103.100856,-0.279266],[103.100848,-0.278306],[103.099256,-0.274849],[103.122731,-0.273388],[103.123192,-0.27405],[103.124297,-0.277118],[103.123202,-0.277787],[103.12222,-0.277825],[103.11893,-0.280028]]]}}]}