{"type":"FeatureCollection","features":[{"type":"Feature","properties":{"kdkec":"1403080","nmkec":"BATANG TUAKA","kddesa":"1403080007","nmdesa":"TANJUNG SIANTAR","idsubsls":"1403080007100200","kdsubsls":"00"},"geometry":{"type":"Polygon","coordinates":[[[103.125673,-0.268829],[103.126668,-0.270134],[103.12962,-0.269625],[103.131458,-0.271774],[103.124297,-0.277118],[103.123152,-0.273993],[103.123729,-0.272452],[103.123517,-0.271564],[103.122482,-0.271183],[103.122005,-0.270808],[103.121264,-0.27064],[103.120045,-0.268783],[103.118695,-0.267183],[103.118005,-0.266809],[103.115567,-0.266772],[103.113645,-0.266254],[103.110623,-0.263125],[103.113526,-0.253672],[103.118571,-0.26049],[103.123118,-0.266048],[103.125673,-0.268829]]]}}]}