{"type":"FeatureCollection","features":[{"type":"Feature","properties":{"kdkec":"1403021","nmkec":"SUNGAI BATANG","kddesa":"1403021007","nmdesa":"PANDAN SARI","idsubsls":"1403021007001100","kdsubsls":"00"},"geometry":{"type":"Polygon","coordinates":[[[103.314279,-0.618156],[103.316128,-0.621145],[103.312591,-0.623262],[103.310903,-0.620501],[103.306078,-0.604639],[103.304498,-0.595192],[103.310526,-0.592867],[103.314114,-0.610734],[103.315425,-0.614072],[103.313161,-0.614745],[103.314279,-0.618156]]]}}]}