{"type":"FeatureCollection","features":[{"type":"Feature","properties":{"kdkec":"1403040","nmkec":"TANAH MERAH","kddesa":"1403040009","nmdesa":"TEKULAI HILIR","idsubsls":"1403040009200200","kdsubsls":"00"},"geometry":{"type":"Polygon","coordinates":[[[103.290511,-0.399437],[103.291093,-0.406576],[103.320454,-0.399151],[103.322098,-0.400202],[103.325616,-0.401652],[103.328167,-0.4021],[103.306749,-0.407847],[103.307421,-0.413601],[103.300372,-0.415519],[103.299509,-0.41106],[103.291645,-0.413361],[103.293131,-0.420218],[103.270746,-0.428239],[103.271871,-0.419558],[103.274087,-0.397903],[103.290511,-0.399437]]]}}]}