{"type":"FeatureCollection","features":[{"type":"Feature","properties":{"kdkec":"1403040","nmkec":"TANAH MERAH","kddesa":"1403040009","nmdesa":"TEKULAI HILIR","idsubsls":"1403040009000600","kdsubsls":"00"},"geometry":{"type":"Polygon","coordinates":[[[103.284729,-0.393315],[103.284775,-0.393849],[103.284148,-0.395606],[103.284315,-0.396085],[103.284675,-0.396337],[103.285202,-0.396349],[103.286509,-0.395884],[103.287605,-0.396307],[103.28877,-0.39567],[103.289627,-0.39557],[103.290167,-0.3957],[103.291288,-0.395454],[103.290511,-0.399437],[103.274087,-0.397903],[103.275216,-0.389683],[103.278451,-0.389817],[103.279592,-0.389725],[103.280071,-0.389799],[103.280881,-0.390738],[103.281341,-0.390756],[103.28234,-0.391189],[103.283357,-0.3909],[103.283463,-0.392178],[103.283624,-0.392505],[103.284729,-0.393315]]]}}]}