{"type":"FeatureCollection","features":[{"type":"Feature","properties":{"kdkec":"1403010","nmkec":"KERITANG","kddesa":"1403010008","nmdesa":"KUALA KERITANG","idsubsls":"1403010008002400","kdsubsls":"00"},"geometry":{"type":"Polygon","coordinates":[[[102.8678,-0.758886],[102.87178,-0.762395],[102.872495,-0.762252],[102.879742,-0.76519],[102.879765,-0.777944],[102.874746,-0.77081],[102.872107,-0.767582],[102.87146,-0.766312],[102.871109,-0.764768],[102.869989,-0.763376],[102.866721,-0.760558],[102.8678,-0.758886]]]}}]}