{"type":"FeatureCollection","features":[{"type":"Feature","properties":{"kdkec":"1403010","nmkec":"KERITANG","kddesa":"1403010008","nmdesa":"KUALA KERITANG","idsubsls":"1403010008000900","kdsubsls":"00"},"geometry":{"type":"Polygon","coordinates":[[[102.840139,-0.800633],[102.838787,-0.805833],[102.836989,-0.81188],[102.834112,-0.811181],[102.835067,-0.807769],[102.836339,-0.797817],[102.836593,-0.792856],[102.836592,-0.788073],[102.836307,-0.786132],[102.836434,-0.76511],[102.836732,-0.76554],[102.836854,-0.766329],[102.839094,-0.767564],[102.839586,-0.76443],[102.841391,-0.762757],[102.842082,-0.762387],[102.842062,-0.772304],[102.841633,-0.790905],[102.840139,-0.800633]]]}}]}