{"type":"FeatureCollection","features":[{"type":"Feature","properties":{"kdkec":"1403010","nmkec":"KERITANG","kddesa":"1403010008","nmdesa":"KUALA KERITANG","idsubsls":"1403010008003100","kdsubsls":"00"},"geometry":{"type":"Polygon","coordinates":[[[102.871896,-0.737437],[102.868076,-0.735854],[102.86938,-0.732777],[102.868999,-0.732571],[102.868831,-0.732121],[102.871732,-0.730081],[102.877705,-0.72078],[102.87984,-0.716849],[102.881131,-0.713285],[102.881254,-0.715151],[102.873354,-0.733064],[102.871896,-0.737437]]]}}]}