{"type":"FeatureCollection","features":[{"type":"Feature","properties":{"kdkec":"1403010","nmkec":"KERITANG","kddesa":"1403010008","nmdesa":"KUALA KERITANG","idsubsls":"1403010008100900","kdsubsls":"00"},"geometry":{"type":"Polygon","coordinates":[[[102.803069,-0.754995],[102.797441,-0.752766],[102.786127,-0.753261],[102.785965,-0.746558],[102.792618,-0.741557],[102.794142,-0.742298],[102.79767,-0.74349],[102.800031,-0.743646],[102.802371,-0.743331],[102.806864,-0.743661],[102.809549,-0.745197],[102.812482,-0.747927],[102.818319,-0.755681],[102.8242,-0.760435],[102.826203,-0.762836],[102.82704,-0.764873],[102.823306,-0.763405],[102.822893,-0.762674],[102.822496,-0.762419],[102.821256,-0.763055],[102.820979,-0.76341],[102.810691,-0.756292],[102.808204,-0.75486],[102.803069,-0.754995]]]}}]}