{"type":"FeatureCollection","features":[{"type":"Feature","properties":{"kdkec":"1403010","nmkec":"KERITANG","kddesa":"1403010008","nmdesa":"KUALA KERITANG","idsubsls":"1403010008000300","kdsubsls":"00"},"geometry":{"type":"Polygon","coordinates":[[[102.819225,-0.741089],[102.821063,-0.743792],[102.825087,-0.751279],[102.82736,-0.75396],[102.831144,-0.756344],[102.834006,-0.75892],[102.835755,-0.761177],[102.836263,-0.762481],[102.835907,-0.764934],[102.835428,-0.764952],[102.834735,-0.765234],[102.833579,-0.76667],[102.833389,-0.767243],[102.833119,-0.767512],[102.83296,-0.767307],[102.832324,-0.763229],[102.83102,-0.761274],[102.828635,-0.758714],[102.825201,-0.756012],[102.822497,-0.752964],[102.816941,-0.743454],[102.812092,-0.741076],[102.814061,-0.738711],[102.819225,-0.741089]]]}}]}