{"type":"FeatureCollection","features":[{"type":"Feature","properties":{"kdkec":"1403010","nmkec":"KERITANG","kddesa":"1403010008","nmdesa":"KUALA KERITANG","idsubsls":"1403010008002200","kdsubsls":"00"},"geometry":{"type":"Polygon","coordinates":[[[102.8713,-0.770094],[102.870341,-0.765747],[102.869577,-0.765106],[102.868819,-0.764712],[102.869372,-0.763573],[102.869602,-0.763688],[102.869811,-0.763264],[102.871109,-0.764768],[102.87146,-0.766312],[102.872107,-0.767582],[102.874746,-0.77081],[102.879765,-0.777944],[102.879981,-0.816452],[102.877251,-0.809246],[102.872318,-0.776114],[102.8713,-0.770094]]]}}]}