{"type":"FeatureCollection","features":[{"type":"Feature","properties":{"kdkec":"1403010","nmkec":"KERITANG","kddesa":"1403010008","nmdesa":"KUALA KERITANG","idsubsls":"1403010008101400","kdsubsls":"00"},"geometry":{"type":"Polygon","coordinates":[[[102.816429,-0.806801],[102.814525,-0.806163],[102.815067,-0.802081],[102.815067,-0.798838],[102.815894,-0.796104],[102.816371,-0.791748],[102.816403,-0.789045],[102.815894,-0.78542],[102.815099,-0.781477],[102.81288,-0.778566],[102.815167,-0.773389],[102.815126,-0.772393],[102.816848,-0.774148],[102.818024,-0.775818],[102.819455,-0.778695],[102.820155,-0.78162],[102.820441,-0.784609],[102.820504,-0.787948],[102.818978,-0.796533],[102.817404,-0.803941],[102.816429,-0.806801]]]}}]}