{"type":"FeatureCollection","features":[{"type":"Feature","properties":{"kdkec":"1403010","nmkec":"KERITANG","kddesa":"1403010008","nmdesa":"KUALA KERITANG","idsubsls":"1403010008101200","kdsubsls":"00"},"geometry":{"type":"Polygon","coordinates":[[[102.789905,-0.777642],[102.802857,-0.75859],[102.811188,-0.760318],[102.805464,-0.76404],[102.815136,-0.771512],[102.815167,-0.773389],[102.814594,-0.774915],[102.813529,-0.77695],[102.812305,-0.780066],[102.811955,-0.780289],[102.811097,-0.779589],[102.810826,-0.777857],[102.810556,-0.777252],[102.809189,-0.777268],[102.80814,-0.778286],[102.80655,-0.777984],[102.805167,-0.777411],[102.803418,-0.776299],[102.80283,-0.776299],[102.802528,-0.777189],[102.802369,-0.778413],[102.801208,-0.780671],[102.800938,-0.781704],[102.800942,-0.783899],[102.789905,-0.777642]]]}}]}