{"type":"FeatureCollection","features":[{"type":"Feature","properties":{"kdkec":"1403010","nmkec":"KERITANG","kddesa":"1403010008","nmdesa":"KUALA KERITANG","idsubsls":"1403010008001700","kdsubsls":"00"},"geometry":{"type":"Polygon","coordinates":[[[102.851825,-0.783073],[102.851546,-0.782705],[102.847658,-0.785326],[102.849292,-0.774582],[102.849101,-0.763373],[102.849196,-0.758127],[102.848942,-0.755492],[102.849912,-0.755571],[102.850961,-0.755396],[102.852328,-0.754236],[102.853139,-0.753044],[102.853195,-0.756958],[102.852813,-0.772761],[102.852764,-0.782433],[102.851825,-0.783073]]]}}]}