{"type":"FeatureCollection","features":[{"type":"Feature","properties":{"kdkec":"1403011","nmkec":"KEMUNING","kddesa":"1403011011","nmdesa":"LUBUK BESAR","idsubsls":"1403011011000700","kdsubsls":"00"},"geometry":{"type":"Polygon","coordinates":[[[102.829672,-0.859062],[102.841888,-0.868504],[102.850077,-0.871664],[102.848928,-0.87287],[102.840603,-0.869687],[102.828354,-0.86035],[102.828919,-0.86003],[102.82891,-0.859854],[102.828433,-0.859539],[102.828452,-0.859238],[102.828683,-0.859025],[102.828632,-0.858678],[102.829672,-0.859062]]]}}]}