{"type":"FeatureCollection","features":[{"type":"Feature","properties":{"kdkec":"1403011","nmkec":"KEMUNING","kddesa":"1403011011","nmdesa":"LUBUK BESAR","idsubsls":"1403011011001000","kdsubsls":"00"},"geometry":{"type":"Polygon","coordinates":[[[102.846775,-0.87447],[102.84891,-0.876491],[102.849003,-0.876422],[102.84935,-0.876698],[102.849274,-0.876805],[102.861781,-0.887644],[102.872855,-0.897878],[102.875821,-0.901872],[102.88557,-0.909897],[102.883043,-0.912564],[102.874766,-0.919773],[102.827241,-0.883077],[102.846775,-0.87447]]]}}]}