{"type":"FeatureCollection","features":[{"type":"Feature","properties":{"kdkec":"1403120","nmkec":"KATEMAN","kddesa":"1403120001","nmdesa":"SUNGAI SIMBAR","idsubsls":"1403120001003100","kdsubsls":"00"},"geometry":{"type":"Polygon","coordinates":[[[103.759647,0.098772],[103.762628,0.09877],[103.763906,0.099258],[103.764402,0.099666],[103.765437,0.099775],[103.767045,0.099721],[103.768946,0.099374],[103.770697,0.09968],[103.771558,0.099519],[103.772922,0.097768],[103.77351,0.097947],[103.774072,0.097568],[103.775626,0.097631],[103.782052,0.072652],[103.768882,0.068654],[103.754862,0.097354],[103.755998,0.097497],[103.757872,0.098452],[103.758893,0.098365],[103.759647,0.098772]]]}}]}