{"type":"FeatureCollection","features":[{"type":"Feature","properties":{"kdkec":"1403010","nmkec":"KERITANG","kddesa":"1403010015","nmdesa":"LINTAS UTARA","idsubsls":"1403010015001200","kdsubsls":"00"},"geometry":{"type":"Polygon","coordinates":[[[102.913101,-0.642758],[102.911174,-0.643513],[102.910762,-0.642771],[102.880574,-0.643949],[102.880543,-0.639308],[102.907191,-0.637644],[102.908352,-0.63724],[102.908039,-0.636617],[102.909397,-0.636043],[102.916345,-0.634462],[102.918856,-0.640231],[102.912951,-0.642528],[102.913101,-0.642758]]]}}]}