{"type":"FeatureCollection","features":[{"type":"Feature","properties":{"kdkec":"1403010","nmkec":"KERITANG","kddesa":"1403010015","nmdesa":"LINTAS UTARA","idsubsls":"1403010015100100","kdsubsls":"00"},"geometry":{"type":"Polygon","coordinates":[[[102.969455,-0.661817],[102.964861,-0.66301],[102.96371,-0.660393],[102.958274,-0.661995],[102.959092,-0.664508],[102.940988,-0.669188],[102.941774,-0.672538],[102.933815,-0.674601],[102.924587,-0.653399],[102.957806,-0.634918],[102.969455,-0.661817]],[[102.933371,-0.651483],[102.933001,-0.650842],[102.930826,-0.651983],[102.931733,-0.653634],[102.933989,-0.652554],[102.933371,-0.651483]]]}}]}