{"type":"FeatureCollection","features":[{"type":"Feature","properties":{"kdkec":"1403020","nmkec":"RETEH","kddesa":"1403020013","nmdesa":"SUNGAI ASAM","idsubsls":"1403020013000400","kdsubsls":"00"},"geometry":{"type":"Polygon","coordinates":[[[103.270065,-0.762782],[103.275051,-0.763014],[103.274012,-0.773119],[103.272809,-0.771528],[103.263249,-0.769403],[103.257475,-0.776461],[103.256896,-0.776313],[103.251981,-0.773875],[103.265548,-0.75715],[103.269394,-0.758947],[103.268352,-0.761927],[103.270065,-0.762782]]]}}]}