{"type":"FeatureCollection","features":[{"type":"Feature","properties":{"kdkec":"1403080","nmkec":"BATANG TUAKA","kddesa":"1403080007","nmdesa":"TANJUNG SIANTAR","idsubsls":"1403080007000800","kdsubsls":"00"},"geometry":{"type":"Polygon","coordinates":[[[103.110231,-0.288698],[103.105863,-0.288194],[103.10086,-0.280123],[103.100856,-0.279266],[103.110526,-0.280784],[103.110541,-0.281193],[103.121995,-0.285065],[103.120499,-0.289651],[103.118756,-0.288848],[103.117119,-0.292226],[103.113255,-0.289874],[103.110231,-0.288698]]]}}]}