{"type":"FeatureCollection","features":[{"type":"Feature","properties":{"kdkec":"1403010","nmkec":"KERITANG","kddesa":"1403010012","nmdesa":"PANCUR","idsubsls":"1403010012001500","kdsubsls":"00"},"geometry":{"type":"Polygon","coordinates":[[[102.691453,-0.613784],[102.690947,-0.626105],[102.690093,-0.629903],[102.690274,-0.631883],[102.690129,-0.63688],[102.688699,-0.641376],[102.685548,-0.640071],[102.682914,-0.638678],[102.680842,-0.636982],[102.679762,-0.637851],[102.678724,-0.640068],[102.677902,-0.643849],[102.676476,-0.644544],[102.675786,-0.644283],[102.675197,-0.642248],[102.675496,-0.639377],[102.67814,-0.635971],[102.678339,-0.632894],[102.678684,-0.63246],[102.680498,-0.631852],[102.683133,-0.63194],[102.683428,-0.631726],[102.6824,-0.630005],[102.680674,-0.626157],[102.680571,-0.624843],[102.683024,-0.623125],[102.686222,-0.620508],[102.689166,-0.617001],[102.691453,-0.613784]]]}}]}