{"type":"FeatureCollection","features":[{"type":"Feature","properties":{"kdkec":"1403010","nmkec":"KERITANG","kddesa":"1403010012","nmdesa":"PANCUR","idsubsls":"1403010012000700","kdsubsls":"00"},"geometry":{"type":"Polygon","coordinates":[[[102.726788,-0.654119],[102.725788,-0.650354],[102.725305,-0.645466],[102.724902,-0.634153],[102.723508,-0.626365],[102.719013,-0.606214],[102.715802,-0.606534],[102.716899,-0.611879],[102.713815,-0.611963],[102.712519,-0.602505],[102.708216,-0.592093],[102.709913,-0.592354],[102.715255,-0.592575],[102.72252,-0.603975],[102.727363,-0.621518],[102.725767,-0.621869],[102.72682,-0.62708],[102.727675,-0.640863],[102.729248,-0.652546],[102.728287,-0.653404],[102.726788,-0.654119]]]}}]}