{"type":"FeatureCollection","features":[{"type":"Feature","properties":{"kdkec":"1403010","nmkec":"KERITANG","kddesa":"1403010012","nmdesa":"PANCUR","idsubsls":"1403010012002200","kdsubsls":"00"},"geometry":{"type":"Polygon","coordinates":[[[102.723117,-0.730601],[102.721779,-0.723343],[102.721608,-0.699424],[102.72763,-0.691344],[102.727758,-0.681577],[102.728801,-0.659727],[102.730793,-0.656209],[102.731042,-0.657227],[102.732174,-0.65811],[102.733783,-0.658053],[102.73314,-0.662235],[102.7325,-0.665168],[102.730997,-0.676227],[102.730257,-0.688728],[102.728257,-0.707415],[102.725779,-0.727547],[102.726105,-0.742437],[102.721469,-0.740915],[102.723195,-0.73253],[102.723117,-0.730601]]]}}]}