{"type":"FeatureCollection","features":[{"type":"Feature","properties":{"kdkec":"1403010","nmkec":"KERITANG","kddesa":"1403010012","nmdesa":"PANCUR","idsubsls":"1403010012001600","kdsubsls":"00"},"geometry":{"type":"Polygon","coordinates":[[[102.698557,-0.590327],[102.696906,-0.596108],[102.696007,-0.609823],[102.694308,-0.609769],[102.689166,-0.617001],[102.686222,-0.620508],[102.683024,-0.623125],[102.680571,-0.624843],[102.680165,-0.62152],[102.680158,-0.619548],[102.680341,-0.61897],[102.680893,-0.618375],[102.680937,-0.617462],[102.679815,-0.614636],[102.678261,-0.613244],[102.677484,-0.612867],[102.674863,-0.612207],[102.673166,-0.611546],[102.680353,-0.59465],[102.680345,-0.589522],[102.681756,-0.589565],[102.681915,-0.589747],[102.695775,-0.589701],[102.698557,-0.590327]]]}}]}