{"type":"FeatureCollection","features":[{"type":"Feature","properties":{"kdkec":"1403010","nmkec":"KERITANG","kddesa":"1403010012","nmdesa":"PANCUR","idsubsls":"1403010012000900","kdsubsls":"00"},"geometry":{"type":"Polygon","coordinates":[[[102.720681,-0.645067],[102.719511,-0.653291],[102.719705,-0.656219],[102.715997,-0.656691],[102.716043,-0.654041],[102.716758,-0.648199],[102.717415,-0.638691],[102.715263,-0.627508],[102.714216,-0.620333],[102.713815,-0.611963],[102.716899,-0.611879],[102.717661,-0.622642],[102.721339,-0.634363],[102.720681,-0.645067]]]}}]}