{"type":"FeatureCollection","features":[{"type":"Feature","properties":{"kdkec":"1403010","nmkec":"KERITANG","kddesa":"1403010012","nmdesa":"PANCUR","idsubsls":"1403010012001000","kdsubsls":"00"},"geometry":{"type":"Polygon","coordinates":[[[102.708216,-0.592093],[102.712519,-0.602505],[102.713812,-0.611916],[102.714216,-0.620333],[102.715263,-0.627508],[102.717415,-0.638691],[102.716758,-0.648199],[102.716043,-0.654041],[102.715997,-0.656691],[102.714993,-0.656648],[102.712489,-0.656082],[102.710993,-0.655465],[102.711651,-0.653093],[102.712803,-0.647384],[102.712848,-0.638713],[102.712564,-0.629205],[102.71074,-0.6027],[102.708296,-0.600468],[102.706678,-0.591856],[102.708216,-0.592093]]]}}]}