{"type":"FeatureCollection","features":[{"type":"Feature","properties":{"kdkec":"1403100","nmkec":"GAUNG","kddesa":"1403100006","nmdesa":"SUNGAI BARU","idsubsls":"1403100006000400","kdsubsls":"00"},"geometry":{"type":"Polygon","coordinates":[[[103.301419,-0.118332],[103.302533,-0.11628],[103.30287,-0.115291],[103.303094,-0.115348],[103.304112,-0.113163],[103.304723,-0.113502],[103.30416,-0.114795],[103.304899,-0.115156],[103.298497,-0.12958],[103.29561,-0.127612],[103.29677,-0.125739],[103.298561,-0.123422],[103.300194,-0.120287],[103.301419,-0.118332]]]}}]}