{"type":"FeatureCollection","features":[{"type":"Feature","properties":{"kdkec":"1403030","nmkec":"ENOK","kddesa":"1403030013","nmdesa":"PANTAI SEBERANG MAKMUR","idsubsls":"1403030013100500","kdsubsls":"00"},"geometry":{"type":"Polygon","coordinates":[[[103.163448,-0.528905],[103.166419,-0.538758],[103.168388,-0.548127],[103.167432,-0.571197],[103.167629,-0.581298],[103.166123,-0.590256],[103.151186,-0.598299],[103.157275,-0.581029],[103.159746,-0.548577],[103.160936,-0.542341],[103.161355,-0.535452],[103.161487,-0.529659],[103.163448,-0.528905]]]}}]}