{"type":"FeatureCollection","features":[{"type":"Feature","properties":{"kdkec":"1403030","nmkec":"ENOK","kddesa":"1403030013","nmdesa":"PANTAI SEBERANG MAKMUR","idsubsls":"1403030013001700","kdsubsls":"00"},"geometry":{"type":"Polygon","coordinates":[[[103.179002,-0.583321],[103.179226,-0.571904],[103.179889,-0.566259],[103.179965,-0.558531],[103.179813,-0.557111],[103.179965,-0.553133],[103.181025,-0.540158],[103.18095,-0.538889],[103.180628,-0.537393],[103.180836,-0.533567],[103.180684,-0.530915],[103.180798,-0.528509],[103.180381,-0.526558],[103.180609,-0.521369],[103.180476,-0.519304],[103.179737,-0.516217],[103.17998,-0.515106],[103.181646,-0.515444],[103.182472,-0.515143],[103.182818,-0.519071],[103.182734,-0.52164],[103.182952,-0.528418],[103.182839,-0.52883],[103.182972,-0.53636],[103.182803,-0.539078],[103.182916,-0.541804],[103.182471,-0.545451],[103.181136,-0.552488],[103.182613,-0.558567],[103.181604,-0.565368],[103.180587,-0.582468],[103.179002,-0.583321]]]}}]}