{"type":"FeatureCollection","features":[{"type":"Feature","properties":{"kdkec":"1403030","nmkec":"ENOK","kddesa":"1403030013","nmdesa":"PANTAI SEBERANG MAKMUR","idsubsls":"1403030013100100","kdsubsls":"00"},"geometry":{"type":"Polygon","coordinates":[[[103.171086,-0.522405],[103.172081,-0.522321],[103.17369,-0.520961],[103.175034,-0.5252],[103.175259,-0.530112],[103.176466,-0.539114],[103.176042,-0.54741],[103.175717,-0.547873],[103.175985,-0.539377],[103.174719,-0.533356],[103.171086,-0.522405]]]}}]}