{"type":"FeatureCollection","features":[{"type":"Feature","properties":{"kdkec":"1403030","nmkec":"ENOK","kddesa":"1403030013","nmdesa":"PANTAI SEBERANG MAKMUR","idsubsls":"1403030013000600","kdsubsls":"00"},"geometry":{"type":"Polygon","coordinates":[[[103.204394,-0.517941],[103.203937,-0.525978],[103.203095,-0.534066],[103.202837,-0.542089],[103.201931,-0.553348],[103.201801,-0.560206],[103.20219,-0.567453],[103.202837,-0.573996],[103.198297,-0.572403],[103.197567,-0.569694],[103.195885,-0.560894],[103.19692,-0.536953],[103.198247,-0.517898],[103.199798,-0.516225],[103.200162,-0.516929],[103.20174,-0.518319],[103.203272,-0.518418],[103.204394,-0.517941]]]}}]}