{"type":"FeatureCollection","features":[{"type":"Feature","properties":{"kdkec":"1403030","nmkec":"ENOK","kddesa":"1403030010","nmdesa":"SIMPANG TIGA","idsubsls":"1403030010100100","kdsubsls":"00"},"geometry":{"type":"Polygon","coordinates":[[[103.175722,-0.469063],[103.176818,-0.475811],[103.177395,-0.475794],[103.179999,-0.476839],[103.180911,-0.477763],[103.1824,-0.478783],[103.184836,-0.479599],[103.185892,-0.480307],[103.186672,-0.481195],[103.187683,-0.482826],[103.187585,-0.501427],[103.163732,-0.5019],[103.155019,-0.504622],[103.154068,-0.500818],[103.153922,-0.488484],[103.152326,-0.484712],[103.146087,-0.4821],[103.141734,-0.478472],[103.138106,-0.472088],[103.136004,-0.470123],[103.14793,-0.471627],[103.153236,-0.471921],[103.162109,-0.471814],[103.164845,-0.47235],[103.167837,-0.471022],[103.171458,-0.469976],[103.171521,-0.46895],[103.175722,-0.469063]]]}}]}