{"type":"FeatureCollection","features":[{"type":"Feature","properties":{"kdkec":"1403030","nmkec":"ENOK","kddesa":"1403030010","nmdesa":"SIMPANG TIGA","idsubsls":"1403030010000400","kdsubsls":"00"},"geometry":{"type":"Polygon","coordinates":[[[103.194268,-0.480446],[103.194589,-0.479782],[103.194396,-0.479642],[103.194917,-0.478907],[103.195575,-0.479403],[103.196703,-0.479787],[103.198936,-0.480411],[103.200194,-0.480577],[103.199367,-0.48307],[103.194483,-0.482845],[103.194518,-0.481976],[103.194159,-0.481928],[103.194268,-0.480446]]]}}]}