{"type":"FeatureCollection","features":[{"type":"Feature","properties":{"kdkec":"1403030","nmkec":"ENOK","kddesa":"1403030010","nmdesa":"SIMPANG TIGA","idsubsls":"1403030010000700","kdsubsls":"00"},"geometry":{"type":"Polygon","coordinates":[[[103.189773,-0.478432],[103.190673,-0.478489],[103.191055,-0.478232],[103.190842,-0.478043],[103.190929,-0.477945],[103.191498,-0.478346],[103.191697,-0.478124],[103.192305,-0.478533],[103.189412,-0.481485],[103.187683,-0.482826],[103.186672,-0.481195],[103.185892,-0.480307],[103.184836,-0.479599],[103.1824,-0.478783],[103.180911,-0.477763],[103.179999,-0.476839],[103.177395,-0.475794],[103.176818,-0.475811],[103.175722,-0.469063],[103.176027,-0.464178],[103.177987,-0.464611],[103.189773,-0.478432]]]}}]}