{"type":"FeatureCollection","features":[{"type":"Feature","properties":{"kdkec":"1403010","nmkec":"KERITANG","kddesa":"1403010009","nmdesa":"KUALA LEMANG","idsubsls":"1403010009000300","kdsubsls":"00"},"geometry":{"type":"Polygon","coordinates":[[[102.818114,-0.740577],[102.816253,-0.73972],[102.834563,-0.718533],[102.839067,-0.713122],[102.842335,-0.707801],[102.845995,-0.708397],[102.844078,-0.712332],[102.838606,-0.717893],[102.832355,-0.723031],[102.828618,-0.728904],[102.818114,-0.740577]]]}}]}