{"type":"FeatureCollection","features":[{"type":"Feature","properties":{"kdkec":"1403010","nmkec":"KERITANG","kddesa":"1403010009","nmdesa":"KUALA LEMANG","idsubsls":"1403010009002200","kdsubsls":"00"},"geometry":{"type":"Polygon","coordinates":[[[102.851652,-0.655735],[102.850451,-0.658896],[102.847939,-0.670213],[102.846722,-0.679044],[102.846411,-0.685103],[102.84724,-0.692795],[102.847447,-0.699657],[102.842895,-0.707892],[102.839686,-0.707537],[102.840571,-0.704299],[102.840651,-0.700287],[102.842177,-0.69117],[102.842643,-0.673405],[102.846463,-0.661706],[102.849078,-0.654487],[102.852818,-0.646836],[102.853669,-0.650435],[102.851652,-0.655735]]]}}]}