{"type":"FeatureCollection","features":[{"type":"Feature","properties":{"kdkec":"1403010","nmkec":"KERITANG","kddesa":"1403010009","nmdesa":"KUALA LEMANG","idsubsls":"1403010009001600","kdsubsls":"00"},"geometry":{"type":"Polygon","coordinates":[[[102.864605,-0.721346],[102.862374,-0.721991],[102.86109,-0.718811],[102.862311,-0.717856],[102.866927,-0.71491],[102.868896,-0.712586],[102.871472,-0.707886],[102.874515,-0.697255],[102.874593,-0.691014],[102.873686,-0.681018],[102.873492,-0.675114],[102.872877,-0.670802],[102.872644,-0.665247],[102.8721,-0.662153],[102.871919,-0.657608],[102.870974,-0.648298],[102.868164,-0.642461],[102.869961,-0.641403],[102.874265,-0.641304],[102.875155,-0.650197],[102.875529,-0.658997],[102.876559,-0.67257],[102.878103,-0.688297],[102.877916,-0.695178],[102.876886,-0.705335],[102.875763,-0.708073],[102.874276,-0.712996],[102.870495,-0.717476],[102.864605,-0.721346]]]}}]}