{"type":"FeatureCollection","features":[{"type":"Feature","properties":{"kdkec":"1403010","nmkec":"KERITANG","kddesa":"1403010009","nmdesa":"KUALA LEMANG","idsubsls":"1403010009002500","kdsubsls":"00"},"geometry":{"type":"Polygon","coordinates":[[[102.852818,-0.646836],[102.849078,-0.654487],[102.846463,-0.661706],[102.842643,-0.673405],[102.842177,-0.69117],[102.840651,-0.700287],[102.840571,-0.704299],[102.839622,-0.707531],[102.836236,-0.706658],[102.837195,-0.704622],[102.837606,-0.703334],[102.837425,-0.699825],[102.837684,-0.697016],[102.838733,-0.693792],[102.839095,-0.691629],[102.838888,-0.684171],[102.840416,-0.673165],[102.842048,-0.667131],[102.844715,-0.659751],[102.846165,-0.654649],[102.84847,-0.649832],[102.851977,-0.643274],[102.852818,-0.646836]]]}}]}