{"type":"FeatureCollection","features":[{"type":"Feature","properties":{"kdkec":"1403121","nmkec":"PELANGIRAN","kddesa":"1403121001","nmdesa":"TANJUNG SIMPANG","idsubsls":"1403121001003900","kdsubsls":"00"},"geometry":{"type":"Polygon","coordinates":[[[103.247566,0.175226],[103.24721,0.175241],[103.246016,0.17582],[103.245803,0.175751],[103.245741,0.175509],[103.244844,0.175818],[103.24273,0.176156],[103.243013,0.177307],[103.245877,0.176454],[103.246592,0.178032],[103.247414,0.177163],[103.247829,0.175832],[103.247566,0.175226]]]}}]}