{"type":"FeatureCollection","features":[{"type":"Feature","properties":{"kdkec":"1403121","nmkec":"PELANGIRAN","kddesa":"1403121001","nmdesa":"TANJUNG SIMPANG","idsubsls":"1403121001001600","kdsubsls":"00"},"geometry":{"type":"Polygon","coordinates":[[[103.245172,0.143272],[103.246032,0.136705],[103.241977,0.137384],[103.234552,0.136146],[103.226952,0.162929],[103.223877,0.166867],[103.225802,0.168517],[103.229762,0.17112],[103.230708,0.171524],[103.232634,0.171824],[103.233859,0.171561],[103.235934,0.170186],[103.236896,0.169799],[103.238943,0.170117],[103.240731,0.170927],[103.241223,0.171323],[103.243097,0.166373],[103.245247,0.159848],[103.245772,0.157798],[103.245947,0.154473],[103.244972,0.147472],[103.245172,0.143272]]]}}]}