{"type":"FeatureCollection","features":[{"type":"Feature","properties":{"kdkec":"1403121","nmkec":"PELANGIRAN","kddesa":"1403121001","nmdesa":"TANJUNG SIMPANG","idsubsls":"1403121001002000","kdsubsls":"00"},"geometry":{"type":"Polygon","coordinates":[[[103.216546,0.162778],[103.218834,0.163612],[103.220634,0.164062],[103.223523,0.141514],[103.216213,0.144622],[103.213026,0.141884],[103.213082,0.141607],[103.210928,0.139484],[103.206639,0.139514],[103.204702,0.141862],[103.199929,0.150359],[103.201106,0.150976],[103.207114,0.153069],[103.212364,0.157683],[103.215243,0.161981],[103.216546,0.162778]]]}}]}