{"type":"FeatureCollection","features":[{"type":"Feature","properties":{"kdkec":"1403121","nmkec":"PELANGIRAN","kddesa":"1403121001","nmdesa":"TANJUNG SIMPANG","idsubsls":"1403121001000600","kdsubsls":"00"},"geometry":{"type":"Polygon","coordinates":[[[103.289309,0.15695],[103.289409,0.15715],[103.292002,0.15867],[103.293045,0.156339],[103.293949,0.155454],[103.29464,0.15512],[103.293179,0.126816],[103.282863,0.129884],[103.279124,0.135821],[103.276422,0.15223],[103.276085,0.171292],[103.277166,0.171911],[103.278361,0.172297],[103.279568,0.17241],[103.282065,0.171715],[103.284275,0.170418],[103.28557,0.169266],[103.287324,0.167154],[103.288837,0.164346],[103.28514,0.161844],[103.282407,0.161311],[103.282157,0.161044],[103.27964,0.160661],[103.27954,0.160511],[103.27974,0.158377],[103.283045,0.152899],[103.289309,0.15695]]]}}]}