{"type":"FeatureCollection","features":[{"type":"Feature","properties":{"kdkec":"1403121","nmkec":"PELANGIRAN","kddesa":"1403121001","nmdesa":"TANJUNG SIMPANG","idsubsls":"1403121001102500","kdsubsls":"00"},"geometry":{"type":"Polygon","coordinates":[[[103.251641,0.135441],[103.267901,0.131979],[103.271171,0.131159],[103.269122,0.126988],[103.273313,0.125038],[103.275985,0.130017],[103.282181,0.128401],[103.260156,0.078786],[103.256242,0.072523],[103.25542,0.071842],[103.244197,0.077012],[103.233188,0.055622],[103.20629,0.054709],[103.126707,0.055464],[103.12852,0.086468],[103.129495,0.087916],[103.158459,0.108653],[103.170414,0.103656],[103.17174,0.106308],[103.161543,0.110857],[103.170326,0.117285],[103.189177,0.128369],[103.206631,0.139514],[103.210928,0.139484],[103.213082,0.141607],[103.213026,0.141884],[103.216213,0.144622],[103.223523,0.141514],[103.225551,0.134384],[103.234552,0.136146],[103.241977,0.137384],[103.246116,0.136691],[103.251641,0.135441]],[[103.178926,0.082987],[103.180934,0.082058],[103.182894,0.086192],[103.180849,0.087193],[103.178926,0.082987]],[[103.188502,0.098283],[103.191221,0.103585],[103.187942,0.105123],[103.185308,0.099832],[103.188502,0.098283]],[[103.259792,0.11167],[103.258771,0.109522],[103.263572,0.107244],[103.265597,0.111791],[103.2609,0.114001],[103.259792,0.11167]]]}}]}