{"type":"FeatureCollection","features":[{"type":"Feature","properties":{"kdkec":"1403121","nmkec":"PELANGIRAN","kddesa":"1403121001","nmdesa":"TANJUNG SIMPANG","idsubsls":"1403121001003300","kdsubsls":"00"},"geometry":{"type":"Polygon","coordinates":[[[103.185119,0.195857],[103.183638,0.197811],[103.180006,0.197907],[103.180126,0.208607],[103.18643,0.209214],[103.186393,0.215252],[103.219948,0.213551],[103.224418,0.208305],[103.221821,0.207743],[103.22351,0.201333],[103.223594,0.198145],[103.226229,0.192088],[103.203311,0.173542],[103.185119,0.195857]]]}}]}