{"type":"FeatureCollection","features":[{"type":"Feature","properties":{"kdkec":"1403121","nmkec":"PELANGIRAN","kddesa":"1403121001","nmdesa":"TANJUNG SIMPANG","idsubsls":"1403121001003400","kdsubsls":"00"},"geometry":{"type":"Polygon","coordinates":[[[103.196705,0.167609],[103.166394,0.143008],[103.140195,0.176775],[103.167909,0.198244],[103.168197,0.208959],[103.172863,0.208374],[103.175854,0.208196],[103.180126,0.208607],[103.180006,0.197907],[103.177066,0.197984],[103.180903,0.193135],[103.185086,0.1959],[103.203311,0.173542],[103.196705,0.167609]]]}}]}