{"type":"FeatureCollection","features":[{"type":"Feature","properties":{"kdkec":"1403121","nmkec":"PELANGIRAN","kddesa":"1403121001","nmdesa":"TANJUNG SIMPANG","idsubsls":"1403121001002400","kdsubsls":"00"},"geometry":{"type":"Polygon","coordinates":[[[103.182,0.141053],[103.189177,0.128369],[103.170326,0.117285],[103.166081,0.127563],[103.158754,0.136842],[103.168244,0.144491],[103.169881,0.142161],[103.17064,0.142517],[103.171681,0.14263],[103.173059,0.142451],[103.177766,0.14112],[103.178862,0.140937],[103.181558,0.141186],[103.182,0.141053]],[[103.165214,0.133884],[103.167215,0.132611],[103.16844,0.132248],[103.168579,0.135653],[103.165358,0.136877],[103.163457,0.135148],[103.165214,0.133884]]]}}]}