{"type":"FeatureCollection","features":[{"type":"Feature","properties":{"kdkec":"1403121","nmkec":"PELANGIRAN","kddesa":"1403121001","nmdesa":"TANJUNG SIMPANG","idsubsls":"1403121001003100","kdsubsls":"00"},"geometry":{"type":"Polygon","coordinates":[[[103.225284,0.18027],[103.220107,0.187128],[103.226229,0.192088],[103.228774,0.19128],[103.230949,0.189255],[103.233274,0.187717],[103.234287,0.186677],[103.235543,0.18468],[103.236053,0.184123],[103.235068,0.183054],[103.231519,0.175478],[103.230056,0.17619],[103.225284,0.18027]]]}}]}