{"type":"FeatureCollection","features":[{"type":"Feature","properties":{"kdkec":"1403121","nmkec":"PELANGIRAN","kddesa":"1403121001","nmdesa":"TANJUNG SIMPANG","idsubsls":"1403121001100400","kdsubsls":"00"},"geometry":{"type":"Polygon","coordinates":[[[103.117694,0.217708],[103.114506,0.222321],[103.07521,0.276847],[103.073279,0.278676],[103.116168,0.310466],[103.132546,0.289052],[103.15857,0.262778],[103.198123,0.239167],[103.219948,0.213551],[103.186393,0.215252],[103.18643,0.209214],[103.175854,0.208196],[103.172863,0.208374],[103.169409,0.208807],[103.171755,0.215479],[103.163514,0.226393],[103.158892,0.222989],[103.162468,0.218346],[103.162735,0.215676],[103.128626,0.217033],[103.117694,0.217708]],[[103.167089,0.247152],[103.16472,0.245385],[103.16586,0.243884],[103.168176,0.245722],[103.167089,0.247152]],[[103.112543,0.276454],[103.105944,0.271843],[103.10965,0.266569],[103.11618,0.271326],[103.112543,0.276454]]]}}]}