{"type":"FeatureCollection","features":[{"type":"Feature","properties":{"kdkec":"1403071","nmkec":"KEMPAS","kddesa":"1403071002","nmdesa":"PEKAN TUA","idsubsls":"1403071002001500","kdsubsls":"00"},"geometry":{"type":"Polygon","coordinates":[[[102.762461,-0.460652],[102.761851,-0.461565],[102.760094,-0.45992],[102.758485,-0.457871],[102.756774,-0.453448],[102.755924,-0.452523],[102.755691,-0.451863],[102.754216,-0.449816],[102.752363,-0.448199],[102.751036,-0.447738],[102.751774,-0.445763],[102.752045,-0.442939],[102.750222,-0.24466],[102.758805,-0.244675],[102.765671,-0.282797],[102.770043,-0.308738],[102.773162,-0.329487],[102.789209,-0.430242],[102.762892,-0.431124],[102.762047,-0.455492],[102.763618,-0.455679],[102.763282,-0.459483],[102.762461,-0.460652]]]}}]}