{"type":"FeatureCollection","features":[{"type":"Feature","properties":{"kdkec":"1403061","nmkec":"TEMBILAHAN HULU"},"geometry":{"type":"MultiPolygon","coordinates":[[[[103.07006,-0.411742],[103.071255,-0.410265],[103.073446,-0.409535],[103.077828,-0.409485],[103.079106,-0.408705],[103.086633,-0.403352],[103.090567,-0.400149],[103.094308,-0.396736],[103.098115,-0.392832],[103.103193,-0.386269],[103.106696,-0.381298],[103.110933,-0.37425],[103.114743,-0.366145],[103.123646,-0.375146],[103.130983,-0.387719],[103.132066,-0.391038],[103.138349,-0.400644],[103.156201,-0.429887],[103.148459,-0.434361],[103.111798,-0.448266],[103.100847,-0.452412],[103.098224,-0.444567],[103.093325,-0.432546],[103.096363,-0.440022],[103.090383,-0.441335],[103.094143,-0.454962],[103.082023,-0.459558],[103.066287,-0.46625],[103.066315,-0.462894],[103.068053,-0.443968],[103.068027,-0.428896],[103.063886,-0.420091],[103.06689,-0.416306],[103.07006,-0.411742]],[[103.105904,-0.433942],[103.105654,-0.433453],[103.113002,-0.447809],[103.105904,-0.433942]],[[103.098026,-0.430069],[103.099862,-0.435113],[103.09901,-0.432772],[103.098026,-0.430069]],[[103.085243,-0.44019],[103.081859,-0.423095],[103.086171,-0.445426],[103.085243,-0.44019]],[[103.133576,-0.403229],[103.131251,-0.398186],[103.128438,-0.393266],[103.131749,-0.399266],[103.133576,-0.403229]]],[[[103.036023,-0.373974],[103.033576,-0.374565],[103.027979,-0.384391],[103.028773,-0.3858],[103.026553,-0.391798],[103.021038,-0.396958],[103.02405,-0.400237],[103.022946,-0.401591],[103.020534,-0.403274],[103.016362,-0.398],[103.013593,-0.400377],[103.003969,-0.40757],[103.001904,-0.405135],[102.99746,-0.398088],[102.996529,-0.396056],[102.995788,-0.39339],[103.001651,-0.390648],[103.006039,-0.384054],[103.007757,-0.37397],[103.005503,-0.36419],[103.005622,-0.360269],[103.00886,-0.356732],[103.010612,-0.355455],[103.013547,-0.352278],[103.014728,-0.350699],[103.018776,-0.346011],[103.022457,-0.343221],[103.026543,-0.338619],[103.028246,-0.337336],[103.030448,-0.336971],[103.031339,-0.337516],[103.0355,-0.337755],[103.038714,-0.337397],[103.040966,-0.337582],[103.045215,-0.338337],[103.047875,-0.339841],[103.05094,-0.342386],[103.055112,-0.34636],[103.056153,-0.347644],[103.056981,-0.349151],[103.057309,-0.350471],[103.057311,-0.351083],[103.058138,-0.353302],[103.061746,-0.356566],[103.065299,-0.358702],[103.06988,-0.359148],[103.072714,-0.358818],[103.076732,-0.356411],[103.078673,-0.354819],[103.083512,-0.354216],[103.086691,-0.353211],[103.089673,-0.352029],[103.093254,-0.34889],[103.094713,-0.347025],[103.096451,-0.343997],[103.099289,-0.337129],[103.10051,-0.331396],[103.100693,-0.325275],[103.100252,-0.322882],[103.104252,-0.324032],[103.117487,-0.331479],[103.12187,-0.335722],[103.125667,-0.332868],[103.126422,-0.333486],[103.1288,-0.332002],[103.12955,-0.332723],[103.127559,-0.330582],[103.130297,-0.328528],[103.134253,-0.325119],[103.133797,-0.324512],[103.134346,-0.324056],[103.137812,-0.321372],[103.13824,-0.321753],[103.138848,-0.322728],[103.138712,-0.322825],[103.139532,-0.323926],[103.141751,-0.32264],[103.143949,-0.320933],[103.143529,-0.321252],[103.143636,-0.320913],[103.145363,-0.319499],[103.146442,-0.320636],[103.146538,-0.320984],[103.146872,-0.321122],[103.146914,-0.321456],[103.147269,-0.32168],[103.147905,-0.322642],[103.148348,-0.322989],[103.147702,-0.323279],[103.148399,-0.323018],[103.148393,-0.323377],[103.149571,-0.324739],[103.149274,-0.324967],[103.149596,-0.324807],[103.152175,-0.328674],[103.152704,-0.329675],[103.151718,-0.330267],[103.152219,-0.329977],[103.152946,-0.331209],[103.152602,-0.331436],[103.15338,-0.330947],[103.153525,-0.331217],[103.152422,-0.331963],[103.14918,-0.333632],[103.137422,-0.339237],[103.134845,-0.340234],[103.130984,-0.342114],[103.128098,-0.343956],[103.123107,-0.347571],[103.118607,-0.351223],[103.115679,-0.354],[103.112671,-0.358357],[103.107285,-0.36727],[103.099939,-0.376217],[103.095168,-0.383058],[103.093608,-0.386942],[103.09243,-0.389664],[103.090297,-0.393042],[103.087401,-0.395345],[103.086434,-0.395991],[103.084291,-0.397049],[103.081133,-0.398242],[103.070612,-0.404074],[103.067201,-0.406497],[103.062562,-0.410447],[103.059003,-0.413777],[103.05846,-0.413319],[103.045764,-0.397635],[103.039479,-0.382054],[103.038615,-0.372828],[103.036023,-0.373974]],[[103.03116,-0.373373],[103.026897,-0.371269],[103.033576,-0.374565],[103.03116,-0.373373]],[[103.136464,-0.326458],[103.136331,-0.326252],[103.134346,-0.324056],[103.136464,-0.326458]],[[103.147649,-0.323212],[103.148347,-0.324306],[103.148348,-0.324306],[103.147702,-0.323279],[103.147649,-0.323212]],[[103.123977,-0.337762],[103.125779,-0.340469],[103.128098,-0.343956],[103.123977,-0.337762]],[[103.124767,-0.341233],[103.124415,-0.341512],[103.125779,-0.340469],[103.124767,-0.341233]],[[103.110638,-0.341885],[103.116344,-0.348642],[103.118607,-0.351223],[103.110638,-0.341885]],[[103.113162,-0.339966],[103.109596,-0.342601],[103.110638,-0.341885],[103.113162,-0.339966]],[[103.114844,-0.349372],[103.114634,-0.349578],[103.116344,-0.348642],[103.114844,-0.349372]],[[103.103243,-0.363435],[103.102407,-0.362763],[103.107285,-0.36727],[103.103243,-0.363435]],[[103.088657,-0.38272],[103.088639,-0.382713],[103.093608,-0.386942],[103.088657,-0.38272]],[[103.08714,-0.39487],[103.086786,-0.39459],[103.087401,-0.395345],[103.08714,-0.39487]],[[103.095395,-0.347785],[103.095714,-0.347438],[103.096229,-0.346759],[103.095391,-0.347781],[103.095395,-0.347785]],[[103.096532,-0.350879],[103.098221,-0.353805],[103.096467,-0.350715],[103.096532,-0.350879]],[[103.10075,-0.352986],[103.09982,-0.35169],[103.100035,-0.352121],[103.10075,-0.352986]],[[103.101459,-0.353844],[103.107493,-0.34836],[103.101459,-0.353844],[103.101459,-0.353844]],[[103.110822,-0.351948],[103.109105,-0.350005],[103.107493,-0.34836],[103.110822,-0.351948]],[[103.045427,-0.371661],[103.042874,-0.371565],[103.045427,-0.371661],[103.045427,-0.371661]],[[103.062175,-0.362578],[103.052783,-0.368724],[103.050681,-0.370152],[103.054055,-0.367915],[103.062175,-0.362578]],[[103.062631,-0.378698],[103.058911,-0.37892],[103.070128,-0.37865],[103.062631,-0.378698]],[[103.079061,-0.375431],[103.076909,-0.377386],[103.077981,-0.376515],[103.079061,-0.375431]],[[103.083947,-0.392198],[103.084431,-0.39199],[103.084524,-0.391909],[103.083947,-0.392198]],[[103.085117,-0.393478],[103.085422,-0.394041],[103.084431,-0.39199],[103.085117,-0.393478]],[[103.085863,-0.394151],[103.086213,-0.394135],[103.085422,-0.394041],[103.085863,-0.394151]],[[103.085757,-0.395173],[103.085822,-0.395342],[103.085801,-0.394762],[103.085757,-0.395173]],[[103.085017,-0.395543],[103.085017,-0.395543],[103.085757,-0.395173],[103.085017,-0.395543]],[[103.086074,-0.39522],[103.086644,-0.394939],[103.085822,-0.395342],[103.086074,-0.39522]],[[103.058219,-0.386654],[103.061075,-0.395229],[103.061519,-0.396352],[103.058219,-0.386654]],[[103.084418,-0.39486],[103.084054,-0.393942],[103.084319,-0.394616],[103.084418,-0.39486]],[[103.088287,-0.382627],[103.087905,-0.382421],[103.088536,-0.382761],[103.088287,-0.382627]],[[103.086555,-0.394735],[103.08678,-0.394585],[103.08678,-0.394585],[103.086555,-0.394735]],[[103.039704,-0.348382],[103.038257,-0.368898],[103.038432,-0.366773],[103.039704,-0.348382]],[[103.133279,-0.332248],[103.13261,-0.33259],[103.130711,-0.33389],[103.130711,-0.333891],[103.133279,-0.332248]],[[103.128519,-0.34016],[103.128226,-0.339927],[103.128278,-0.340036],[103.128519,-0.34016]],[[103.128685,-0.340287],[103.129751,-0.33975],[103.130836,-0.339046],[103.128685,-0.340287]],[[103.128521,-0.335203],[103.128613,-0.335279],[103.128608,-0.33527],[103.128521,-0.335203]],[[103.130545,-0.338532],[103.129637,-0.33676],[103.130111,-0.337859],[103.130545,-0.338532]],[[103.13266,-0.337314],[103.132836,-0.337221],[103.132809,-0.337169],[103.13266,-0.337314]],[[103.096984,-0.347423],[103.095599,-0.346203],[103.096845,-0.347303],[103.098291,-0.348626],[103.096984,-0.347423]],[[103.140936,-0.325126],[103.14051,-0.324548],[103.140644,-0.324739],[103.140936,-0.325126]],[[103.143001,-0.328147],[103.143047,-0.328118],[103.142691,-0.327383],[103.142691,-0.327384],[103.143001,-0.328147]],[[103.145693,-0.328482],[103.143652,-0.3296],[103.143654,-0.329611],[103.145693,-0.328482]],[[103.145997,-0.328993],[103.145741,-0.32854],[103.14475,-0.327024],[103.144272,-0.326514],[103.145693,-0.328482],[103.145997,-0.328993]],[[103.145864,-0.330315],[103.144674,-0.330995],[103.145864,-0.330315],[103.145864,-0.330315]],[[103.147525,-0.330323],[103.146614,-0.330044],[103.147527,-0.330328],[103.147525,-0.330323]],[[103.148463,-0.332159],[103.147981,-0.331216],[103.148129,-0.33151],[103.148463,-0.332159]],[[103.143712,-0.329886],[103.141935,-0.331029],[103.142427,-0.33072],[103.143712,-0.329886]],[[103.139204,-0.33158],[103.139435,-0.332495],[103.139357,-0.331948],[103.139204,-0.33158]],[[103.140701,-0.331483],[103.140641,-0.33132],[103.13976,-0.328982],[103.140701,-0.331483]],[[103.141871,-0.332081],[103.142125,-0.332769],[103.14213,-0.332775],[103.141871,-0.332081]],[[103.141525,-0.333031],[103.14176,-0.332968],[103.142125,-0.332769],[103.141525,-0.333031]],[[103.14166,-0.333429],[103.142299,-0.335274],[103.141525,-0.333031],[103.14166,-0.333429]],[[103.141677,-0.335576],[103.14237,-0.335242],[103.142299,-0.335274],[103.141677,-0.335576]],[[103.140975,-0.333678],[103.14161,-0.335396],[103.141677,-0.335576],[103.140975,-0.333678]],[[103.14354,-0.334677],[103.143652,-0.334936],[103.143361,-0.334242],[103.14354,-0.334677]],[[103.138093,-0.334929],[103.137789,-0.334614],[103.138125,-0.334997],[103.139196,-0.337188],[103.138093,-0.334929]],[[103.139827,-0.332848],[103.137556,-0.333555],[103.137556,-0.333555],[103.139827,-0.332848]],[[103.139903,-0.333015],[103.139782,-0.332703],[103.139684,-0.3324],[103.139827,-0.332848],[103.139903,-0.333015]],[[103.140347,-0.333883],[103.13975,-0.334026],[103.140288,-0.333901],[103.141094,-0.335852],[103.140347,-0.333883]],[[103.140499,-0.336084],[103.140449,-0.335745],[103.140584,-0.336058],[103.13975,-0.334026],[103.140499,-0.336084]],[[103.140815,-0.335965],[103.141284,-0.335786],[103.141094,-0.335852],[103.140815,-0.335965]],[[103.141284,-0.335622],[103.141238,-0.335653],[103.141284,-0.335786],[103.141284,-0.335622]],[[103.136737,-0.331834],[103.136418,-0.331406],[103.136753,-0.332039],[103.136737,-0.331834]],[[103.136812,-0.327],[103.1366,-0.32667],[103.138418,-0.329679],[103.136812,-0.327]],[[103.145548,-0.332094],[103.14529,-0.332219],[103.14461,-0.332597],[103.145548,-0.332094]],[[103.146975,-0.332563],[103.146744,-0.332726],[103.146751,-0.332735],[103.146975,-0.332563]],[[103.146875,-0.33219],[103.146186,-0.330912],[103.146975,-0.332563],[103.146875,-0.33219]],[[103.148965,-0.325204],[103.148965,-0.325204],[103.14957,-0.326473],[103.148965,-0.325204]],[[103.14998,-0.327322],[103.15015,-0.327672],[103.14957,-0.326473],[103.14998,-0.327322]],[[103.147211,-0.325989],[103.146704,-0.325215],[103.147456,-0.326484],[103.147211,-0.325989]],[[103.146723,-0.325205],[103.145316,-0.325954],[103.145185,-0.326027],[103.146704,-0.325215],[103.146723,-0.325205]],[[103.148218,-0.328159],[103.14788,-0.327344],[103.147533,-0.326641],[103.147526,-0.326646],[103.148218,-0.328159]],[[103.148264,-0.32826],[103.148292,-0.32832],[103.148631,-0.328082],[103.148264,-0.32826]],[[103.150009,-0.330674],[103.149122,-0.328813],[103.149077,-0.328834],[103.149708,-0.330068],[103.150009,-0.330674]],[[103.146085,-0.324298],[103.146739,-0.325196],[103.146739,-0.325196],[103.146359,-0.324525],[103.146085,-0.324298]],[[103.145805,-0.323913],[103.145625,-0.323503],[103.145697,-0.323764],[103.145805,-0.323913]],[[103.148988,-0.332152],[103.150521,-0.331463],[103.150931,-0.331238],[103.148988,-0.332152]],[[103.151194,-0.330889],[103.150853,-0.331091],[103.151012,-0.330999],[103.151194,-0.330889]],[[103.149862,-0.329219],[103.149529,-0.328618],[103.149706,-0.329005],[103.149862,-0.329219]],[[103.150396,-0.328193],[103.150575,-0.328573],[103.1507,-0.328506],[103.150566,-0.328553],[103.150396,-0.328193]],[[103.15234,-0.331601],[103.151742,-0.330536],[103.15234,-0.331601],[103.15234,-0.331601]]],[[[103.15338,-0.330947],[103.152946,-0.331209],[103.152218,-0.329976],[103.152708,-0.329683],[103.15338,-0.330947]]]]}}]}