{"type":"FeatureCollection","features":[{"type":"Feature","properties":{"kdkec":"1403050","nmkec":"KUALA INDRAGIRI"},"geometry":{"type":"MultiPolygon","coordinates":[[[[103.318774,-0.360659],[103.315996,-0.362039],[103.314347,-0.363181],[103.313994,-0.364336],[103.313714,-0.364248],[103.313062,-0.365454],[103.312371,-0.367267],[103.311272,-0.371484],[103.309974,-0.373269],[103.307368,-0.37752],[103.290586,-0.374416],[103.290339,-0.370945],[103.287506,-0.369812],[103.28849,-0.358819],[103.276218,-0.355446],[103.258814,-0.347104],[103.244838,-0.34542],[103.246068,-0.306264],[103.257655,-0.305707],[103.264109,-0.30845],[103.274664,-0.320794],[103.283381,-0.327759],[103.292362,-0.333113],[103.300665,-0.337476],[103.314416,-0.344153],[103.318451,-0.346398],[103.325543,-0.353531],[103.325415,-0.355584],[103.324166,-0.357388],[103.318774,-0.360659]]],[[[103.376739,-0.295871],[103.381041,-0.297861],[103.387611,-0.295573],[103.390648,-0.294275],[103.393617,-0.293627],[103.403691,-0.293967],[103.407765,-0.295496],[103.414139,-0.300425],[103.418299,-0.303079],[103.424819,-0.304536],[103.430221,-0.303566],[103.436954,-0.303109],[103.44008,-0.303678],[103.443581,-0.305452],[103.452586,-0.311546],[103.456792,-0.313868],[103.458765,-0.314058],[103.458842,-0.321974],[103.456766,-0.329839],[103.452179,-0.340542],[103.447559,-0.348129],[103.436394,-0.357238],[103.424452,-0.360084],[103.406808,-0.359217],[103.399337,-0.359223],[103.37605,-0.360034],[103.368298,-0.359314],[103.363594,-0.358498],[103.351629,-0.354727],[103.340965,-0.350011],[103.335465,-0.346201],[103.324782,-0.334669],[103.321206,-0.331694],[103.311594,-0.325989],[103.304714,-0.322891],[103.294402,-0.319828],[103.287769,-0.31537],[103.284752,-0.312717],[103.271405,-0.298915],[103.26916,-0.297255],[103.265141,-0.294675],[103.259137,-0.292194],[103.255222,-0.291549],[103.250688,-0.291505],[103.248228,-0.286911],[103.245002,-0.28419],[103.24079,-0.2829],[103.23601,-0.282356],[103.233673,-0.281316],[103.231725,-0.279421],[103.231939,-0.278466],[103.246457,-0.272202],[103.250771,-0.269882],[103.254891,-0.266532],[103.258523,-0.262062],[103.269002,-0.247573],[103.273388,-0.245381],[103.276989,-0.244861],[103.280395,-0.245685],[103.290381,-0.248806],[103.302393,-0.25223],[103.309753,-0.253274],[103.328414,-0.253367],[103.342691,-0.252028],[103.346275,-0.256942],[103.34957,-0.26109],[103.351874,-0.265595],[103.351721,-0.269162],[103.349827,-0.2729],[103.347744,-0.275744],[103.344471,-0.280988],[103.343905,-0.283601],[103.344229,-0.285964],[103.345386,-0.287063],[103.346737,-0.287457],[103.349793,-0.286024],[103.356226,-0.285205],[103.360833,-0.285683],[103.363018,-0.286655],[103.363838,-0.287647],[103.367797,-0.291127],[103.376739,-0.295871]],[[103.295788,-0.309004],[103.302499,-0.31249],[103.302499,-0.31249],[103.295788,-0.309004]],[[103.352333,-0.298443],[103.358968,-0.307381],[103.35914,-0.307593],[103.352333,-0.298443]],[[103.312904,-0.325881],[103.313054,-0.325686],[103.313012,-0.325665],[103.312904,-0.325881]],[[103.309077,-0.320606],[103.310877,-0.316455],[103.308483,-0.321972],[103.309077,-0.320606]],[[103.312042,-0.323504],[103.312476,-0.322257],[103.311967,-0.323473],[103.312042,-0.323504]],[[103.31297,-0.324716],[103.312797,-0.324998],[103.312401,-0.325709],[103.31297,-0.324716]],[[103.314128,-0.32529],[103.314128,-0.32529],[103.31297,-0.324716],[103.314128,-0.32529]],[[103.31425,-0.325037],[103.315,-0.325465],[103.314408,-0.325098],[103.31425,-0.325037]],[[103.31463,-0.324653],[103.31506,-0.323786],[103.314408,-0.325098],[103.31463,-0.324653]],[[103.315786,-0.325143],[103.315966,-0.325207],[103.31463,-0.324653],[103.315786,-0.325143]],[[103.303579,-0.27359],[103.301437,-0.283106],[103.299741,-0.291617],[103.300583,-0.287539],[103.303579,-0.27359]],[[103.272558,-0.275349],[103.284514,-0.274521],[103.258539,-0.27632],[103.272558,-0.275349]],[[103.297327,-0.305613],[103.295895,-0.308689],[103.295788,-0.309003],[103.297327,-0.305613]],[[103.33185,-0.282045],[103.325957,-0.27846],[103.328086,-0.279755],[103.33185,-0.282045]]],[[[103.37725,-0.295164],[103.373405,-0.292533],[103.368946,-0.289976],[103.368278,-0.290401],[103.362136,-0.285171],[103.3582,-0.284807],[103.351758,-0.284894],[103.345662,-0.286487],[103.344779,-0.285222],[103.344485,-0.282862],[103.345591,-0.280397],[103.348673,-0.2756],[103.350457,-0.273276],[103.351602,-0.27053],[103.352591,-0.267337],[103.352435,-0.265388],[103.350235,-0.260741],[103.345913,-0.255573],[103.343655,-0.251933],[103.356556,-0.248458],[103.379667,-0.245883],[103.399881,-0.242108],[103.410027,-0.239283],[103.41553,-0.237059],[103.423429,-0.232256],[103.436877,-0.221544],[103.449085,-0.214879],[103.460332,-0.21287],[103.475858,-0.207935],[103.489749,-0.206794],[103.499396,-0.204934],[103.510295,-0.201765],[103.513203,-0.201691],[103.515382,-0.20287],[103.517362,-0.204627],[103.52043,-0.208255],[103.5207,-0.210466],[103.520312,-0.212694],[103.499742,-0.242574],[103.495914,-0.247407],[103.492937,-0.252518],[103.492562,-0.253115],[103.490064,-0.257093],[103.489546,-0.25747],[103.480303,-0.271294],[103.471291,-0.283666],[103.467798,-0.289317],[103.466269,-0.293576],[103.464194,-0.297399],[103.46205,-0.305723],[103.460589,-0.309741],[103.45845,-0.311652],[103.457073,-0.311255],[103.451327,-0.307192],[103.444643,-0.303131],[103.442457,-0.302168],[103.431837,-0.300781],[103.424025,-0.302244],[103.419008,-0.301456],[103.407652,-0.293878],[103.402012,-0.292692],[103.393445,-0.292193],[103.381407,-0.296366],[103.37725,-0.295164]],[[103.39726,-0.254274],[103.397259,-0.25423],[103.397432,-0.263519],[103.39726,-0.254274]],[[103.426836,-0.277883],[103.423157,-0.251736],[103.424203,-0.259171],[103.426836,-0.277883]],[[103.492914,-0.25134],[103.492778,-0.251245],[103.493207,-0.252042],[103.492914,-0.25134]],[[103.488834,-0.256056],[103.489088,-0.256207],[103.490336,-0.256659],[103.488834,-0.256056]],[[103.488379,-0.251533],[103.490682,-0.253224],[103.490968,-0.253426],[103.488379,-0.251533]],[[103.489779,-0.255038],[103.490885,-0.253576],[103.491605,-0.252549],[103.490968,-0.253426],[103.489779,-0.255038]],[[103.487358,-0.25291],[103.489134,-0.254502],[103.489779,-0.255038],[103.487358,-0.25291]],[[103.453857,-0.275525],[103.455688,-0.276334],[103.456698,-0.276636],[103.453857,-0.275525]],[[103.445226,-0.26872],[103.445452,-0.268959],[103.453857,-0.275525],[103.445226,-0.26872]],[[103.439829,-0.300717],[103.439541,-0.298765],[103.439669,-0.300089],[103.439829,-0.300717]],[[103.453405,-0.24239],[103.453405,-0.24239],[103.432897,-0.258585],[103.453405,-0.24239]],[[103.452316,-0.24119],[103.44879,-0.2373],[103.448763,-0.23727],[103.449278,-0.237853],[103.452316,-0.24119]]],[[[103.554967,-0.477084],[103.546652,-0.470333],[103.529512,-0.465165],[103.522144,-0.465862],[103.519577,-0.465542],[103.519899,-0.460179],[103.514955,-0.443389],[103.507718,-0.442997],[103.510473,-0.425594],[103.500756,-0.425709],[103.499536,-0.434561],[103.446238,-0.435104],[103.436237,-0.433592],[103.386176,-0.4133],[103.360883,-0.400683],[103.336928,-0.38324],[103.316232,-0.365484],[103.318148,-0.362568],[103.31924,-0.361612],[103.326392,-0.360215],[103.330768,-0.35816],[103.33704,-0.361654],[103.346654,-0.366503],[103.357907,-0.372545],[103.368179,-0.375808],[103.39304,-0.379564],[103.402604,-0.379735],[103.416519,-0.377786],[103.426012,-0.376895],[103.43665,-0.374364],[103.441383,-0.372609],[103.444379,-0.371694],[103.446391,-0.371928],[103.450008,-0.374956],[103.455045,-0.378755],[103.462813,-0.381514],[103.468086,-0.382351],[103.471859,-0.382004],[103.475479,-0.380992],[103.491355,-0.376097],[103.500719,-0.372859],[103.510836,-0.369965],[103.514705,-0.370539],[103.516966,-0.372843],[103.522362,-0.3862],[103.5261,-0.391803],[103.531568,-0.396327],[103.538381,-0.399504],[103.543697,-0.399857],[103.549352,-0.399266],[103.56089,-0.396567],[103.56828,-0.396119],[103.575613,-0.39672],[103.580336,-0.398434],[103.582762,-0.399782],[103.589499,-0.40571],[103.589306,-0.407212],[103.589768,-0.407289],[103.591308,-0.407096],[103.595697,-0.411446],[103.597891,-0.413949],[103.598882,-0.414126],[103.599218,-0.414187],[103.598596,-0.414551],[103.599287,-0.414199],[103.600008,-0.415835],[103.601301,-0.415566],[103.602621,-0.416305],[103.607427,-0.421831],[103.608443,-0.426516],[103.60753,-0.434609],[103.60374,-0.441282],[103.596995,-0.450514],[103.593034,-0.454696],[103.590261,-0.458355],[103.586336,-0.462503],[103.582444,-0.467337],[103.571848,-0.476426],[103.570009,-0.480261],[103.566545,-0.482846],[103.554967,-0.477084]],[[103.596648,-0.415182],[103.59668,-0.415253],[103.598882,-0.414126],[103.596648,-0.415182]],[[103.594468,-0.416963],[103.593834,-0.415821],[103.594388,-0.417008],[103.594144,-0.417143],[103.594468,-0.416963]],[[103.590869,-0.418667],[103.592245,-0.417986],[103.589378,-0.419317],[103.590869,-0.418667]],[[103.593089,-0.418909],[103.591595,-0.41973],[103.590122,-0.420642],[103.593089,-0.418909]],[[103.596011,-0.416444],[103.594604,-0.417209],[103.595341,-0.416861],[103.596011,-0.416444]],[[103.596239,-0.415479],[103.596472,-0.416193],[103.596552,-0.416361],[103.596239,-0.415479]],[[103.596416,-0.415388],[103.596016,-0.41551],[103.596239,-0.415479],[103.596416,-0.415388]],[[103.596934,-0.415942],[103.596954,-0.416154],[103.59691,-0.415536],[103.596934,-0.415942]],[[103.597596,-0.415244],[103.597559,-0.415157],[103.59691,-0.415536],[103.597596,-0.415244]],[[103.44361,-0.410301],[103.444018,-0.406278],[103.442486,-0.421397],[103.44361,-0.410301]],[[103.441335,-0.428375],[103.441932,-0.424752],[103.442486,-0.421397],[103.441335,-0.428375]],[[103.44164,-0.373552],[103.443764,-0.373108],[103.442699,-0.373309],[103.44164,-0.373552]],[[103.441575,-0.373276],[103.441843,-0.374425],[103.44164,-0.373552],[103.441575,-0.373276]],[[103.441369,-0.3747],[103.441344,-0.374579],[103.440999,-0.373424],[103.441369,-0.3747]],[[103.442511,-0.377399],[103.441945,-0.377508],[103.441945,-0.377508],[103.442511,-0.377399]],[[103.449373,-0.378273],[103.449373,-0.378273],[103.442511,-0.377399],[103.449373,-0.378273]],[[103.440145,-0.378439],[103.438669,-0.379703],[103.438432,-0.379906],[103.440971,-0.377731],[103.440145,-0.378439]],[[103.438933,-0.374552],[103.439098,-0.375229],[103.440145,-0.378439],[103.438933,-0.374552]]],[[[103.582887,-0.385578],[103.58419,-0.38351],[103.58552,-0.381251],[103.582924,-0.385519],[103.58221,-0.385076],[103.579348,-0.384558],[103.577926,-0.383831],[103.568593,-0.383613],[103.566122,-0.383311],[103.562743,-0.38326],[103.559717,-0.384118],[103.557044,-0.384319],[103.549024,-0.386387],[103.54272,-0.387799],[103.539845,-0.388102],[103.537929,-0.387698],[103.535306,-0.385328],[103.531877,-0.379326],[103.529405,-0.37398],[103.526278,-0.368987],[103.523404,-0.365205],[103.520882,-0.363086],[103.516456,-0.361575],[103.516687,-0.360419],[103.51395,-0.357563],[103.508119,-0.352803],[103.505501,-0.352803],[103.503954,-0.352327],[103.503001,-0.351375],[103.501692,-0.349233],[103.500859,-0.348995],[103.496337,-0.348638],[103.494433,-0.347805],[103.4936,-0.34721],[103.492291,-0.345782],[103.516047,-0.330948],[103.525307,-0.3261],[103.563575,-0.306867],[103.59291,-0.302404],[103.61915,-0.30175],[103.652145,-0.30411],[103.667281,-0.306736],[103.777707,-0.323816],[103.785489,-0.338204],[103.785162,-0.342445],[103.783137,-0.34494],[103.779341,-0.345957],[103.77415,-0.346291],[103.770161,-0.345699],[103.768718,-0.345838],[103.766751,-0.345737],[103.765638,-0.345151],[103.764633,-0.345283],[103.763725,-0.344879],[103.762414,-0.345333],[103.758148,-0.345975],[103.751621,-0.345989],[103.751016,-0.345636],[103.744056,-0.345938],[103.742391,-0.346443],[103.739416,-0.34609],[103.737852,-0.347098],[103.735961,-0.34738],[103.734822,-0.348038],[103.732859,-0.348752],[103.729922,-0.348856],[103.726123,-0.349773],[103.723529,-0.349217],[103.72218,-0.350002],[103.719227,-0.351015],[103.717202,-0.351171],[103.71561,-0.350377],[103.715291,-0.352283],[103.711156,-0.353557],[103.700157,-0.356186],[103.695139,-0.355757],[103.695502,-0.357384],[103.694269,-0.356903],[103.693374,-0.358226],[103.690413,-0.35971],[103.68895,-0.359799],[103.686223,-0.360408],[103.683798,-0.360541],[103.682612,-0.361545],[103.676675,-0.362582],[103.675969,-0.363137],[103.672489,-0.364196],[103.671077,-0.364196],[103.670572,-0.363843],[103.66921,-0.364095],[103.66805,-0.364852],[103.667748,-0.365911],[103.667193,-0.366365],[103.66568,-0.36586],[103.664772,-0.366011],[103.663915,-0.366566],[103.661696,-0.369088],[103.660788,-0.369592],[103.659376,-0.370853],[103.655038,-0.373375],[103.653475,-0.374686],[103.650903,-0.375745],[103.648885,-0.376905],[103.646363,-0.378923],[103.64485,-0.379276],[103.643287,-0.380285],[103.641623,-0.38094],[103.640513,-0.381848],[103.639,-0.382705],[103.637502,-0.382824],[103.636176,-0.383966],[103.635167,-0.384218],[103.634007,-0.385076],[103.632443,-0.385378],[103.62977,-0.387245],[103.626744,-0.388606],[103.622962,-0.389211],[103.619633,-0.390825],[103.61701,-0.391784],[103.615397,-0.391683],[103.613984,-0.391935],[103.611261,-0.393398],[103.609647,-0.393801],[103.608437,-0.394406],[103.606419,-0.394558],[103.60541,-0.395718],[103.604099,-0.395566],[103.600972,-0.393549],[103.600115,-0.39254],[103.599812,-0.392994],[103.599711,-0.393952],[103.598602,-0.394911],[103.597341,-0.395163],[103.596332,-0.39486],[103.59411,-0.393112],[103.590116,-0.390849],[103.588109,-0.389549],[103.585699,-0.387937],[103.584141,-0.386733],[103.583531,-0.386213],[103.582887,-0.385578]],[[103.588553,-0.389009],[103.588714,-0.38881],[103.588987,-0.388304],[103.588109,-0.389549],[103.588553,-0.389009]],[[103.589119,-0.389498],[103.589911,-0.38999],[103.588553,-0.389009],[103.589119,-0.389498]],[[103.585086,-0.384508],[103.586152,-0.383107],[103.583531,-0.386213],[103.585086,-0.384508]],[[103.590152,-0.390049],[103.589762,-0.390613],[103.590134,-0.390085],[103.590152,-0.390049]],[[103.59017,-0.390011],[103.589819,-0.389781],[103.589978,-0.389885],[103.59017,-0.390011]],[[103.58992,-0.389566],[103.590282,-0.388791],[103.590294,-0.388729],[103.589901,-0.389554],[103.58992,-0.389566]],[[103.590661,-0.388992],[103.590401,-0.388853],[103.590282,-0.388791],[103.590661,-0.388992]],[[103.587752,-0.387364],[103.587901,-0.387055],[103.587897,-0.387053],[103.587676,-0.387326],[103.587752,-0.387364]],[[103.588023,-0.388905],[103.588082,-0.388794],[103.587028,-0.388243],[103.588023,-0.388905]],[[103.588481,-0.388725],[103.58829,-0.388631],[103.58822,-0.388685],[103.588481,-0.388725]],[[103.58702,-0.388238],[103.587086,-0.388128],[103.587013,-0.388233],[103.58702,-0.388238]],[[103.591892,-0.388893],[103.592133,-0.389],[103.591892,-0.388883],[103.592017,-0.385967],[103.591892,-0.388893]],[[103.590822,-0.385997],[103.591036,-0.385998],[103.592017,-0.385967],[103.590822,-0.385997]],[[103.590943,-0.38999],[103.591682,-0.389135],[103.590588,-0.390392],[103.590943,-0.38999]]],[[[103.567,-0.194887],[103.560992,-0.196307],[103.559572,-0.197181],[103.557279,-0.197727],[103.55564,-0.198492],[103.55422,-0.19871],[103.549961,-0.20013],[103.539803,-0.202751],[103.532157,-0.205482],[103.528771,-0.205482],[103.523092,-0.203079],[103.519597,-0.20013],[103.516866,-0.19871],[103.513153,-0.197727],[103.510859,-0.197836],[103.502558,-0.199256],[103.496332,-0.201113],[103.490325,-0.201987],[103.485191,-0.202314],[103.478747,-0.201987],[103.478856,-0.200785],[103.491636,-0.192703],[103.497424,-0.189645],[103.498407,-0.188552],[103.50223,-0.186805],[103.505616,-0.185603],[103.51064,-0.182545],[103.522983,-0.179924],[103.530261,-0.178035],[103.531611,-0.177412],[103.537728,-0.177302],[103.539585,-0.176647],[103.542683,-0.175965],[103.553034,-0.175669],[103.555531,-0.175773],[103.556951,-0.17621],[103.559136,-0.176101],[103.561648,-0.176538],[103.565143,-0.178613],[103.567109,-0.180579],[103.567873,-0.186477],[103.568747,-0.188443],[103.568419,-0.192047],[103.567,-0.194887]]]]}}]}