{"type":"FeatureCollection","features":[{"type":"Feature","properties":{"kdkec":"1403080","nmkec":"BATANG TUAKA"},"geometry":{"type":"MultiPolygon","coordinates":[[[[102.962648,-0.389559],[102.96239,-0.387166],[102.947156,-0.362184],[102.935234,-0.329904],[103.017325,-0.250487],[103.017089,-0.245475],[103.023895,-0.245454],[103.02899,-0.241108],[103.039101,-0.233319],[103.049676,-0.225283],[103.052138,-0.22426],[103.059638,-0.219465],[103.066023,-0.219312],[103.076362,-0.217725],[103.083474,-0.215676],[103.086562,-0.214067],[103.131784,-0.197659],[103.161,-0.19926],[103.166068,-0.198923],[103.175829,-0.198606],[103.17554,-0.186464],[103.187332,-0.186245],[103.189,-0.187717],[103.193618,-0.187914],[103.194169,-0.186071],[103.248747,-0.185062],[103.252959,-0.183189],[103.264855,-0.18083],[103.281858,-0.180757],[103.284521,-0.182128],[103.287201,-0.183842],[103.290775,-0.18622],[103.292774,-0.187981],[103.296525,-0.190272],[103.304382,-0.189751],[103.310173,-0.197235],[103.317725,-0.207852],[103.322103,-0.206497],[103.327325,-0.22135],[103.332149,-0.228048],[103.342978,-0.241717],[103.336532,-0.242783],[103.328364,-0.24486],[103.321475,-0.245763],[103.319482,-0.245695],[103.309383,-0.246128],[103.299617,-0.243887],[103.288437,-0.240171],[103.281401,-0.238519],[103.280997,-0.238504],[103.279541,-0.238452],[103.279603,-0.237339],[103.279485,-0.23845],[103.276476,-0.238342],[103.274465,-0.238685],[103.274294,-0.236733],[103.274154,-0.235608],[103.275269,-0.235379],[103.272773,-0.235887],[103.272438,-0.233816],[103.273187,-0.238899],[103.270228,-0.239538],[103.269161,-0.240065],[103.257393,-0.250044],[103.253127,-0.2567],[103.246642,-0.263868],[103.24379,-0.265606],[103.235637,-0.268928],[103.232143,-0.27059],[103.227312,-0.273568],[103.224676,-0.274924],[103.22185,-0.27628],[103.219855,-0.276671],[103.218192,-0.277355],[103.211518,-0.278982],[103.208504,-0.279453],[103.204073,-0.279771],[103.197453,-0.27747],[103.192153,-0.273715],[103.188862,-0.270141],[103.185897,-0.268049],[103.183414,-0.26657],[103.178789,-0.266081],[103.176323,-0.266261],[103.166745,-0.267998],[103.152581,-0.271564],[103.146946,-0.274294],[103.142282,-0.266689],[103.147209,-0.274722],[103.1397,-0.277992],[103.133995,-0.282748],[103.128677,-0.288195],[103.12672,-0.29006],[103.125657,-0.292225],[103.124557,-0.2961],[103.124612,-0.29687],[103.12422,-0.297665],[103.124092,-0.298364],[103.123364,-0.299299],[103.122101,-0.300446],[103.120187,-0.301638],[103.117539,-0.302638],[103.114777,-0.303163],[103.110159,-0.302364],[103.10872,-0.302283],[103.106613,-0.302591],[103.103714,-0.305036],[103.101861,-0.307145],[103.099937,-0.310355],[103.098279,-0.318059],[103.098208,-0.319697],[103.100252,-0.322882],[103.100693,-0.325275],[103.100529,-0.330826],[103.099289,-0.337129],[103.097725,-0.341106],[103.09568,-0.345554],[103.093254,-0.34889],[103.089673,-0.352029],[103.086691,-0.353211],[103.083512,-0.354216],[103.078673,-0.354819],[103.076732,-0.356411],[103.072714,-0.358818],[103.06988,-0.359148],[103.065299,-0.358702],[103.061746,-0.356566],[103.058138,-0.353302],[103.057495,-0.35167],[103.056981,-0.349151],[103.056153,-0.347644],[103.055112,-0.34636],[103.05094,-0.342386],[103.047875,-0.339841],[103.045023,-0.338222],[103.043053,-0.338019],[103.040966,-0.337582],[103.038714,-0.337397],[103.03522,-0.337786],[103.031339,-0.337516],[103.030448,-0.336971],[103.028246,-0.337336],[103.026543,-0.338619],[103.022457,-0.343221],[103.018776,-0.346011],[103.014728,-0.350699],[103.013547,-0.352278],[103.010612,-0.355455],[103.00886,-0.356732],[103.005622,-0.360269],[103.005503,-0.36419],[103.007757,-0.37397],[103.006935,-0.378792],[102.995707,-0.379155],[103.006936,-0.378792],[103.006031,-0.3841],[103.002505,-0.389574],[103.001651,-0.390648],[102.99429,-0.394169],[102.989697,-0.397299],[102.98839,-0.397956],[102.986161,-0.397673],[102.98122,-0.396578],[102.967917,-0.396727],[102.967567,-0.391879],[102.9671,-0.389362],[102.973433,-0.389875],[102.967791,-0.389331],[102.962648,-0.389559]],[[103.056194,-0.233845],[103.047901,-0.233568],[103.039101,-0.233319],[103.056194,-0.233845]],[[103.236228,-0.202523],[103.236538,-0.202092],[103.248747,-0.185062],[103.236228,-0.202523]],[[103.30869,-0.198647],[103.306962,-0.200465],[103.310173,-0.197235],[103.30869,-0.198647]],[[103.281754,-0.236318],[103.281747,-0.236175],[103.281401,-0.238519],[103.281754,-0.236318]],[[103.281334,-0.235973],[103.281169,-0.237131],[103.280997,-0.238504],[103.281334,-0.235973]],[[103.281007,-0.23711],[103.279631,-0.237097],[103.279276,-0.237123],[103.281169,-0.237131],[103.281007,-0.23711]],[[103.223568,-0.27247],[103.223921,-0.273327],[103.224676,-0.274924],[103.223568,-0.27247]],[[103.127497,-0.287271],[103.121995,-0.285065],[103.127318,-0.287199],[103.128677,-0.288195],[103.127497,-0.287271]],[[103.094583,-0.322491],[103.060912,-0.306117],[103.095356,-0.322874],[103.100693,-0.325275],[103.094583,-0.322491]],[[103.088559,-0.336919],[103.088776,-0.337047],[103.097725,-0.341106],[103.088559,-0.336919]],[[103.041088,-0.333161],[103.040972,-0.335712],[103.040966,-0.337582],[103.041088,-0.333161]],[[103.153668,-0.264307],[103.153668,-0.264307],[103.160541,-0.260639],[103.153668,-0.264307]],[[103.055473,-0.261071],[103.065572,-0.260508],[103.025882,-0.262356],[103.025882,-0.262356],[103.055473,-0.261071]],[[103.067347,-0.264283],[103.067347,-0.264283],[103.065572,-0.260508],[103.067347,-0.264283]],[[103.025531,-0.275903],[103.022483,-0.275321],[103.01993,-0.274842],[103.025531,-0.275903]],[[103.030578,-0.275407],[103.034436,-0.275051],[103.039537,-0.274508],[103.025531,-0.275903],[103.030578,-0.275407]],[[103.006586,-0.275969],[103.018866,-0.274933],[103.01993,-0.274842],[103.006586,-0.275969]],[[103.079276,-0.299942],[103.067888,-0.294699],[103.092372,-0.305971],[103.079276,-0.299942]],[[103.086304,-0.295549],[103.086304,-0.295549],[103.094583,-0.296812],[103.086304,-0.295549]],[[103.050003,-0.305001],[103.049568,-0.307497],[103.049114,-0.312232],[103.050003,-0.305001]],[[103.015676,-0.310193],[103.016659,-0.310546],[103.015676,-0.310193],[103.015676,-0.310193]],[[103.018861,-0.311867],[103.018832,-0.31183],[103.016659,-0.310546],[103.018861,-0.311867]],[[103.015959,-0.304421],[103.015668,-0.309905],[103.015676,-0.310193],[103.015959,-0.304421]],[[103.019143,-0.312225],[103.019258,-0.31251],[103.020184,-0.313544],[103.019143,-0.312225]],[[103.021956,-0.315015],[103.023902,-0.316958],[103.026515,-0.319324],[103.021956,-0.315015]],[[103.003307,-0.358851],[103.003361,-0.358999],[103.003919,-0.359553],[103.003307,-0.358851]],[[103.001186,-0.354202],[103.001186,-0.354202],[103.001186,-0.354202],[103.001186,-0.354202]],[[102.995958,-0.357074],[102.995061,-0.363206],[102.996401,-0.354042],[102.995958,-0.357074]],[[103.009092,-0.307414],[103.009001,-0.307379],[103.009366,-0.307752],[103.009092,-0.307414]],[[103.008683,-0.307255],[103.003655,-0.308859],[103.008814,-0.307306],[103.008683,-0.307255]],[[103.004926,-0.326832],[103.010013,-0.325334],[103.008397,-0.325746],[103.004926,-0.326832]],[[103.088543,-0.33691],[103.089307,-0.335214],[103.088543,-0.33691],[103.088543,-0.33691]],[[103.059522,-0.319759],[103.052901,-0.315846],[103.059527,-0.319761],[103.059522,-0.319759]],[[103.097715,-0.308094],[103.098297,-0.306914],[103.097715,-0.308094],[103.097715,-0.308094]],[[103.013262,-0.308239],[103.012116,-0.305031],[103.011406,-0.303131],[103.013262,-0.308239]],[[103.017982,-0.297971],[103.018844,-0.310755],[103.018857,-0.309598],[103.017982,-0.297971]],[[103.024521,-0.290781],[103.025109,-0.31197],[103.02528,-0.314764],[103.024521,-0.290781]],[[103.110843,-0.24995],[103.113526,-0.253672],[103.118571,-0.26049],[103.110843,-0.24995]],[[103.098534,-0.271275],[103.11364,-0.266249],[103.110623,-0.263125],[103.113638,-0.266248],[103.098534,-0.271275]],[[103.123152,-0.273993],[103.123152,-0.273993],[103.122731,-0.273388],[103.123152,-0.273993]],[[103.11377,-0.266288],[103.114697,-0.266563],[103.114963,-0.266609],[103.11377,-0.266288]],[[103.118005,-0.266809],[103.115927,-0.266777],[103.116148,-0.266816],[103.118005,-0.266809]],[[103.070068,-0.270319],[103.06895,-0.267839],[103.069732,-0.269732],[103.070068,-0.270319]],[[103.076318,-0.275165],[103.074813,-0.273994],[103.075911,-0.274931],[103.076318,-0.275165]],[[103.078323,-0.276092],[103.07687,-0.275483],[103.077256,-0.275706],[103.078323,-0.276092]],[[103.08076,-0.276281],[103.081144,-0.276616],[103.080628,-0.276148],[103.080086,-0.275993],[103.08076,-0.276281]],[[103.090897,-0.284568],[103.090118,-0.283657],[103.090489,-0.284103],[103.090897,-0.284568]],[[103.039223,-0.268697],[103.039223,-0.268697],[103.039537,-0.274508],[103.039537,-0.274508],[103.039223,-0.268697]],[[103.064967,-0.258223],[103.065018,-0.258429],[103.065041,-0.258515],[103.064967,-0.258223]],[[103.076687,-0.253326],[103.070206,-0.242671],[103.074459,-0.249664],[103.076687,-0.253326]],[[103.060997,-0.25332],[103.063446,-0.253593],[103.063781,-0.25352],[103.060997,-0.25332]],[[103.05863,-0.255924],[103.04056,-0.253768],[103.024184,-0.251776],[103.051587,-0.25511],[103.05863,-0.255924]],[[103.058648,-0.253059],[103.058648,-0.253059],[103.05863,-0.255924],[103.058648,-0.253059]],[[103.068702,-0.263744],[103.07355,-0.25977],[103.072716,-0.260453],[103.068702,-0.263744]],[[103.084248,-0.26051],[103.08795,-0.263195],[103.096551,-0.269432],[103.084248,-0.26051]],[[103.094951,-0.289082],[103.098611,-0.291732],[103.094906,-0.289045],[103.094951,-0.289082]],[[103.102522,-0.261239],[103.101207,-0.260681],[103.101579,-0.26091],[103.102522,-0.261239]],[[103.077567,-0.239256],[103.07896,-0.238295],[103.081863,-0.236056],[103.081863,-0.236056],[103.077567,-0.239256]],[[103.069828,-0.222783],[103.081664,-0.235812],[103.080787,-0.234738],[103.069828,-0.222783]],[[103.139803,-0.26289],[103.139803,-0.26289],[103.130199,-0.270302],[103.139803,-0.26289]],[[103.13825,-0.260509],[103.149483,-0.254269],[103.149761,-0.254115],[103.13825,-0.260509]],[[103.132514,-0.254108],[103.126709,-0.246993],[103.131322,-0.25268],[103.132514,-0.254108]],[[103.105659,-0.228566],[103.105857,-0.228007],[103.105064,-0.230242],[103.105659,-0.228566]],[[103.105599,-0.231318],[103.105753,-0.231423],[103.105064,-0.230242],[103.105599,-0.231318]],[[103.107223,-0.229177],[103.106383,-0.228617],[103.107223,-0.229177],[103.107223,-0.229177]],[[103.113592,-0.239386],[103.113969,-0.24008],[103.114995,-0.241059],[103.114215,-0.240315],[103.113592,-0.239386]],[[103.102767,-0.230259],[103.103064,-0.229026],[103.103064,-0.229026],[103.102767,-0.230259]],[[103.151623,-0.24144],[103.151339,-0.240203],[103.151826,-0.243473],[103.151623,-0.24144]],[[103.15257,-0.245132],[103.153093,-0.245816],[103.151826,-0.243473],[103.15257,-0.245132]],[[103.155406,-0.248414],[103.15541,-0.24842],[103.159267,-0.245846],[103.154887,-0.248717],[103.155406,-0.248414]],[[103.158463,-0.248934],[103.156589,-0.250159],[103.154991,-0.251274],[103.158463,-0.248934]],[[103.150973,-0.239094],[103.146008,-0.238156],[103.150531,-0.239013],[103.150973,-0.239094]],[[103.159703,-0.257268],[103.159724,-0.25804],[103.159686,-0.255206],[103.159703,-0.257268]],[[103.198176,-0.226043],[103.198087,-0.226603],[103.19655,-0.236248],[103.198176,-0.226043]],[[103.190024,-0.244777],[103.190307,-0.242222],[103.19113,-0.231562],[103.190024,-0.244777]],[[103.189147,-0.247747],[103.189575,-0.246531],[103.190024,-0.244777],[103.189147,-0.247747]],[[103.186847,-0.252222],[103.188001,-0.25004],[103.189147,-0.247747],[103.186847,-0.252222]],[[103.185134,-0.256145],[103.182965,-0.262849],[103.186295,-0.252885],[103.185134,-0.256145]],[[103.186302,-0.265527],[103.186454,-0.264818],[103.186302,-0.265524],[103.186302,-0.265527]],[[103.18628,-0.26564],[103.186855,-0.26575],[103.186288,-0.265599],[103.18628,-0.26564]],[[103.186795,-0.266048],[103.18688,-0.265626],[103.186928,-0.265089],[103.186855,-0.26575],[103.186795,-0.266048]],[[103.184543,-0.265749],[103.182805,-0.265501],[103.18493,-0.265882],[103.184543,-0.265749]],[[103.21534,-0.209048],[103.221482,-0.21406],[103.21984,-0.212713],[103.21534,-0.209048]],[[103.223874,-0.209545],[103.223874,-0.209545],[103.223874,-0.209545],[103.223874,-0.209545]],[[103.262837,-0.222206],[103.258468,-0.227486],[103.258468,-0.227486],[103.262837,-0.222206]],[[103.286228,-0.213029],[103.286336,-0.215616],[103.286354,-0.215805],[103.286228,-0.213029]],[[103.290055,-0.21616],[103.288696,-0.216501],[103.289027,-0.216491],[103.290055,-0.21616]],[[103.294716,-0.223643],[103.2945,-0.223123],[103.294849,-0.22433],[103.294716,-0.223643]],[[103.23422,-0.256966],[103.234273,-0.25696],[103.243444,-0.253329],[103.243444,-0.253329],[103.23422,-0.256966]],[[103.294666,-0.230533],[103.295299,-0.230745],[103.294878,-0.230592],[103.294666,-0.230533]],[[103.286292,-0.23651],[103.294625,-0.236838],[103.286797,-0.236507],[103.286292,-0.23651]],[[103.265504,-0.221328],[103.264285,-0.22019],[103.272556,-0.228035],[103.265504,-0.221328]],[[103.274729,-0.231249],[103.273699,-0.229566],[103.272556,-0.228035],[103.274729,-0.231249]],[[103.278068,-0.236486],[103.278118,-0.234338],[103.278022,-0.235935],[103.278068,-0.236486]],[[103.278102,-0.236896],[103.279655,-0.236751],[103.279655,-0.236751],[103.278102,-0.236896],[103.278102,-0.236896]],[[103.27505,-0.236149],[103.275606,-0.23604],[103.275606,-0.23604],[103.27505,-0.236149]],[[103.275118,-0.236643],[103.275118,-0.236643],[103.27505,-0.236149],[103.275118,-0.236643]],[[103.245214,-0.236833],[103.251918,-0.231911],[103.24522,-0.236828],[103.245214,-0.236833]],[[103.266313,-0.225325],[103.266121,-0.224458],[103.266146,-0.224966],[103.266313,-0.225325]],[[103.279766,-0.235889],[103.280237,-0.235809],[103.279766,-0.235889],[103.279766,-0.235889]],[[103.281618,-0.225418],[103.281153,-0.227218],[103.280473,-0.230198],[103.281618,-0.225418]],[[103.289492,-0.2291],[103.287429,-0.228528],[103.287122,-0.228512],[103.289492,-0.2291]],[[103.281735,-0.235931],[103.281717,-0.235573],[103.281527,-0.23521],[103.281735,-0.235931]],[[103.225723,-0.241271],[103.225723,-0.241271],[103.225968,-0.241781],[103.225723,-0.241271]],[[103.230449,-0.246882],[103.230381,-0.246895],[103.231792,-0.246662],[103.230438,-0.24687],[103.230449,-0.246882]],[[103.232721,-0.256787],[103.230456,-0.252675],[103.23187,-0.255336],[103.232721,-0.256787]],[[103.224705,-0.254912],[103.229579,-0.254162],[103.222231,-0.255183],[103.224705,-0.254912]],[[103.211122,-0.233765],[103.216756,-0.237196],[103.213092,-0.234865],[103.211122,-0.233765]],[[103.30675,-0.227924],[103.30675,-0.227924],[103.302002,-0.230419],[103.30675,-0.227924]],[[103.319294,-0.226172],[103.319773,-0.227159],[103.321581,-0.229377],[103.32007,-0.227475],[103.319294,-0.226172]],[[103.323814,-0.231693],[103.322516,-0.230489],[103.322691,-0.230719],[103.323814,-0.231693]],[[103.325394,-0.234377],[103.324677,-0.233296],[103.325042,-0.233969],[103.325394,-0.234377]],[[103.325888,-0.235121],[103.325867,-0.23509],[103.325821,-0.235406],[103.325888,-0.235121]],[[103.326914,-0.236292],[103.326481,-0.236035],[103.326564,-0.236194],[103.326914,-0.236292]],[[103.328221,-0.237804],[103.328029,-0.237585],[103.327662,-0.237375],[103.328221,-0.237804]],[[103.328673,-0.238453],[103.329019,-0.23872],[103.328621,-0.238263],[103.328673,-0.238453]],[[103.274082,-0.202039],[103.274362,-0.201778],[103.266281,-0.208796],[103.266281,-0.208796],[103.274082,-0.202039]],[[103.278446,-0.208308],[103.282065,-0.201022],[103.278446,-0.208308],[103.278446,-0.208308]],[[103.286474,-0.212744],[103.28592,-0.211366],[103.285997,-0.211569],[103.286474,-0.212744]],[[103.286504,-0.210721],[103.286774,-0.210352],[103.28592,-0.211366],[103.286504,-0.210721]],[[103.276967,-0.207022],[103.276982,-0.205821],[103.276921,-0.206295],[103.276967,-0.207022]],[[103.294728,-0.19931],[103.288016,-0.204862],[103.300532,-0.194698],[103.294728,-0.19931]],[[103.227513,-0.195954],[103.227558,-0.195802],[103.227397,-0.196281],[103.227513,-0.195954]],[[103.232399,-0.20076],[103.231063,-0.199523],[103.231093,-0.199625],[103.232399,-0.20076]],[[103.233849,-0.20196],[103.232875,-0.201448],[103.233315,-0.20168],[103.233849,-0.20196]],[[103.243517,-0.208577],[103.242365,-0.207507],[103.243392,-0.208548],[103.243517,-0.208577]],[[103.22364,-0.192381],[103.22338,-0.19266],[103.223169,-0.192425],[103.223451,-0.192739],[103.22364,-0.192381]],[[103.223275,-0.19307],[103.222696,-0.193662],[103.223271,-0.193078],[103.223275,-0.19307]],[[103.22459,-0.193184],[103.224775,-0.192981],[103.22459,-0.193184],[103.22459,-0.193184]],[[103.244403,-0.209399],[103.248024,-0.20983],[103.247409,-0.209732],[103.244403,-0.209399]],[[103.249298,-0.210794],[103.249271,-0.21076],[103.248461,-0.210434],[103.249298,-0.210794]]],[[[103.274465,-0.238685],[103.273187,-0.238899],[103.272773,-0.235887],[103.274165,-0.235699],[103.274465,-0.238685]]]]}}]}