{"type":"FeatureCollection","features":[{"type":"Feature","properties":{"kdkec":"1403090","nmkec":"GAUNG ANAK SERKA"},"geometry":{"type":"MultiPolygon","coordinates":[[[[103.049676,-0.225283],[103.02899,-0.241108],[103.023895,-0.245454],[103.017089,-0.245475],[103.017325,-0.250487],[102.935234,-0.329904],[102.896109,-0.30418],[102.873448,-0.289777],[102.825407,-0.258006],[102.80409,-0.244571],[102.877614,-0.218582],[103.015394,-0.175628],[103.044466,-0.166988],[103.065203,-0.160148],[103.08044,-0.155632],[103.080625,-0.157696],[103.089221,-0.157402],[103.08918,-0.152943],[103.093054,-0.151751],[103.108813,-0.145347],[103.120381,-0.140891],[103.124868,-0.138488],[103.127324,-0.136843],[103.133186,-0.133427],[103.143703,-0.134648],[103.150953,-0.134097],[103.157016,-0.130852],[103.164724,-0.125541],[103.169326,-0.123594],[103.173139,-0.122624],[103.180412,-0.122949],[103.188075,-0.12468],[103.190933,-0.126163],[103.199044,-0.128184],[103.205381,-0.131356],[103.216298,-0.132873],[103.222313,-0.13279],[103.232945,-0.130951],[103.23846,-0.129525],[103.245931,-0.124582],[103.249651,-0.120799],[103.258346,-0.117743],[103.263228,-0.115714],[103.264677,-0.114631],[103.266816,-0.113863],[103.271716,-0.114193],[103.2762,-0.11705],[103.28418,-0.121511],[103.289117,-0.12389],[103.293867,-0.126423],[103.302673,-0.132426],[103.319079,-0.136828],[103.342693,-0.137628],[103.346897,-0.135897],[103.352293,-0.135805],[103.359446,-0.136045],[103.365087,-0.13463],[103.369306,-0.135429],[103.374108,-0.141431],[103.388507,-0.152044],[103.399701,-0.158433],[103.4018,-0.157497],[103.404026,-0.157742],[103.407701,-0.158701],[103.409158,-0.157047],[103.409233,-0.155025],[103.407725,-0.15289],[103.40609,-0.150021],[103.406116,-0.149178],[103.411669,-0.14903],[103.414675,-0.147873],[103.422306,-0.14533],[103.430689,-0.145734],[103.436586,-0.147064],[103.437391,-0.147451],[103.447975,-0.153539],[103.453005,-0.157875],[103.462516,-0.175442],[103.462016,-0.175636],[103.456834,-0.183102],[103.454552,-0.185093],[103.450847,-0.187867],[103.433932,-0.198907],[103.419849,-0.210415],[103.405358,-0.223541],[103.403623,-0.224901],[103.400879,-0.226407],[103.394591,-0.229272],[103.384768,-0.232246],[103.379503,-0.233493],[103.354769,-0.238074],[103.35219,-0.23874],[103.342978,-0.241717],[103.33156,-0.227304],[103.327325,-0.22135],[103.322103,-0.206497],[103.317725,-0.207852],[103.308883,-0.195421],[103.304382,-0.189751],[103.296525,-0.190272],[103.292774,-0.187981],[103.290124,-0.185711],[103.285199,-0.182561],[103.281858,-0.180757],[103.264855,-0.18083],[103.252959,-0.183189],[103.248747,-0.185062],[103.194169,-0.186071],[103.193618,-0.187914],[103.189,-0.187717],[103.187332,-0.186245],[103.17554,-0.186464],[103.175829,-0.198606],[103.166068,-0.198923],[103.161,-0.19926],[103.131784,-0.197659],[103.086562,-0.214067],[103.083474,-0.215676],[103.076362,-0.217725],[103.066023,-0.219312],[103.059638,-0.219465],[103.052138,-0.22426],[103.049676,-0.225283]],[[103.428083,-0.176398],[103.427138,-0.179773],[103.427839,-0.177271],[103.437391,-0.147451],[103.428083,-0.176398]],[[103.442945,-0.172381],[103.44147,-0.169884],[103.442905,-0.172313],[103.427839,-0.177271],[103.442945,-0.172381]],[[103.339926,-0.220757],[103.343152,-0.218155],[103.33156,-0.227304],[103.339926,-0.220757]],[[103.34583,-0.227939],[103.344678,-0.226518],[103.339926,-0.220757],[103.34583,-0.227939]],[[103.180988,-0.164686],[103.180915,-0.158628],[103.180916,-0.163938],[103.180988,-0.164686]],[[103.185948,-0.166376],[103.185948,-0.166375],[103.184947,-0.166646],[103.184985,-0.166646],[103.185948,-0.166376]],[[103.201604,-0.176685],[103.200646,-0.17665],[103.190054,-0.176517],[103.201604,-0.176685]],[[103.139861,-0.151315],[103.146193,-0.166036],[103.139861,-0.151315],[103.139861,-0.151315]],[[103.149781,-0.168296],[103.149762,-0.169053],[103.150051,-0.167034],[103.149781,-0.168296]],[[103.150474,-0.166627],[103.150296,-0.166732],[103.150051,-0.167034],[103.150474,-0.166627]],[[103.149728,-0.170431],[103.149713,-0.171042],[103.149912,-0.173722],[103.149728,-0.170431]],[[103.153503,-0.17553],[103.151542,-0.177424],[103.151796,-0.177314],[103.153503,-0.17553]],[[103.144903,-0.180584],[103.143365,-0.181643],[103.14594,-0.179965],[103.144903,-0.180584]],[[103.141608,-0.1832],[103.141996,-0.183942],[103.140675,-0.181262],[103.141608,-0.1832]],[[103.102491,-0.192337],[103.106085,-0.191362],[103.100108,-0.192794],[103.102491,-0.192337]],[[103.082347,-0.192868],[103.083462,-0.191801],[103.084997,-0.190109],[103.082347,-0.192868]],[[103.143293,-0.183992],[103.142671,-0.183965],[103.143293,-0.183992],[103.143293,-0.183992]],[[103.168216,-0.171651],[103.168216,-0.171651],[103.169251,-0.172743],[103.168216,-0.171651]],[[103.181456,-0.167442],[103.181428,-0.167516],[103.182038,-0.166479],[103.182329,-0.165997],[103.181456,-0.167442]],[[103.183019,-0.166987],[103.183459,-0.167084],[103.182038,-0.166479],[103.183019,-0.166987]],[[103.155635,-0.165764],[103.153531,-0.165457],[103.153543,-0.165092],[103.153528,-0.165475],[103.153305,-0.16549],[103.155635,-0.165764]],[[103.153031,-0.165979],[103.152678,-0.165987],[103.153771,-0.166098],[103.153373,-0.166],[103.153031,-0.165979]],[[103.152959,-0.165373],[103.152873,-0.165365],[103.153031,-0.165979],[103.152959,-0.165373]],[[103.147155,-0.148307],[103.151926,-0.160423],[103.14613,-0.145459],[103.147155,-0.148307]],[[103.158919,-0.168045],[103.15977,-0.169193],[103.159535,-0.168826],[103.158919,-0.168045]],[[103.159841,-0.169305],[103.161785,-0.172955],[103.15992,-0.169428],[103.159841,-0.169305]],[[103.218258,-0.14965],[103.218299,-0.148584],[103.218223,-0.150562],[103.218258,-0.14965]],[[103.224982,-0.147907],[103.224954,-0.14789],[103.224978,-0.148046],[103.224982,-0.147907]],[[103.22293,-0.147503],[103.223814,-0.146912],[103.222064,-0.147878],[103.22293,-0.147503]],[[103.220615,-0.148505],[103.21962,-0.148822],[103.220398,-0.148599],[103.220615,-0.148505]],[[103.201579,-0.152731],[103.201579,-0.152731],[103.202183,-0.152056],[103.201579,-0.152731]],[[103.198559,-0.14979],[103.198611,-0.146274],[103.198573,-0.148172],[103.198559,-0.14979]],[[103.197401,-0.149919],[103.19763,-0.149901],[103.198559,-0.14979],[103.197401,-0.149919]],[[103.194517,-0.147929],[103.194517,-0.147929],[103.198573,-0.148172],[103.194517,-0.147929]],[[103.194796,-0.148842],[103.196877,-0.148815],[103.197442,-0.148804],[103.194796,-0.148842],[103.194796,-0.148842]],[[103.196886,-0.151033],[103.196771,-0.15097],[103.196884,-0.151356],[103.196886,-0.151033]],[[103.198872,-0.15157],[103.19754,-0.151368],[103.196579,-0.151373],[103.198872,-0.15157]],[[103.201678,-0.154053],[103.200702,-0.153182],[103.198872,-0.15157],[103.201678,-0.154053]],[[103.193748,-0.15376],[103.19404,-0.152251],[103.193844,-0.152918],[103.193748,-0.15376]],[[103.195741,-0.151421],[103.195533,-0.151432],[103.195479,-0.15145],[103.195741,-0.151421]],[[103.200675,-0.158721],[103.200739,-0.158581],[103.200831,-0.155813],[103.200786,-0.157002],[103.200675,-0.158721]],[[103.237012,-0.137953],[103.23708,-0.136358],[103.236952,-0.138953],[103.237012,-0.137953]],[[103.237757,-0.137972],[103.237757,-0.137972],[103.237012,-0.137953],[103.237757,-0.137972]],[[103.238047,-0.138737],[103.238047,-0.138962],[103.238102,-0.140129],[103.238047,-0.138737]],[[103.243097,-0.14129],[103.24275,-0.141989],[103.236934,-0.142041],[103.242716,-0.142061],[103.243097,-0.14129]],[[103.238346,-0.141267],[103.238344,-0.140424],[103.238344,-0.140124],[103.238346,-0.141267]],[[103.250612,-0.138627],[103.252109,-0.136516],[103.250612,-0.138627],[103.250612,-0.138627]],[[103.254894,-0.134419],[103.256404,-0.133282],[103.252109,-0.136516],[103.254894,-0.134419]],[[103.25844,-0.132333],[103.260157,-0.133505],[103.261471,-0.135007],[103.260128,-0.13347],[103.25844,-0.132333]],[[103.26259,-0.137894],[103.263137,-0.138247],[103.263535,-0.138276],[103.26259,-0.137894]],[[103.263559,-0.140202],[103.263559,-0.140202],[103.263535,-0.138276],[103.263559,-0.140202]],[[103.26252,-0.139242],[103.262701,-0.139327],[103.262348,-0.13915],[103.26252,-0.139242]],[[103.262927,-0.139521],[103.263022,-0.138907],[103.262924,-0.139466],[103.262927,-0.139521]],[[103.256171,-0.140665],[103.255432,-0.137052],[103.257517,-0.147489],[103.256171,-0.140665]],[[103.262247,-0.139725],[103.261905,-0.139295],[103.262196,-0.139676],[103.260748,-0.140323],[103.262247,-0.139725]],[[103.341225,-0.165375],[103.337473,-0.164825],[103.332665,-0.164316],[103.341418,-0.165419],[103.341225,-0.165375]],[[103.349203,-0.170561],[103.349174,-0.170524],[103.350763,-0.173847],[103.349203,-0.170561]],[[103.359081,-0.180192],[103.35671,-0.18045],[103.356983,-0.180491],[103.359081,-0.180192]],[[103.366411,-0.179146],[103.365028,-0.179544],[103.366402,-0.179151],[103.366411,-0.179146]],[[103.366514,-0.183186],[103.366539,-0.181576],[103.366402,-0.179151],[103.366514,-0.183186]],[[103.371881,-0.174684],[103.367953,-0.178281],[103.368012,-0.178247],[103.371881,-0.174684]],[[103.400446,-0.170559],[103.400474,-0.179669],[103.400925,-0.194988],[103.400562,-0.18186],[103.400446,-0.170559]],[[103.339141,-0.19273],[103.331578,-0.192763],[103.343263,-0.19272],[103.339141,-0.19273]],[[103.357472,-0.224333],[103.356975,-0.237564],[103.357476,-0.224314],[103.357472,-0.224333]],[[103.354369,-0.1826],[103.353435,-0.18255],[103.353911,-0.182579],[103.354369,-0.1826]],[[103.354996,-0.182146],[103.354924,-0.182154],[103.355241,-0.182222],[103.354996,-0.182146]],[[103.356302,-0.181409],[103.356302,-0.181712],[103.35631,-0.181234],[103.356302,-0.181409]],[[103.357952,-0.181393],[103.356986,-0.181379],[103.356986,-0.181379],[103.357952,-0.181393]],[[103.357956,-0.182727],[103.357955,-0.181248],[103.35795,-0.181714],[103.357956,-0.182727]],[[103.356965,-0.182727],[103.356967,-0.182588],[103.356964,-0.18279],[103.359825,-0.182713],[103.357956,-0.182727],[103.356965,-0.182727]],[[103.362458,-0.18268],[103.3615,-0.182688],[103.359825,-0.182713],[103.362458,-0.18268]],[[103.362728,-0.183954],[103.362403,-0.182362],[103.361939,-0.18123],[103.362458,-0.18268],[103.362728,-0.183954]],[[103.362391,-0.183981],[103.365513,-0.18394],[103.362728,-0.183954],[103.362391,-0.183981]],[[103.365483,-0.201763],[103.365452,-0.218006],[103.365528,-0.183162],[103.365497,-0.182587],[103.365513,-0.18394],[103.365483,-0.201763]],[[103.365497,-0.182576],[103.364411,-0.18262],[103.365497,-0.182587],[103.365497,-0.182576]],[[103.36047,-0.20304],[103.360622,-0.217182],[103.360568,-0.205397],[103.36042,-0.201841],[103.36047,-0.20304]],[[103.35524,-0.202992],[103.350948,-0.202952],[103.346856,-0.202915],[103.36047,-0.20304],[103.35524,-0.202992]],[[103.349863,-0.17987],[103.349863,-0.17987],[103.344605,-0.174755],[103.346371,-0.176557],[103.349863,-0.17987]],[[103.351735,-0.180814],[103.351763,-0.180829],[103.350943,-0.180019],[103.351735,-0.180814]],[[103.351707,-0.182872],[103.352227,-0.181399],[103.35231,-0.181134],[103.351707,-0.182872],[103.351707,-0.182872]],[[103.353661,-0.182821],[103.353824,-0.18612],[103.353839,-0.186352],[103.353661,-0.182821]],[[103.356617,-0.18629],[103.355295,-0.18632],[103.353839,-0.186352],[103.356617,-0.18629]],[[103.358031,-0.184143],[103.358015,-0.185367],[103.358129,-0.184143],[103.358031,-0.184143]],[[103.361394,-0.180887],[103.361384,-0.180803],[103.359903,-0.180809],[103.361394,-0.180887]],[[103.360649,-0.180904],[103.360417,-0.180909],[103.359905,-0.180943],[103.360649,-0.180904]],[[103.368117,-0.182887],[103.368122,-0.183216],[103.368117,-0.182866],[103.368117,-0.182887]],[[103.370426,-0.183595],[103.370495,-0.207548],[103.370425,-0.18262],[103.370426,-0.183595]],[[103.36248,-0.180879],[103.362488,-0.18106],[103.362587,-0.18089],[103.36248,-0.180879]],[[103.362596,-0.180891],[103.362686,-0.182669],[103.362603,-0.180978],[103.363262,-0.180958],[103.362596,-0.180891]],[[103.368052,-0.181181],[103.367666,-0.181185],[103.36807,-0.181184],[103.368055,-0.180676],[103.368052,-0.181181]],[[103.368116,-0.182674],[103.368116,-0.182674],[103.368408,-0.182681],[103.368116,-0.182674]],[[103.277796,-0.146611],[103.27718,-0.14576],[103.27599,-0.137728],[103.277073,-0.145611],[103.277796,-0.146611]],[[103.278567,-0.146996],[103.279708,-0.147438],[103.277796,-0.146611],[103.278567,-0.146996]],[[103.320018,-0.150367],[103.324321,-0.150392],[103.326123,-0.150376],[103.317726,-0.150339],[103.320018,-0.150367]],[[103.322971,-0.156267],[103.322643,-0.157422],[103.322894,-0.156836],[103.324321,-0.150392],[103.322971,-0.156267]],[[103.322763,-0.156218],[103.320324,-0.155698],[103.322971,-0.156267],[103.322763,-0.156218]],[[103.324041,-0.158398],[103.323783,-0.158218],[103.325767,-0.160349],[103.32441,-0.158845],[103.324041,-0.158398]],[[103.325103,-0.167764],[103.325027,-0.165697],[103.325087,-0.167945],[103.325103,-0.167764]],[[103.357676,-0.170485],[103.3576,-0.174915],[103.3576,-0.174915],[103.357676,-0.170485]],[[103.361329,-0.174961],[103.361238,-0.176663],[103.361238,-0.176784],[103.361329,-0.174961],[103.361329,-0.174961]],[[103.361509,-0.17902],[103.361608,-0.176851],[103.361509,-0.178847],[103.361509,-0.17902]],[[103.361245,-0.17914],[103.361528,-0.179138],[103.361394,-0.179138],[103.361509,-0.17902],[103.361245,-0.17914]],[[103.359772,-0.176494],[103.359763,-0.177134],[103.356443,-0.177134],[103.359818,-0.177143],[103.359772,-0.176494]],[[103.294041,-0.148045],[103.292622,-0.146795],[103.293733,-0.147774],[103.294041,-0.148045]],[[103.289032,-0.157037],[103.290269,-0.153024],[103.289175,-0.1565],[103.289032,-0.157037]],[[103.27921,-0.15158],[103.277604,-0.154677],[103.279,-0.151993],[103.27921,-0.15158]]],[[[103.402005,-0.133106],[103.405237,-0.129587],[103.405197,-0.119791],[103.403624,-0.073345],[103.40516,-0.068222],[103.406783,-0.065192],[103.408424,-0.066474],[103.413304,-0.069472],[103.414776,-0.072635],[103.417666,-0.074843],[103.420964,-0.076697],[103.425271,-0.078005],[103.428652,-0.080295],[103.430151,-0.082639],[103.430096,-0.086183],[103.430887,-0.088937],[103.432986,-0.090654],[103.435331,-0.091526],[103.440319,-0.092126],[103.442227,-0.09308],[103.444354,-0.09856],[103.455912,-0.11418],[103.46071,-0.117179],[103.473872,-0.121727],[103.483008,-0.127339],[103.49393,-0.131605],[103.497514,-0.133994],[103.500927,-0.141845],[103.501951,-0.14577],[103.494783,-0.157887],[103.48352,-0.164201],[103.474304,-0.170345],[103.471232,-0.172052],[103.469249,-0.172823],[103.466108,-0.171968],[103.458931,-0.156979],[103.45182,-0.14981],[103.439159,-0.143624],[103.432395,-0.141774],[103.427134,-0.141023],[103.422014,-0.141952],[103.41693,-0.143537],[103.410513,-0.146775],[103.408142,-0.147613],[103.406142,-0.147753],[103.405837,-0.140096],[103.401395,-0.139328],[103.402005,-0.133106]]]]}}]}