{"type":"FeatureCollection","features":[{"type":"Feature","properties":{"kdkec":"1403123","nmkec":"PULAU BURUNG"},"geometry":{"type":"MultiPolygon","coordinates":[[[[103.341975,0.316483],[103.330585,0.29969],[103.315076,0.313095],[103.298383,0.327891],[103.303154,0.333338],[103.298575,0.32811],[103.281195,0.343032],[103.281108,0.342929],[103.250879,0.369922],[103.249818,0.368708],[103.246967,0.371171],[103.24838,0.372984],[103.20761,0.407812],[103.220142,0.418602],[103.231788,0.427749],[103.241642,0.433986],[103.257192,0.447303],[103.268738,0.443025],[103.271893,0.439394],[103.289512,0.448431],[103.310785,0.461619],[103.339692,0.477648],[103.351606,0.484767],[103.351606,0.502379],[103.349837,0.509453],[103.346732,0.511161],[103.343413,0.513668],[103.34332,0.524637],[103.344396,0.539555],[103.347324,0.53869],[103.351309,0.536873],[103.353732,0.536162],[103.354475,0.53571],[103.362427,0.533566],[103.373622,0.532164],[103.378436,0.532261],[103.383994,0.531647],[103.390827,0.529288],[103.39178,0.529353],[103.396529,0.527317],[103.401198,0.525896],[103.403686,0.525347],[103.405204,0.52525],[103.410939,0.522439],[103.412522,0.521857],[103.413808,0.520885],[103.415089,0.520316],[103.41877,0.517081],[103.419826,0.516394],[103.420206,0.515564],[103.419813,0.51653],[103.420252,0.517292],[103.421612,0.516641],[103.421838,0.516343],[103.425816,0.51396],[103.430072,0.509864],[103.434471,0.506604],[103.436929,0.505821],[103.437762,0.505151],[103.440456,0.501368],[103.444801,0.496844],[103.456449,0.489043],[103.457972,0.48897],[103.474708,0.474935],[103.47492,0.474592],[103.478301,0.473113],[103.479991,0.470367],[103.48167,0.469471],[103.480649,0.468163],[103.482345,0.467315],[103.484055,0.465106],[103.487902,0.461972],[103.489398,0.459692],[103.491302,0.458821],[103.502863,0.451642],[103.504359,0.451927],[103.51256,0.447477],[103.524145,0.443747],[103.531648,0.440837],[103.541283,0.431586],[103.546331,0.4264],[103.55343,0.418914],[103.556888,0.415237],[103.558043,0.41401],[103.557869,0.413802],[103.5612,0.410744],[103.575625,0.400972],[103.572431,0.397216],[103.575619,0.400965],[103.581573,0.3971],[103.585092,0.39389],[103.58927,0.388237],[103.588308,0.387216],[103.585256,0.384599],[103.580003,0.383631],[103.574225,0.382814],[103.570859,0.383869],[103.566114,0.383625],[103.563711,0.382216],[103.562342,0.381669],[103.560862,0.381628],[103.559929,0.380726],[103.556979,0.379073],[103.555438,0.377998],[103.553812,0.377159],[103.552731,0.376817],[103.551646,0.376077],[103.549476,0.373948],[103.547459,0.372823],[103.545122,0.372184],[103.544241,0.371709],[103.542339,0.370227],[103.541479,0.368948],[103.541217,0.368829],[103.541071,0.368205],[103.540727,0.367667],[103.539834,0.366978],[103.538101,0.366866],[103.537472,0.366015],[103.53513,0.365011],[103.535079,0.364119],[103.534299,0.363196],[103.533721,0.3635],[103.533143,0.36347],[103.532139,0.362284],[103.531193,0.362633],[103.529636,0.362265],[103.528682,0.361138],[103.526634,0.360408],[103.522705,0.358396],[103.520926,0.358203],[103.519876,0.357503],[103.518888,0.357144],[103.517641,0.357235],[103.517073,0.35652],[103.510572,0.355698],[103.504202,0.354106],[103.500405,0.351345],[103.494192,0.349619],[103.48932,0.349652],[103.484355,0.352208],[103.480903,0.349446],[103.47469,0.350137],[103.468477,0.349791],[103.450184,0.351172],[103.43793,0.354106],[103.434134,0.350654],[103.431372,0.350654],[103.426655,0.351867],[103.401343,0.333397],[103.381124,0.331471],[103.348904,0.321927],[103.341975,0.316483]],[[103.450153,0.448461],[103.449817,0.448078],[103.474708,0.474935],[103.450153,0.448461]],[[103.545039,0.424843],[103.542134,0.421238],[103.541858,0.420942],[103.5421,0.421197],[103.546331,0.4264],[103.545039,0.424843]],[[103.556194,0.414501],[103.554032,0.412207],[103.556888,0.415237],[103.556194,0.414501]],[[103.552231,0.414296],[103.55203,0.414515],[103.551769,0.414778],[103.550775,0.415707],[103.551978,0.414567],[103.554032,0.412207],[103.552231,0.414296]],[[103.55154,0.413959],[103.551935,0.414346],[103.551978,0.414567],[103.55154,0.413959]],[[103.55329,0.411384],[103.551628,0.409133],[103.554032,0.412207],[103.55329,0.411384]],[[103.36248,0.347723],[103.344713,0.363209],[103.335866,0.370686],[103.352827,0.356136],[103.381124,0.331471],[103.36248,0.347723]],[[103.364447,0.384416],[103.372659,0.393408],[103.344713,0.363209],[103.364447,0.384416]],[[103.364713,0.396901],[103.366475,0.398841],[103.364776,0.39697],[103.364713,0.396901]],[[103.307313,0.377432],[103.290821,0.392],[103.2557,0.423024],[103.326743,0.360269],[103.307313,0.377432]],[[103.327614,0.327305],[103.327614,0.327305],[103.329453,0.325568],[103.327614,0.327305]],[[103.333016,0.326371],[103.333016,0.326371],[103.33273,0.326631],[103.333016,0.326371]],[[103.332197,0.332575],[103.334086,0.330906],[103.335723,0.329467],[103.332197,0.332575]],[[103.329169,0.329093],[103.32951,0.329481],[103.332197,0.332575],[103.329169,0.329093]],[[103.331344,0.327788],[103.330568,0.328518],[103.32951,0.329481],[103.331344,0.327788]],[[103.33155,0.329646],[103.332875,0.328512],[103.331602,0.329706],[103.330568,0.328518],[103.33155,0.329646]],[[103.328465,0.328284],[103.330358,0.326635],[103.330358,0.326635],[103.328465,0.328284]],[[103.318173,0.336918],[103.319428,0.338385],[103.316627,0.335111],[103.316627,0.335111],[103.318173,0.336918]],[[103.319552,0.340524],[103.317138,0.337748],[103.318455,0.3392],[103.319552,0.340524]],[[103.271355,0.377419],[103.274009,0.374951],[103.272915,0.375976],[103.271355,0.377419]],[[103.27574,0.376951],[103.275791,0.376904],[103.280243,0.381915],[103.277086,0.378368],[103.27574,0.376951]],[[103.360481,0.395739],[103.361194,0.396544],[103.359397,0.394515],[103.360481,0.395739]],[[103.361892,0.397338],[103.362564,0.398102],[103.362988,0.398585],[103.361194,0.396544],[103.361892,0.397338]],[[103.362472,0.394433],[103.362239,0.394176],[103.362071,0.393991],[103.362472,0.394433]],[[103.361629,0.393505],[103.36114,0.392966],[103.360382,0.392131],[103.361629,0.393505]],[[103.322579,0.398568],[103.323336,0.397844],[103.319615,0.401434],[103.320375,0.400675],[103.322579,0.398568]],[[103.31835,0.398453],[103.319644,0.399873],[103.320375,0.400675],[103.31835,0.398453]],[[103.31753,0.399217],[103.316997,0.399701],[103.31835,0.398453],[103.31753,0.399217]],[[103.298721,0.409695],[103.296344,0.411861],[103.298721,0.409695],[103.298721,0.409695]],[[103.298287,0.416246],[103.296562,0.414044],[103.298356,0.416189],[103.301885,0.41342],[103.298287,0.416246]],[[103.373527,0.359792],[103.386912,0.361106],[103.390173,0.361422],[103.393206,0.361712],[103.388597,0.361271],[103.373527,0.359792]],[[103.377653,0.3505],[103.382795,0.356366],[103.386912,0.361106],[103.377653,0.3505]],[[103.384302,0.355033],[103.386119,0.356993],[103.390173,0.361422],[103.384302,0.355033]],[[103.367933,0.373604],[103.371388,0.370698],[103.372437,0.369892],[103.367194,0.374278],[103.367933,0.373604]],[[103.366008,0.371386],[103.366008,0.371386],[103.367933,0.373604],[103.366008,0.371386]],[[103.368975,0.365798],[103.369226,0.366081],[103.372437,0.369892],[103.368975,0.365798]],[[103.362426,0.368749],[103.364943,0.371668],[103.367194,0.374278],[103.362426,0.368749]],[[103.368498,0.370882],[103.3696,0.372191],[103.368423,0.370948],[103.368498,0.370882]],[[103.367787,0.366542],[103.366048,0.368042],[103.366048,0.368042],[103.367787,0.366542]],[[103.366613,0.365187],[103.366613,0.365187],[103.367898,0.366669],[103.367787,0.366542],[103.366613,0.365187]],[[103.364117,0.369248],[103.365808,0.36778],[103.364117,0.369248],[103.364117,0.369248]],[[103.364851,0.366686],[103.364851,0.366686],[103.365882,0.367861],[103.365808,0.36778],[103.364851,0.366686]],[[103.368968,0.365791],[103.367898,0.366669],[103.367898,0.366669],[103.368968,0.365791]],[[103.338485,0.425148],[103.33789,0.425687],[103.338485,0.425148],[103.338485,0.425148]],[[103.338893,0.425623],[103.33886,0.425583],[103.338941,0.425676],[103.338893,0.425623]],[[103.339945,0.429987],[103.336966,0.426689],[103.337676,0.427446],[103.339945,0.429987]],[[103.435276,0.359704],[103.436352,0.368815],[103.438075,0.389967],[103.436331,0.368821],[103.435276,0.359704]],[[103.386194,0.346962],[103.388246,0.349269],[103.389304,0.350459],[103.389303,0.350458],[103.386194,0.346962]],[[103.384555,0.348489],[103.382923,0.349949],[103.386194,0.346962],[103.384555,0.348489]],[[103.38767,0.351939],[103.392205,0.357209],[103.384555,0.348489],[103.38767,0.351939]],[[103.386016,0.353495],[103.386016,0.353495],[103.386016,0.353495],[103.386016,0.353495]],[[103.393143,0.351293],[103.394799,0.349812],[103.391421,0.352833],[103.391421,0.352833],[103.393143,0.351293]],[[103.397064,0.352389],[103.397064,0.352389],[103.40054,0.34934],[103.398836,0.350835],[103.397064,0.352389]],[[103.397541,0.352935],[103.401594,0.357539],[103.400503,0.356322],[103.397541,0.352935]],[[103.398415,0.381088],[103.397144,0.379621],[103.396105,0.378421],[103.398415,0.381088]],[[103.394322,0.376363],[103.392895,0.374715],[103.396105,0.378421],[103.394322,0.376363]],[[103.39544,0.381192],[103.396722,0.382699],[103.396722,0.382699],[103.39544,0.381192]],[[103.486115,0.413068],[103.489403,0.410492],[103.493718,0.407112],[103.486115,0.413068]],[[103.522699,0.434426],[103.522458,0.434315],[103.521478,0.433464],[103.521848,0.43376],[103.522699,0.434426]],[[103.531184,0.424999],[103.533153,0.423296],[103.521848,0.43376],[103.531184,0.424999]],[[103.516444,0.410922],[103.526201,0.42018],[103.531184,0.424999],[103.516444,0.410922]],[[103.532451,0.41457],[103.532451,0.41457],[103.526201,0.42018],[103.532451,0.41457]],[[103.533665,0.423916],[103.535146,0.425829],[103.533153,0.423296],[103.533665,0.423916]],[[103.537394,0.423478],[103.53652,0.424438],[103.535146,0.425829],[103.537394,0.423478]],[[103.538244,0.426034],[103.537361,0.425251],[103.53652,0.424438],[103.538244,0.426034]],[[103.525085,0.436017],[103.524278,0.435302],[103.524419,0.435314],[103.525085,0.436017]],[[103.539454,0.424454],[103.541015,0.425511],[103.541872,0.426144],[103.541872,0.426144],[103.539454,0.424454]],[[103.538466,0.425787],[103.539599,0.424256],[103.539454,0.424454],[103.538466,0.425787]],[[103.537954,0.420712],[103.539626,0.422777],[103.538205,0.421023],[103.537954,0.420712]],[[103.544795,0.419293],[103.545695,0.420114],[103.546211,0.42071],[103.544795,0.419293],[103.544795,0.419293]],[[103.545945,0.419811],[103.546452,0.419269],[103.545601,0.418452],[103.546526,0.419231],[103.545695,0.420114],[103.545945,0.419811]],[[103.545069,0.419007],[103.545808,0.419684],[103.545945,0.419811],[103.545069,0.419007]],[[103.548192,0.419415],[103.54772,0.419052],[103.547573,0.418908],[103.548192,0.419415]],[[103.549323,0.417981],[103.550735,0.416277],[103.547327,0.420514],[103.548192,0.419415],[103.549323,0.417981]],[[103.550735,0.416277],[103.551925,0.417602],[103.550735,0.416277],[103.550735,0.416277]],[[103.547071,0.416374],[103.548008,0.417601],[103.547071,0.416374],[103.547071,0.416374]],[[103.548504,0.415356],[103.548123,0.415627],[103.549407,0.414716],[103.548504,0.415356]],[[103.550595,0.406493],[103.551165,0.407299],[103.536646,0.387268],[103.550595,0.406493]],[[103.555417,0.403316],[103.553029,0.405056],[103.558587,0.400932],[103.555417,0.403316]],[[103.539059,0.415057],[103.53762,0.416367],[103.542178,0.412216],[103.539059,0.415057]],[[103.53775,0.416509],[103.536107,0.414732],[103.53762,0.416367],[103.53775,0.416509]],[[103.534242,0.412778],[103.524977,0.402639],[103.536107,0.414732],[103.534242,0.412778]],[[103.532044,0.396439],[103.530049,0.398216],[103.524977,0.402639],[103.532044,0.396439]],[[103.540654,0.410458],[103.538462,0.407927],[103.543511,0.413753],[103.542178,0.412216],[103.540654,0.410458]],[[103.542881,0.414302],[103.542488,0.414644],[103.543511,0.413753],[103.542881,0.414302]],[[103.536803,0.387137],[103.540873,0.383743],[103.541686,0.383087],[103.536803,0.387137]],[[103.522033,0.399456],[103.522044,0.399447],[103.521967,0.399518],[103.522033,0.399456]],[[103.506027,0.383561],[103.507431,0.384893],[103.516798,0.393867],[103.506027,0.383561]],[[103.532627,0.414758],[103.536038,0.418404],[103.536515,0.418979],[103.532627,0.414758]],[[103.526708,0.432651],[103.529033,0.431346],[103.527415,0.432327],[103.526708,0.432651]],[[103.530601,0.430394],[103.53352,0.427895],[103.53337,0.428087],[103.530601,0.430394]],[[103.540621,0.42376],[103.541017,0.424109],[103.540387,0.42362],[103.540621,0.42376]],[[103.54321,0.4249],[103.542596,0.425747],[103.542727,0.425413],[103.54321,0.4249]],[[103.558026,0.407054],[103.56085,0.404836],[103.555434,0.40909],[103.558026,0.407054]],[[103.556631,0.410691],[103.558437,0.409185],[103.556631,0.410691],[103.556631,0.410691]],[[103.561628,0.40613],[103.561627,0.40613],[103.562459,0.407484],[103.561628,0.40613]],[[103.560985,0.408651],[103.557329,0.411624],[103.557329,0.411624],[103.560985,0.408651]],[[103.550595,0.415891],[103.550497,0.415998],[103.550482,0.41598],[103.550595,0.415891]],[[103.551476,0.413752],[103.551424,0.413797],[103.551111,0.413362],[103.551476,0.413752]],[[103.554036,0.416781],[103.55298,0.417896],[103.553598,0.417239],[103.554036,0.416781]],[[103.548722,0.417259],[103.548722,0.417259],[103.549159,0.416873],[103.548722,0.417259]],[[103.416088,0.408877],[103.433747,0.429793],[103.433747,0.429793],[103.416088,0.408877]],[[103.449774,0.44803],[103.460579,0.438639],[103.460066,0.439119],[103.449774,0.44803]],[[103.496172,0.440289],[103.506594,0.450714],[103.49605,0.440174],[103.496172,0.440289]],[[103.464351,0.435104],[103.462968,0.4364],[103.473001,0.426949],[103.466704,0.43289],[103.464351,0.435104]],[[103.458113,0.412539],[103.462403,0.416692],[103.473001,0.426949],[103.458113,0.412539]],[[103.452431,0.405025],[103.454907,0.408299],[103.458113,0.412539],[103.452431,0.405025]],[[103.480271,0.419254],[103.47671,0.42305],[103.473001,0.426949],[103.480271,0.419254]],[[103.492494,0.442914],[103.493705,0.44386],[103.493705,0.44386],[103.492494,0.442914]],[[103.493732,0.443107],[103.494173,0.442502],[103.494227,0.442555],[103.493732,0.443107]],[[103.48881,0.449564],[103.488392,0.450216],[103.490252,0.447068],[103.48881,0.449564]],[[103.358433,0.417061],[103.356849,0.418472],[103.354929,0.420101],[103.358433,0.417061]],[[103.356494,0.421852],[103.356635,0.422011],[103.354929,0.420101],[103.356494,0.421852]],[[103.358365,0.420168],[103.358365,0.420168],[103.356494,0.421852],[103.358365,0.420168]],[[103.362667,0.421924],[103.362533,0.421765],[103.363699,0.423103],[103.362667,0.421924]],[[103.360212,0.426016],[103.362094,0.424431],[103.363699,0.423103],[103.360212,0.426016]],[[103.360906,0.423087],[103.361091,0.423296],[103.362094,0.424431],[103.360906,0.423087]],[[103.359101,0.424772],[103.360685,0.423293],[103.360906,0.423087],[103.359101,0.424772]],[[103.359419,0.421822],[103.359419,0.421822],[103.360685,0.423293],[103.359419,0.421822]],[[103.440472,0.447598],[103.446503,0.45357],[103.440466,0.447603],[103.445461,0.443154],[103.440472,0.447598]],[[103.449267,0.457092],[103.450134,0.458434],[103.446503,0.45357],[103.449267,0.457092]],[[103.416473,0.51312],[103.416569,0.513518],[103.415863,0.511587],[103.416473,0.51312]],[[103.410366,0.505597],[103.411339,0.512106],[103.410366,0.505597],[103.410366,0.505597]],[[103.41038,0.499541],[103.406591,0.49986],[103.375977,0.502438],[103.41038,0.499541]],[[103.415521,0.48204],[103.416566,0.483721],[103.414825,0.481025],[103.415521,0.48204]],[[103.410951,0.450096],[103.409849,0.451085],[103.407755,0.452942],[103.410951,0.450096]],[[103.407522,0.446878],[103.404691,0.449442],[103.388588,0.463379],[103.407522,0.446878]],[[103.402091,0.475423],[103.400866,0.475274],[103.40521,0.475711],[103.402091,0.475423]],[[103.398839,0.474292],[103.396749,0.473152],[103.400866,0.475274],[103.398839,0.474292]],[[103.359258,0.513694],[103.355698,0.512829],[103.357569,0.513191],[103.361155,0.514235],[103.359258,0.513694]],[[103.457487,0.465354],[103.455504,0.464368],[103.4534,0.463219],[103.457487,0.465354],[103.457487,0.465354]],[[103.414782,0.502302],[103.416822,0.502236],[103.415795,0.502324],[103.414782,0.502302]],[[103.420397,0.511903],[103.420474,0.512344],[103.419965,0.510989],[103.420397,0.511903]]],[[[103.565319,0.418993],[103.556058,0.42626],[103.548791,0.432743],[103.543947,0.437623],[103.541311,0.440651],[103.538633,0.445917],[103.538561,0.44664],[103.538818,0.447347],[103.54174,0.448994],[103.543987,0.449655],[103.547579,0.449444],[103.550114,0.448387],[103.554551,0.447331],[103.563635,0.443106],[103.578846,0.431697],[103.579163,0.43117],[103.581954,0.428789],[103.587175,0.419347],[103.589621,0.415852],[103.589832,0.411838],[103.58888,0.409799],[103.588401,0.407702],[103.585979,0.406562],[103.58117,0.409589],[103.568697,0.416619],[103.568703,0.416785],[103.565319,0.418993]]]]}}]}