{"type":"FeatureCollection","features":[{"type":"Feature","properties":{"kdkec":"1403090","nmkec":"GAUNG ANAK SERKA","kddesa":"1403090003","nmdesa":"TELUK TUASAN","idsubsls":"1403090003000500","kdsubsls":"00"},"geometry":{"type":"Polygon","coordinates":[[[103.241045,-0.135796],[103.240696,-0.136625],[103.239112,-0.136185],[103.23909,-0.138062],[103.238378,-0.138064],[103.238359,-0.136118],[103.23708,-0.136358],[103.23457,-0.137251],[103.2341,-0.136135],[103.238325,-0.134972],[103.241045,-0.135796]]]}}]}