{"type":"FeatureCollection","features":[{"type":"Feature","properties":{"kdkec":"1403021","nmkec":"SUNGAI BATANG","kddesa":"1403021002","nmdesa":"KUALA SUNGAI BATANG","idsubsls":"1403021002200100","kdsubsls":"00"},"geometry":{"type":"MultiPolygon","coordinates":[[[[103.339063,-0.673343],[103.326185,-0.677838],[103.319659,-0.663884],[103.321441,-0.662795],[103.324827,-0.659627],[103.328869,-0.654712],[103.331467,-0.650529],[103.333784,-0.646083],[103.336296,-0.643462],[103.339245,-0.641824],[103.341866,-0.642042],[103.343941,-0.642807],[103.346126,-0.642588],[103.353007,-0.644991],[103.354645,-0.6451],[103.358905,-0.647394],[103.371902,-0.651654],[103.376271,-0.651435],[103.383699,-0.649906],[103.386975,-0.648705],[103.384509,-0.671039],[103.354476,-0.668261],[103.339063,-0.673343]]],[[[103.413418,-0.636461],[103.41071,-0.636723],[103.407127,-0.637422],[103.404244,-0.637335],[103.401535,-0.638296],[103.398389,-0.638995],[103.394195,-0.64048],[103.390361,-0.641362],[103.375518,-0.646678],[103.37243,-0.646837],[103.370712,-0.646614],[103.368244,-0.645985],[103.363263,-0.64415],[103.359418,-0.642403],[103.34771,-0.639432],[103.344302,-0.638383],[103.338972,-0.638208],[103.335312,-0.638991],[103.336709,-0.637677],[103.33848,-0.636648],[103.34181,-0.634117],[103.347671,-0.633718],[103.356196,-0.634917],[103.366053,-0.63465],[103.39549,-0.626392],[103.410143,-0.621197],[103.423996,-0.615736],[103.432003,-0.613075],[103.434844,-0.612622],[103.433849,-0.616971],[103.43313,-0.61916],[103.431822,-0.621062],[103.426589,-0.627179],[103.424304,-0.628616],[103.422977,-0.628911],[103.422019,-0.631343],[103.419249,-0.63389],[103.417855,-0.634914],[103.416332,-0.635574],[103.414904,-0.6355],[103.413418,-0.636461]]]]}}]}