{"type":"FeatureCollection","features":[{"type":"Feature","properties":{"kdkec":"1403061","nmkec":"TEMBILAHAN HULU","kddesa":"1403061005","nmdesa":"SUNGAI INTAN","idsubsls":"1403061005000600","kdsubsls":"00"},"geometry":{"type":"Polygon","coordinates":[[[103.125338,-0.407689],[103.119557,-0.41069],[103.118057,-0.407912],[103.114878,-0.403854],[103.111453,-0.39795],[103.103193,-0.386269],[103.106696,-0.381298],[103.115159,-0.391819],[103.118786,-0.398069],[103.123188,-0.404219],[103.125338,-0.407689]]]}}]}