{"type":"FeatureCollection","features":[{"type":"Feature","properties":{"kdkec":"1403061","nmkec":"TEMBILAHAN HULU","kddesa":"1403061005","nmdesa":"SUNGAI INTAN","idsubsls":"1403061005000800","kdsubsls":"00"},"geometry":{"type":"Polygon","coordinates":[[[103.134335,-0.439718],[103.117557,-0.421912],[103.094308,-0.396736],[103.098115,-0.392832],[103.105833,-0.401644],[103.110112,-0.405579],[103.112802,-0.408407],[103.117084,-0.416279],[103.120508,-0.420215],[103.125153,-0.422919],[103.128577,-0.42587],[103.129138,-0.426968],[103.137765,-0.438417],[103.134335,-0.439718]]]}}]}