{"type":"FeatureCollection","features":[{"type":"Feature","properties":{"kdkec":"1403061","nmkec":"TEMBILAHAN HULU","kddesa":"1403061005","nmdesa":"SUNGAI INTAN","idsubsls":"1403061005000200","kdsubsls":"00"},"geometry":{"type":"Polygon","coordinates":[[[103.131749,-0.399266],[103.129092,-0.400778],[103.127472,-0.398222],[103.120027,-0.389901],[103.110652,-0.381819],[103.107756,-0.37962],[103.110933,-0.37425],[103.112204,-0.375221],[103.116285,-0.377676],[103.120167,-0.38106],[103.122456,-0.383846],[103.123179,-0.385395],[103.128438,-0.393266],[103.131749,-0.399266]]]}}]}