{"type":"FeatureCollection","features":[{"type":"Feature","properties":{"kdkec":"1403061","nmkec":"TEMBILAHAN HULU","kddesa":"1403061005","nmdesa":"SUNGAI INTAN","idsubsls":"1403061005002100","kdsubsls":"00"},"geometry":{"type":"Polygon","coordinates":[[[103.06689,-0.416306],[103.069274,-0.420261],[103.071962,-0.428438],[103.072019,-0.433698],[103.071637,-0.44189],[103.070889,-0.441884],[103.070792,-0.442965],[103.068053,-0.443968],[103.068027,-0.428896],[103.063886,-0.420091],[103.06689,-0.416306]]]}}]}