{"type":"FeatureCollection","features":[{"type":"Feature","properties":{"kdkec":"1403061","nmkec":"TEMBILAHAN HULU","kddesa":"1403061005","nmdesa":"SUNGAI INTAN","idsubsls":"1403061005000300","kdsubsls":"00"},"geometry":{"type":"Polygon","coordinates":[[[103.148459,-0.434361],[103.147795,-0.434613],[103.138352,-0.42242],[103.130212,-0.402546],[103.129092,-0.400778],[103.131749,-0.399266],[103.133576,-0.403229],[103.137736,-0.413439],[103.140183,-0.418482],[103.149448,-0.433715],[103.148459,-0.434361]]]}}]}