{"type":"FeatureCollection","features":[{"type":"Feature","properties":{"kdkec":"1403010","nmkec":"KERITANG","kddesa":"1403010007","nmdesa":"PASAR KEMBANG","idsubsls":"1403010007000400","kdsubsls":"00"},"geometry":{"type":"Polygon","coordinates":[[[102.886647,-0.763698],[102.886219,-0.774199],[102.88475,-0.781044],[102.884098,-0.786655],[102.88335,-0.796119],[102.885069,-0.798308],[102.887414,-0.80034],[102.888196,-0.804248],[102.888821,-0.805655],[102.88804,-0.816911],[102.887571,-0.817224],[102.886476,-0.820038],[102.884913,-0.820976],[102.883975,-0.823008],[102.883803,-0.829152],[102.882263,-0.829691],[102.879853,-0.826479],[102.879981,-0.816452],[102.87977,-0.763657],[102.886647,-0.763698]]]}}]}