{"type":"FeatureCollection","features":[{"type":"Feature","properties":{"kdkec":"1403090","nmkec":"GAUNG ANAK SERKA","kddesa":"1403090007","nmdesa":"TELUK PINANG","idsubsls":"1403090007004700","kdsubsls":"00"},"geometry":{"type":"Polygon","coordinates":[[[103.382954,-0.169527],[103.382805,-0.182613],[103.383194,-0.20765],[103.370495,-0.207548],[103.370425,-0.18262],[103.370258,-0.182625],[103.370282,-0.181032],[103.371845,-0.181059],[103.371881,-0.174684],[103.374999,-0.172107],[103.378499,-0.169811],[103.381209,-0.169234],[103.382954,-0.169527]]]}}]}