{"type":"FeatureCollection","features":[{"type":"Feature","properties":{"kdkec":"1403090","nmkec":"GAUNG ANAK SERKA","kddesa":"1403090007","nmdesa":"TELUK PINANG","idsubsls":"1403090007002200","kdsubsls":"00"},"geometry":{"type":"Polygon","coordinates":[[[103.356302,-0.181409],[103.356302,-0.181712],[103.356553,-0.181711],[103.356466,-0.182721],[103.355219,-0.182709],[103.355241,-0.182222],[103.354996,-0.182146],[103.354389,-0.18222],[103.354369,-0.1826],[103.353435,-0.18255],[103.353509,-0.182305],[103.353362,-0.182207],[103.353742,-0.181243],[103.355035,-0.181387],[103.355026,-0.181513],[103.355284,-0.181524],[103.355288,-0.181346],[103.356302,-0.181409]]]}}]}