{"type":"FeatureCollection","features":[{"type":"Feature","properties":{"kdkec":"1403090","nmkec":"GAUNG ANAK SERKA","kddesa":"1403090007","nmdesa":"TELUK PINANG","idsubsls":"1403090007003000","kdsubsls":"00"},"geometry":{"type":"Polygon","coordinates":[[[103.368895,-0.180681],[103.368903,-0.180859],[103.369228,-0.180852],[103.369231,-0.181058],[103.370282,-0.181032],[103.370258,-0.182625],[103.370425,-0.18262],[103.370426,-0.183595],[103.368949,-0.183593],[103.368949,-0.183195],[103.368122,-0.183216],[103.368114,-0.182674],[103.368408,-0.182681],[103.36841,-0.182464],[103.368669,-0.182462],[103.368694,-0.180681],[103.368895,-0.180681]]]}}]}