{"type":"FeatureCollection","features":[{"type":"Feature","properties":{"kdkec":"1403020","nmkec":"RETEH","kddesa":"1403020004","nmdesa":"SUNGAI UNDAN","idsubsls":"1403020004001900","kdsubsls":"00"},"geometry":{"type":"Polygon","coordinates":[[[103.392445,-0.692095],[103.393813,-0.672538],[103.398818,-0.67055],[103.401084,-0.669933],[103.404837,-0.66846],[103.413573,-0.665541],[103.422085,-0.663424],[103.4272,-0.661616],[103.427464,-0.668031],[103.42656,-0.672022],[103.423937,-0.676762],[103.421886,-0.678504],[103.419946,-0.680466],[103.416267,-0.686597],[103.412759,-0.689957],[103.408537,-0.692162],[103.403984,-0.693064],[103.397133,-0.69294],[103.392983,-0.692394],[103.392445,-0.692095]]]}}]}