{"type":"FeatureCollection","features":[{"type":"Feature","properties":{"kdkec":"1403020","nmkec":"RETEH","kddesa":"1403020004","nmdesa":"SUNGAI UNDAN","idsubsls":"1403020004000400","kdsubsls":"00"},"geometry":{"type":"Polygon","coordinates":[[[103.240869,-0.718434],[103.240382,-0.724393],[103.239772,-0.724326],[103.239279,-0.730313],[103.23749,-0.73014],[103.237264,-0.731338],[103.23493,-0.731192],[103.237125,-0.703633],[103.237923,-0.701058],[103.241316,-0.695076],[103.244476,-0.69728],[103.247008,-0.698471],[103.243332,-0.704623],[103.241645,-0.708567],[103.240869,-0.718434]]]}}]}