{"type":"FeatureCollection","features":[{"type":"Feature","properties":{"kdkec":"1403020","nmkec":"RETEH","kddesa":"1403020004","nmdesa":"SUNGAI UNDAN","idsubsls":"1403020004200100","kdsubsls":"00"},"geometry":{"type":"Polygon","coordinates":[[[103.262776,-0.705325],[103.262172,-0.70497],[103.264032,-0.70116],[103.268796,-0.699931],[103.273383,-0.700695],[103.277861,-0.702224],[103.281466,-0.704081],[103.287801,-0.70561],[103.290968,-0.705938],[103.295119,-0.705501],[103.304075,-0.703863],[103.313905,-0.702006],[103.315148,-0.701395],[103.316968,-0.719377],[103.306407,-0.719634],[103.289172,-0.731761],[103.285279,-0.727868],[103.279884,-0.718783],[103.275703,-0.714879],[103.272721,-0.71265],[103.267649,-0.709827],[103.262776,-0.705325]]]}}]}