{"type":"FeatureCollection","features":[{"type":"Feature","properties":{"kdkec":"1403011","nmkec":"KEMUNING","kddesa":"1403011004","nmdesa":"AIR BALUI","idsubsls":"1403011004001000","kdsubsls":"00"},"geometry":{"type":"Polygon","coordinates":[[[102.788809,-0.913441],[102.788372,-0.913393],[102.788292,-0.913537],[102.788412,-0.913789],[102.789056,-0.914249],[102.789068,-0.914501],[102.788184,-0.914609],[102.78772,-0.914969],[102.78716,-0.915997],[102.786876,-0.916041],[102.786228,-0.915765],[102.785956,-0.916729],[102.78554,-0.917312],[102.785204,-0.917512],[102.784777,-0.917197],[102.784469,-0.916685],[102.784165,-0.915521],[102.783909,-0.915569],[102.784061,-0.916385],[102.783653,-0.917304],[102.783393,-0.917364],[102.782922,-0.917233],[102.780822,-0.915121],[102.780716,-0.91482],[102.781019,-0.914767],[102.78199,-0.913385],[102.78288,-0.909392],[102.784254,-0.908389],[102.788809,-0.913441]]]}}]}