{"type":"FeatureCollection","features":[{"type":"Feature","properties":{"kdkec":"1403011","nmkec":"KEMUNING","kddesa":"1403011004","nmdesa":"AIR BALUI","idsubsls":"1403011004000500","kdsubsls":"00"},"geometry":{"type":"Polygon","coordinates":[[[102.773838,-0.92114],[102.773738,-0.92148],[102.774042,-0.921696],[102.774058,-0.922068],[102.772635,-0.923095],[102.772319,-0.923059],[102.772242,-0.922822],[102.772675,-0.922352],[102.772667,-0.921752],[102.772191,-0.921628],[102.771503,-0.922148],[102.771355,-0.922504],[102.771622,-0.923029],[102.771502,-0.923611],[102.771191,-0.924114],[102.770643,-0.922984],[102.770427,-0.9228],[102.77012,-0.922853],[102.769197,-0.922247],[102.76978,-0.92076],[102.771505,-0.917944],[102.772507,-0.918953],[102.773838,-0.92114]]]}}]}