{"type":"FeatureCollection","features":[{"type":"Feature","properties":{"kdkec":"1403030","nmkec":"ENOK","kddesa":"1403030011","nmdesa":"JAYA BHAKTI","idsubsls":"1403030011000900","kdsubsls":"00"},"geometry":{"type":"Polygon","coordinates":[[[103.097556,-0.508169],[103.095576,-0.505526],[103.096245,-0.500235],[103.095681,-0.494552],[103.095374,-0.488543],[103.094542,-0.485237],[103.101228,-0.485169],[103.101156,-0.497178],[103.101032,-0.500442],[103.100496,-0.503915],[103.100499,-0.505864],[103.097797,-0.505783],[103.097701,-0.508331],[103.097556,-0.508169]]]}}]}