{"type":"FeatureCollection","features":[{"type":"Feature","properties":{"kdkec":"1403010","nmkec":"KERITANG","kddesa":"1403010011","nmdesa":"PENGALIHAN","idsubsls":"1403010011100800","kdsubsls":"00"},"geometry":{"type":"Polygon","coordinates":[[[102.756242,-0.626391],[102.754347,-0.628176],[102.753792,-0.629126],[102.74769,-0.627196],[102.741119,-0.626281],[102.736408,-0.625439],[102.730572,-0.625574],[102.727363,-0.621518],[102.726968,-0.620086],[102.738291,-0.621681],[102.746206,-0.623276],[102.756242,-0.626391]]]}}]}