{"type":"FeatureCollection","features":[{"type":"Feature","properties":{"kdkec":"1403010","nmkec":"KERITANG","kddesa":"1403010011","nmdesa":"PENGALIHAN","idsubsls":"1403010011000900","kdsubsls":"00"},"geometry":{"type":"Polygon","coordinates":[[[102.823057,-0.638201],[102.822603,-0.640389],[102.822107,-0.640527],[102.822116,-0.641006],[102.821559,-0.641406],[102.82076,-0.642512],[102.820006,-0.644325],[102.818883,-0.645384],[102.818934,-0.644279],[102.819441,-0.642924],[102.818903,-0.641599],[102.821055,-0.635842],[102.821821,-0.634728],[102.831544,-0.613101],[102.833417,-0.615717],[102.826909,-0.628639],[102.823459,-0.6351],[102.822848,-0.636689],[102.823057,-0.638201]]]}}]}