{"type":"FeatureCollection","features":[{"type":"Feature","properties":{"kdkec":"1403010","nmkec":"KERITANG","kddesa":"1403010011","nmdesa":"PENGALIHAN","idsubsls":"1403010011002200","kdsubsls":"00"},"geometry":{"type":"Polygon","coordinates":[[[102.78021,-0.575717],[102.782549,-0.576678],[102.781659,-0.592137],[102.781467,-0.599004],[102.780808,-0.603591],[102.777841,-0.611419],[102.774689,-0.623896],[102.771878,-0.622955],[102.769886,-0.627872],[102.768486,-0.634629],[102.768404,-0.63924],[102.766295,-0.643569],[102.764537,-0.642679],[102.764123,-0.643599],[102.762286,-0.642845],[102.76266,-0.641794],[102.76167,-0.64149],[102.764949,-0.633169],[102.769083,-0.623638],[102.771802,-0.618914],[102.775428,-0.61018],[102.776197,-0.606279],[102.776252,-0.594084],[102.777405,-0.581779],[102.777803,-0.574728],[102.78021,-0.575717]]]}}]}