{"type":"FeatureCollection","features":[{"type":"Feature","properties":{"kdkec":"1403010","nmkec":"KERITANG","kddesa":"1403010011","nmdesa":"PENGALIHAN","idsubsls":"1403010011101400","kdsubsls":"00"},"geometry":{"type":"Polygon","coordinates":[[[102.751915,-0.599683],[102.751381,-0.600469],[102.750333,-0.599395],[102.748874,-0.598584],[102.750801,-0.593217],[102.751668,-0.587435],[102.752182,-0.579904],[102.752246,-0.575535],[102.751702,-0.568437],[102.756403,-0.565938],[102.757634,-0.566444],[102.755059,-0.569287],[102.754265,-0.573819],[102.755087,-0.577671],[102.754917,-0.58175],[102.753784,-0.587131],[102.753501,-0.59087],[102.752566,-0.596988],[102.751915,-0.599683]]]}}]}