{"type":"FeatureCollection","features":[{"type":"Feature","properties":{"kdkec":"1403010","nmkec":"KERITANG","kddesa":"1403010011","nmdesa":"PENGALIHAN","idsubsls":"1403010011005200","kdsubsls":"00"},"geometry":{"type":"Polygon","coordinates":[[[102.801642,-0.649652],[102.80485,-0.64383],[102.813143,-0.631834],[102.815157,-0.627897],[102.821931,-0.613989],[102.82498,-0.603937],[102.827712,-0.607751],[102.824916,-0.615112],[102.823268,-0.618499],[102.82077,-0.622972],[102.816428,-0.628858],[102.811431,-0.642879],[102.811065,-0.645391],[102.811323,-0.650014],[102.807038,-0.652082],[102.806103,-0.651142],[102.801642,-0.649652]]]}}]}