{"type":"FeatureCollection","features":[{"type":"Feature","properties":{"kdkec":"1403010","nmkec":"KERITANG","kddesa":"1403010011","nmdesa":"PENGALIHAN","idsubsls":"1403010011003200","kdsubsls":"00"},"geometry":{"type":"Polygon","coordinates":[[[102.775428,-0.61018],[102.771617,-0.615356],[102.767161,-0.617227],[102.760344,-0.618993],[102.75712,-0.619488],[102.757237,-0.618568],[102.758433,-0.615373],[102.760539,-0.615178],[102.764056,-0.614574],[102.768344,-0.613024],[102.772856,-0.611],[102.775585,-0.60938],[102.775428,-0.61018]]]}}]}