{"type":"FeatureCollection","features":[{"type":"Feature","properties":{"kdkec":"1403010","nmkec":"KERITANG","kddesa":"1403010011","nmdesa":"PENGALIHAN","idsubsls":"1403010011101600","kdsubsls":"00"},"geometry":{"type":"Polygon","coordinates":[[[102.739275,-0.558904],[102.739598,-0.560957],[102.740139,-0.562956],[102.740598,-0.566164],[102.740848,-0.570039],[102.740889,-0.574143],[102.740702,-0.575663],[102.744624,-0.575987],[102.744022,-0.580247],[102.743958,-0.583571],[102.74293,-0.587939],[102.741794,-0.591704],[102.740676,-0.590641],[102.739961,-0.589545],[102.739624,-0.588662],[102.739519,-0.58814],[102.739707,-0.582612],[102.734034,-0.581014],[102.733916,-0.568851],[102.733162,-0.556394],[102.739275,-0.558904]]]}}]}