{"type":"FeatureCollection","features":[{"type":"Feature","properties":{"kdkec":"1403010","nmkec":"KERITANG","kddesa":"1403010011","nmdesa":"PENGALIHAN","idsubsls":"1403010011001100","kdsubsls":"00"},"geometry":{"type":"Polygon","coordinates":[[[102.82498,-0.603937],[102.821931,-0.613989],[102.813143,-0.631834],[102.80485,-0.64383],[102.801642,-0.649652],[102.801525,-0.649792],[102.799587,-0.649064],[102.801946,-0.645625],[102.802458,-0.643665],[102.802674,-0.643393],[102.802693,-0.642288],[102.802985,-0.641903],[102.803652,-0.641715],[102.804643,-0.640179],[102.806371,-0.633989],[102.80781,-0.627423],[102.809301,-0.621772],[102.811551,-0.61471],[102.81899,-0.595573],[102.82498,-0.603937]]]}}]}