{"type":"FeatureCollection","features":[{"type":"Feature","properties":{"kdkec":"1403010","nmkec":"KERITANG","kddesa":"1403010011","nmdesa":"PENGALIHAN","idsubsls":"1403010011004000","kdsubsls":"00"},"geometry":{"type":"Polygon","coordinates":[[[102.750877,-0.641439],[102.751639,-0.641416],[102.754084,-0.640649],[102.754509,-0.640595],[102.754573,-0.640752],[102.756093,-0.640317],[102.756246,-0.641608],[102.756089,-0.642775],[102.754789,-0.64357],[102.754181,-0.644963],[102.750842,-0.643338],[102.750877,-0.641439]]]}}]}