{"type":"FeatureCollection","features":[{"type":"Feature","properties":{"kdkec":"1403010","nmkec":"KERITANG","kddesa":"1403010011","nmdesa":"PENGALIHAN","idsubsls":"1403010011001300","kdsubsls":"00"},"geometry":{"type":"Polygon","coordinates":[[[102.812655,-0.589193],[102.816427,-0.590762],[102.813323,-0.59889],[102.808484,-0.613748],[102.806417,-0.620876],[102.804233,-0.629182],[102.803775,-0.633119],[102.802876,-0.635874],[102.802755,-0.638207],[102.796397,-0.647825],[102.794176,-0.647225],[102.79401,-0.647169],[102.79643,-0.639905],[102.797485,-0.635911],[102.801318,-0.619248],[102.804352,-0.60779],[102.805974,-0.604494],[102.810311,-0.588218],[102.812655,-0.589193]]]}}]}