{"type":"FeatureCollection","features":[{"type":"Feature","properties":{"kdkec":"1403010","nmkec":"KERITANG","kddesa":"1403010011","nmdesa":"PENGALIHAN","idsubsls":"1403010011001900","kdsubsls":"00"},"geometry":{"type":"Polygon","coordinates":[[[102.767829,-0.644415],[102.768057,-0.64365],[102.766546,-0.643009],[102.768404,-0.63924],[102.768486,-0.634629],[102.769886,-0.627872],[102.771878,-0.622955],[102.774689,-0.623896],[102.773492,-0.628635],[102.770947,-0.643905],[102.770752,-0.646381],[102.767088,-0.647586],[102.767829,-0.644415]]]}}]}