{"type":"FeatureCollection","features":[{"type":"Feature","properties":{"kdkec":"1403010","nmkec":"KERITANG","kddesa":"1403010011","nmdesa":"PENGALIHAN","idsubsls":"1403010011005000","kdsubsls":"00"},"geometry":{"type":"Polygon","coordinates":[[[102.779899,-0.644622],[102.77903,-0.650474],[102.777986,-0.654955],[102.776396,-0.663097],[102.774437,-0.677277],[102.770583,-0.678241],[102.765661,-0.679766],[102.764183,-0.680601],[102.762561,-0.681886],[102.759553,-0.683722],[102.761394,-0.676795],[102.767082,-0.674258],[102.767949,-0.668316],[102.771193,-0.659676],[102.773409,-0.654248],[102.774469,-0.648595],[102.774817,-0.644239],[102.775363,-0.643951],[102.777138,-0.643675],[102.779362,-0.644568],[102.779899,-0.644622]]]}}]}