{"type":"FeatureCollection","features":[{"type":"Feature","properties":{"kdkec":"1403010","nmkec":"KERITANG","kddesa":"1403010011","nmdesa":"PENGALIHAN","idsubsls":"1403010011101100","kdsubsls":"00"},"geometry":{"type":"Polygon","coordinates":[[[102.740113,-0.589807],[102.740963,-0.590996],[102.743133,-0.592869],[102.746527,-0.596659],[102.746929,-0.59687],[102.748284,-0.598203],[102.75061,-0.599606],[102.752597,-0.602158],[102.754466,-0.603376],[102.751805,-0.603565],[102.750616,-0.603244],[102.745686,-0.600562],[102.740676,-0.598506],[102.731361,-0.595583],[102.715255,-0.592575],[102.714281,-0.583597],[102.73634,-0.589095],[102.740113,-0.589807]]]}}]}