{"type":"FeatureCollection","features":[{"type":"Feature","properties":{"kdkec":"1403010","nmkec":"KERITANG","kddesa":"1403010011","nmdesa":"PENGALIHAN","idsubsls":"1403010011001700","kdsubsls":"00"},"geometry":{"type":"Polygon","coordinates":[[[102.793024,-0.581026],[102.791819,-0.599056],[102.791324,-0.602654],[102.789786,-0.606884],[102.789237,-0.610235],[102.789429,-0.614602],[102.788797,-0.620095],[102.787918,-0.624819],[102.782727,-0.639844],[102.781271,-0.64476],[102.779362,-0.644568],[102.777138,-0.643675],[102.775363,-0.643951],[102.774817,-0.644239],[102.775078,-0.642172],[102.77744,-0.634515],[102.781038,-0.615549],[102.782796,-0.609507],[102.784663,-0.605579],[102.786723,-0.60308],[102.787438,-0.600086],[102.787772,-0.578842],[102.793024,-0.581026]]]}}]}