{"type":"FeatureCollection","features":[{"type":"Feature","properties":{"kdkec":"1403040","nmkec":"TANAH MERAH","kddesa":"1403040006","nmdesa":"TANAH MERAH","idsubsls":"1403040006002200","kdsubsls":"00"},"geometry":{"type":"Polygon","coordinates":[[[103.384826,-0.510881],[103.384342,-0.510968],[103.384331,-0.511244],[103.383006,-0.511197],[103.38316,-0.5106],[103.383835,-0.51052],[103.383817,-0.510349],[103.384244,-0.510137],[103.384289,-0.510257],[103.384709,-0.510122],[103.384826,-0.510881]]]}}]}