{"type":"FeatureCollection","features":[{"type":"Feature","properties":{"kdkec":"1403040","nmkec":"TANAH MERAH","kddesa":"1403040006","nmdesa":"TANAH MERAH","idsubsls":"1403040006002300","kdsubsls":"00"},"geometry":{"type":"Polygon","coordinates":[[[103.385308,-0.509913],[103.384289,-0.510257],[103.384222,-0.510144],[103.383817,-0.510349],[103.383835,-0.51052],[103.38316,-0.5106],[103.383394,-0.509725],[103.38413,-0.509701],[103.385346,-0.509158],[103.385375,-0.509425],[103.385654,-0.509344],[103.385689,-0.509819],[103.385308,-0.509913]]]}}]}