{"type":"FeatureCollection","features":[{"type":"Feature","properties":{"kdkec":"1403121","nmkec":"PELANGIRAN","kddesa":"1403121002","nmdesa":"SIMPANG KATEMAN","idsubsls":"1403121002002500","kdsubsls":"00"},"geometry":{"type":"Polygon","coordinates":[[[103.399511,0.14041],[103.39718,0.140078],[103.39634,0.139818],[103.394549,0.138534],[103.393405,0.134994],[103.392018,0.133442],[103.38873,0.131687],[103.385578,0.130863],[103.385767,0.139971],[103.384814,0.147381],[103.39072,0.148802],[103.389304,0.154773],[103.401495,0.15828],[103.403157,0.140293],[103.399511,0.14041]]]}}]}