{"type":"FeatureCollection","features":[{"type":"Feature","properties":{"kdkec":"1403121","nmkec":"PELANGIRAN","kddesa":"1403121002","nmdesa":"SIMPANG KATEMAN","idsubsls":"1403121002001000","kdsubsls":"00"},"geometry":{"type":"Polygon","coordinates":[[[103.360951,0.104089],[103.356761,0.104476],[103.355245,0.099617],[103.350793,0.100152],[103.344419,0.100438],[103.343863,0.11082],[103.342479,0.11156],[103.346583,0.122964],[103.347514,0.125165],[103.350986,0.131469],[103.35473,0.137481],[103.356495,0.140914],[103.360657,0.142378],[103.360941,0.139004],[103.36163,0.137404],[103.360866,0.136532],[103.360951,0.104089]]]}}]}