{"type":"FeatureCollection","features":[{"type":"Feature","properties":{"kdkec":"1403121","nmkec":"PELANGIRAN","kddesa":"1403121002","nmdesa":"SIMPANG KATEMAN","idsubsls":"1403121002000100","kdsubsls":"00"},"geometry":{"type":"Polygon","coordinates":[[[103.361351,0.145015],[103.360176,0.144265],[103.359964,0.14457],[103.360502,0.144956],[103.360381,0.14511],[103.360604,0.145275],[103.363025,0.146821],[103.362799,0.14718],[103.37008,0.157501],[103.37261,0.155919],[103.368924,0.149872],[103.368614,0.148999],[103.365711,0.147198],[103.361351,0.145015]]]}}]}