{"type":"FeatureCollection","features":[{"type":"Feature","properties":{"kdkec":"1403121","nmkec":"PELANGIRAN","kddesa":"1403121002","nmdesa":"SIMPANG KATEMAN","idsubsls":"1403121002001600","kdsubsls":"00"},"geometry":{"type":"Polygon","coordinates":[[[103.360249,0.161434],[103.352399,0.149937],[103.348588,0.151169],[103.347086,0.151213],[103.341306,0.150922],[103.337126,0.149661],[103.332859,0.150311],[103.329853,0.151513],[103.326819,0.152068],[103.329349,0.156698],[103.331671,0.15609],[103.333795,0.156252],[103.344157,0.160112],[103.361519,0.166128],[103.362912,0.161931],[103.360249,0.161434]]]}}]}