{"type":"FeatureCollection","features":[{"type":"Feature","properties":{"kdkec":"1403121","nmkec":"PELANGIRAN","kddesa":"1403121002","nmdesa":"SIMPANG KATEMAN","idsubsls":"1403121002001100","kdsubsls":"00"},"geometry":{"type":"Polygon","coordinates":[[[103.360487,0.143752],[103.360657,0.142378],[103.356495,0.140914],[103.35473,0.137481],[103.350986,0.131469],[103.347514,0.125165],[103.346583,0.122964],[103.342479,0.11156],[103.341253,0.112122],[103.338431,0.113004],[103.339346,0.117897],[103.3402,0.120883],[103.341635,0.124181],[103.344932,0.129805],[103.351818,0.138902],[103.354713,0.142481],[103.359144,0.145646],[103.360487,0.143752]]]}}]}