{"type":"FeatureCollection","features":[{"type":"Feature","properties":{"kdkec":"1403011","nmkec":"KEMUNING","kddesa":"1403011007","nmdesa":"KEMUNING TUA","idsubsls":"1403011007000800","kdsubsls":"00"},"geometry":{"type":"Polygon","coordinates":[[[102.802158,-0.896492],[102.798176,-0.895392],[102.796417,-0.893934],[102.798147,-0.892069],[102.798455,-0.892368],[102.798632,-0.892191],[102.800118,-0.893388],[102.802421,-0.893544],[102.805202,-0.894997],[102.804719,-0.895108],[102.804263,-0.895816],[102.803539,-0.895296],[102.802959,-0.895092],[102.802816,-0.895444],[102.803575,-0.896374],[102.803367,-0.896494],[102.802758,-0.896352],[102.802158,-0.896492]]]}}]}