{"type":"FeatureCollection","features":[{"type":"Feature","properties":{"kdkec":"1403011","nmkec":"KEMUNING","kddesa":"1403011007","nmdesa":"KEMUNING TUA","idsubsls":"1403011007001200","kdsubsls":"00"},"geometry":{"type":"Polygon","coordinates":[[[102.809537,-0.887668],[102.808457,-0.889828],[102.807795,-0.889797],[102.807971,-0.890173],[102.808863,-0.890361],[102.808751,-0.890537],[102.808391,-0.890553],[102.808019,-0.890813],[102.808059,-0.891433],[102.807635,-0.892332],[102.808135,-0.8931],[102.808067,-0.893564],[102.807847,-0.893656],[102.807591,-0.892856],[102.800414,-0.888654],[102.793135,-0.879952],[102.778069,-0.865229],[102.778672,-0.864451],[102.809537,-0.887668]]]}}]}