{"type":"FeatureCollection","features":[{"type":"Feature","properties":{"kdkec":"1403011","nmkec":"KEMUNING","kddesa":"1403011007","nmdesa":"KEMUNING TUA","idsubsls":"1403011007000100","kdsubsls":"00"},"geometry":{"type":"Polygon","coordinates":[[[102.791005,-0.908093],[102.790518,-0.908232],[102.790518,-0.908625],[102.790812,-0.908506],[102.791387,-0.90867],[102.791459,-0.908902],[102.791299,-0.911229],[102.79058,-0.911597],[102.790396,-0.911893],[102.790028,-0.912769],[102.790116,-0.913161],[102.790032,-0.913769],[102.789884,-0.913865],[102.789372,-0.913525],[102.788809,-0.913441],[102.784211,-0.90834],[102.769006,-0.893112],[102.765764,-0.884186],[102.764329,-0.882837],[102.767345,-0.878983],[102.773788,-0.888526],[102.786283,-0.904001],[102.787425,-0.905265],[102.791005,-0.908093]]]}}]}