{"type":"FeatureCollection","features":[{"type":"Feature","properties":{"kdkec":"1403011","nmkec":"KEMUNING","kddesa":"1403011007","nmdesa":"KEMUNING TUA","idsubsls":"1403011007000600","kdsubsls":"00"},"geometry":{"type":"Polygon","coordinates":[[[102.799773,-0.90013],[102.799176,-0.900449],[102.798867,-0.900902],[102.783495,-0.885029],[102.77247,-0.872435],[102.773149,-0.871567],[102.783531,-0.883374],[102.794973,-0.895481],[102.795995,-0.896056],[102.798188,-0.897852],[102.799773,-0.90013]]]}}]}