{"type":"FeatureCollection","features":[{"type":"Feature","properties":{"kdkec":"1403020","nmkec":"RETEH","kddesa":"1403020017","nmdesa":"TANJUNG LABUH","idsubsls":"1403020017000800","kdsubsls":"00"},"geometry":{"type":"Polygon","coordinates":[[[103.435599,-0.75203],[103.430973,-0.75903],[103.428465,-0.76212],[103.427151,-0.759696],[103.422502,-0.75607],[103.414871,-0.75563],[103.411258,-0.755135],[103.412637,-0.750598],[103.412147,-0.749174],[103.412459,-0.746861],[103.422024,-0.74864],[103.422424,-0.748373],[103.431989,-0.749886],[103.435599,-0.75203]]]}}]}