{"type":"FeatureCollection","features":[{"type":"Feature","properties":{"kdkec":"1403100","nmkec":"GAUNG","kddesa":"1403100002","nmdesa":"SIMPANG GAUNG","idsubsls":"1403100002100100","kdsubsls":"00"},"geometry":{"type":"Polygon","coordinates":[[[103.016639,-0.11194],[103.011601,-0.112398],[103.005938,-0.111832],[102.992472,-0.110906],[102.994813,-0.102261],[102.995798,-0.090848],[103.00171,-0.07348],[103.003681,-0.055617],[103.008116,-0.041227],[103.01058,-0.038745],[103.023887,-0.036264],[103.036372,-0.036505],[103.040708,-0.065271],[103.042648,-0.068518],[103.043326,-0.074715],[103.046534,-0.078793],[103.045883,-0.088385],[103.047557,-0.087673],[103.048246,-0.087575],[103.047542,-0.105078],[103.046056,-0.105078],[103.039144,-0.107382],[103.037263,-0.107539],[103.036419,-0.098733],[103.026407,-0.101029],[103.014467,-0.103303],[103.016639,-0.11194]]]}}]}