{"type":"FeatureCollection","features":[{"type":"Feature","properties":{"kdkec":"1403100","nmkec":"GAUNG","kddesa":"1403100002","nmdesa":"SIMPANG GAUNG","idsubsls":"1403100002004400","kdsubsls":"00"},"geometry":{"type":"Polygon","coordinates":[[[103.058476,-0.039499],[103.062653,-0.048629],[103.06517,-0.054685],[103.066304,-0.060327],[103.066415,-0.067822],[103.065965,-0.079627],[103.065229,-0.079647],[103.062096,-0.07846],[103.061234,-0.078341],[103.059619,-0.078544],[103.058533,-0.079737],[103.058073,-0.081207],[103.058476,-0.039499]]]}}]}