{"type":"FeatureCollection","features":[{"type":"Feature","properties":{"kdkec":"1403100","nmkec":"GAUNG","kddesa":"1403100002","nmdesa":"SIMPANG GAUNG","idsubsls":"1403100002000200","kdsubsls":"00"},"geometry":{"type":"Polygon","coordinates":[[[103.123394,-0.098936],[103.121532,-0.097824],[103.120331,-0.097356],[103.124398,-0.081692],[103.126018,-0.070858],[103.125411,-0.061188],[103.123527,-0.055494],[103.124166,-0.045215],[103.127739,-0.053676],[103.130347,-0.065314],[103.132296,-0.072807],[103.131182,-0.080477],[103.129258,-0.087741],[103.124092,-0.099221],[103.123394,-0.098936]]]}}]}