{"type":"FeatureCollection","features":[{"type":"Feature","properties":{"kdkec":"1403100","nmkec":"GAUNG","kddesa":"1403100002","nmdesa":"SIMPANG GAUNG","idsubsls":"1403100002003300","kdsubsls":"00"},"geometry":{"type":"Polygon","coordinates":[[[103.087361,-0.100468],[103.084073,-0.098934],[103.081385,-0.100086],[103.074862,-0.105362],[103.074914,-0.091481],[103.078218,-0.090994],[103.080173,-0.091388],[103.081145,-0.092163],[103.08235,-0.092481],[103.08445,-0.092361],[103.086065,-0.091548],[103.087407,-0.089529],[103.087361,-0.100468]]]}}]}