{"type":"FeatureCollection","features":[{"type":"Feature","properties":{"kdkec":"1403123","nmkec":"PULAU BURUNG","kddesa":"1403123010","nmdesa":"SAPTA JAYA","idsubsls":"1403123010100100","kdsubsls":"00"},"geometry":{"type":"Polygon","coordinates":[[[103.333357,0.333906],[103.330029,0.336969],[103.321941,0.327808],[103.325309,0.324685],[103.315076,0.313095],[103.298383,0.327891],[103.335866,0.370686],[103.352827,0.356136],[103.333357,0.333906]],[[103.321971,0.336211],[103.324795,0.3394],[103.320756,0.342778],[103.319185,0.34086],[103.319552,0.340524],[103.317138,0.337748],[103.317593,0.337388],[103.316027,0.335616],[103.319133,0.333001],[103.321971,0.336211]]]}}]}