{"type":"FeatureCollection","features":[{"type":"Feature","properties":{"kdkec":"1403061","nmkec":"TEMBILAHAN HULU","kddesa":"1403061001","nmdesa":"PULAU PALAS","idsubsls":"1403061001001700","kdsubsls":"00"},"geometry":{"type":"Polygon","coordinates":[[[103.086417,-0.390314],[103.085639,-0.389457],[103.085545,-0.389665],[103.085119,-0.388897],[103.074356,-0.377692],[103.076909,-0.377386],[103.086742,-0.385883],[103.09243,-0.389664],[103.090643,-0.392494],[103.087317,-0.389503],[103.086417,-0.390314]]]}}]}