{"type":"FeatureCollection","features":[{"type":"Feature","properties":{"kdkec":"1403090","nmkec":"GAUNG ANAK SERKA","kddesa":"1403090005","nmdesa":"TELUK SUNGKA","idsubsls":"1403090005001400","kdsubsls":"00"},"geometry":{"type":"Polygon","coordinates":[[[103.255432,-0.137052],[103.257517,-0.147489],[103.253989,-0.182985],[103.252959,-0.183189],[103.251526,-0.183826],[103.254531,-0.148579],[103.251873,-0.142034],[103.252288,-0.141911],[103.252177,-0.141553],[103.250612,-0.138627],[103.252109,-0.136516],[103.254894,-0.134419],[103.255432,-0.137052]]]}}]}