{"type":"FeatureCollection","features":[{"type":"Feature","properties":{"kdkec":"1403100","nmkec":"GAUNG","kddesa":"1403100006","nmdesa":"SUNGAI BARU","idsubsls":"1403100006000700","kdsubsls":"00"},"geometry":{"type":"Polygon","coordinates":[[[103.305155,-0.116433],[103.306096,-0.114263],[103.307651,-0.115124],[103.313454,-0.116368],[103.312036,-0.123722],[103.312095,-0.124341],[103.311252,-0.128015],[103.309271,-0.134197],[103.302673,-0.132426],[103.298497,-0.12958],[103.304394,-0.116238],[103.305155,-0.116433]]]}}]}