{"type":"FeatureCollection","features":[{"type":"Feature","properties":{"kdkec":"1403071","nmkec":"KEMPAS","kddesa":"1403071004","nmdesa":"SUNGAI ARA","idsubsls":"1403071004000500","kdsubsls":"00"},"geometry":{"type":"Polygon","coordinates":[[[102.87302,-0.548262],[102.873628,-0.550439],[102.871096,-0.551752],[102.870595,-0.550526],[102.867369,-0.552251],[102.867125,-0.551651],[102.866967,-0.551753],[102.866739,-0.551126],[102.86794,-0.550697],[102.86823,-0.55022],[102.868831,-0.550163],[102.866651,-0.539771],[102.866219,-0.535736],[102.869056,-0.534543],[102.87302,-0.548262]]]}}]}