{"type":"FeatureCollection","features":[{"type":"Feature","properties":{"kdkec":"1403030","nmkec":"ENOK","kddesa":"1403030004","nmdesa":"PENGALIHAN","idsubsls":"1403030004002400","kdsubsls":"00"},"geometry":{"type":"Polygon","coordinates":[[[103.076742,-0.610335],[103.069554,-0.612304],[103.080026,-0.546991],[103.082265,-0.547892],[103.084055,-0.543293],[103.087192,-0.537116],[103.089882,-0.533277],[103.092145,-0.531018],[103.09192,-0.543339],[103.091487,-0.548348],[103.0894,-0.556087],[103.087505,-0.566684],[103.083857,-0.582796],[103.079875,-0.592372],[103.077809,-0.599855],[103.076742,-0.610335]]]}}]}