{"type":"FeatureCollection","features":[{"type":"Feature","properties":{"kdkec":"1403090","nmkec":"GAUNG ANAK SERKA","kddesa":"1403090005","nmdesa":"TELUK SUNGKA","idsubsls":"1403090005000800","kdsubsls":"00"},"geometry":{"type":"Polygon","coordinates":[[[103.262701,-0.139327],[103.262687,-0.139471],[103.262924,-0.139466],[103.262966,-0.14033],[103.263128,-0.15613],[103.259253,-0.164413],[103.259798,-0.141262],[103.260814,-0.14121],[103.260748,-0.140323],[103.262247,-0.139725],[103.262477,-0.139583],[103.26252,-0.139242],[103.262701,-0.139327]]]}}]}