{"type":"FeatureCollection","features":[{"type":"Feature","properties":{"kdkec":"1403090","nmkec":"GAUNG ANAK SERKA","kddesa":"1403090005","nmdesa":"TELUK SUNGKA","idsubsls":"1403090005001100","kdsubsls":"00"},"geometry":{"type":"Polygon","coordinates":[[[103.269511,-0.143932],[103.266289,-0.139991],[103.265156,-0.140017],[103.265145,-0.140342],[103.264584,-0.140429],[103.264503,-0.138406],[103.265678,-0.138297],[103.271385,-0.135117],[103.272949,-0.135029],[103.275148,-0.13638],[103.27599,-0.137728],[103.269511,-0.143932]]]}}]}