{"type":"FeatureCollection","features":[{"type":"Feature","properties":{"kdkec":"1403120","nmkec":"KATEMAN","kddesa":"1403120003","nmdesa":"PENJURU","idsubsls":"1403120003002500","kdsubsls":"00"},"geometry":{"type":"Polygon","coordinates":[[[103.634728,0.140708],[103.629735,0.141186],[103.624226,0.180037],[103.623996,0.184307],[103.627717,0.18604],[103.627557,0.186473],[103.630903,0.187988],[103.633603,0.188857],[103.636904,0.18967],[103.638473,0.189791],[103.638611,0.187212],[103.636848,0.178029],[103.636647,0.167292],[103.634728,0.140708]]]}}]}