{"type":"FeatureCollection","features":[{"type":"Feature","properties":{"kdkec":"1403120","nmkec":"KATEMAN","kddesa":"1403120003","nmdesa":"PENJURU","idsubsls":"1403120003002400","kdsubsls":"00"},"geometry":{"type":"Polygon","coordinates":[[[103.639549,0.14025],[103.634728,0.140708],[103.636647,0.167292],[103.636848,0.178029],[103.638611,0.187212],[103.638473,0.189791],[103.639003,0.189735],[103.639523,0.189972],[103.640423,0.191034],[103.640957,0.191416],[103.641642,0.191673],[103.643644,0.193036],[103.644375,0.193254],[103.639549,0.14025]]]}}]}