{"type":"FeatureCollection","features":[{"type":"Feature","properties":{"kdkec":"1403120","nmkec":"KATEMAN","kddesa":"1403120003","nmdesa":"PENJURU","idsubsls":"1403120003003000","kdsubsls":"00"},"geometry":{"type":"Polygon","coordinates":[[[103.682571,0.191837],[103.677079,0.191771],[103.679299,0.198512],[103.677299,0.199183],[103.677006,0.200246],[103.678196,0.200452],[103.679673,0.200187],[103.680227,0.200295],[103.680673,0.200596],[103.681123,0.200677],[103.681728,0.200512],[103.682907,0.20088],[103.683147,0.200694],[103.684097,0.20067],[103.685458,0.20144],[103.682571,0.191837]]]}}]}