{"type":"FeatureCollection","features":[{"type":"Feature","properties":{"kdkec":"1403060","nmkec":"TEMBILAHAN","kddesa":"1403060006","nmdesa":"SUNGAI BERINGIN","idsubsls":"1403060006002600","kdsubsls":"00"},"geometry":{"type":"Polygon","coordinates":[[[103.166123,-0.306901],[103.163687,-0.308047],[103.163623,-0.307856],[103.162974,-0.308158],[103.161487,-0.309353],[103.161805,-0.309974],[103.160788,-0.310491],[103.160183,-0.309502],[103.163293,-0.303567],[103.165321,-0.305674],[103.166123,-0.306901]]]}}]}