{"type":"FeatureCollection","features":[{"type":"Feature","properties":{"kdkec":"1403060","nmkec":"TEMBILAHAN","kddesa":"1403060006","nmdesa":"SUNGAI BERINGIN","idsubsls":"1403060006001901","kdsubsls":"01"},"geometry":{"type":"Polygon","coordinates":[[[103.164887,-0.290304],[103.16911,-0.29279],[103.170988,-0.289361],[103.185663,-0.297165],[103.180611,-0.300206],[103.167876,-0.293389],[103.167758,-0.293576],[103.167519,-0.293439],[103.167631,-0.29324],[103.164573,-0.291083],[103.164887,-0.290304]]]}}]}