{"type":"FeatureCollection","features":[{"type":"Feature","properties":{"kdkec":"1403060","nmkec":"TEMBILAHAN","kddesa":"1403060006","nmdesa":"SUNGAI BERINGIN","idsubsls":"1403060006000800","kdsubsls":"00"},"geometry":{"type":"Polygon","coordinates":[[[103.154831,-0.310106],[103.155062,-0.310486],[103.155401,-0.310273],[103.155349,-0.310092],[103.15761,-0.309023],[103.157488,-0.308825],[103.157723,-0.308694],[103.158238,-0.309569],[103.153519,-0.312034],[103.153293,-0.311683],[103.153494,-0.311577],[103.153299,-0.311233],[103.154831,-0.310106]]]}}]}