{"type":"FeatureCollection","features":[{"type":"Feature","properties":{"kdkec":"1403060","nmkec":"TEMBILAHAN","kddesa":"1403060006","nmdesa":"SUNGAI BERINGIN","idsubsls":"1403060006001400","kdsubsls":"00"},"geometry":{"type":"Polygon","coordinates":[[[103.160089,-0.31069],[103.159919,-0.310825],[103.160086,-0.310935],[103.159666,-0.311203],[103.159883,-0.311482],[103.159526,-0.311706],[103.160117,-0.312816],[103.159433,-0.313247],[103.159074,-0.31277],[103.158483,-0.31269],[103.158122,-0.312014],[103.158492,-0.311551],[103.158419,-0.311392],[103.158005,-0.31162],[103.158237,-0.311492],[103.158151,-0.311329],[103.159055,-0.310873],[103.158424,-0.309865],[103.158909,-0.309547],[103.159068,-0.309646],[103.159424,-0.309172],[103.160183,-0.309502],[103.160678,-0.310298],[103.160089,-0.31069]]]}}]}