{"type":"FeatureCollection","features":[{"type":"Feature","properties":{"kdkec":"1403060","nmkec":"TEMBILAHAN","kddesa":"1403060006","nmdesa":"SUNGAI BERINGIN","idsubsls":"1403060006001300","kdsubsls":"00"},"geometry":{"type":"Polygon","coordinates":[[[103.159041,-0.309002],[103.159424,-0.309172],[103.159068,-0.309646],[103.158909,-0.309547],[103.158424,-0.309865],[103.155804,-0.305347],[103.152247,-0.300421],[103.1397,-0.277992],[103.140819,-0.277433],[103.140956,-0.277925],[103.154516,-0.301877],[103.155833,-0.304453],[103.156999,-0.306087],[103.157195,-0.305971],[103.157843,-0.306957],[103.158099,-0.306782],[103.158695,-0.307624],[103.159552,-0.307074],[103.159783,-0.307414],[103.159041,-0.309002]]]}}]}