{"type":"FeatureCollection","features":[{"type":"Feature","properties":{"kdkec":"1403011","nmkec":"KEMUNING","kddesa":"1403011007","nmdesa":"KEMUNING TUA","idsubsls":"1403011007000500","kdsubsls":"00"},"geometry":{"type":"Polygon","coordinates":[[[102.79832,-0.903049],[102.794862,-0.898571],[102.794996,-0.898437],[102.792752,-0.896758],[102.792481,-0.896719],[102.771294,-0.873937],[102.77247,-0.872435],[102.783495,-0.885029],[102.798867,-0.900902],[102.798432,-0.901705],[102.797812,-0.902158],[102.797984,-0.902377],[102.799072,-0.902793],[102.7988,-0.903193],[102.79832,-0.903049]]]}}]}