{"type":"FeatureCollection","features":[{"type":"Feature","properties":{"kdkec":"1403011","nmkec":"KEMUNING","kddesa":"1403011007","nmdesa":"KEMUNING TUA","idsubsls":"1403011007000300","kdsubsls":"00"},"geometry":{"type":"Polygon","coordinates":[[[102.794189,-0.905926],[102.79059,-0.90171],[102.788376,-0.898703],[102.78346,-0.893605],[102.773596,-0.882097],[102.768847,-0.877063],[102.770783,-0.87459],[102.793251,-0.899638],[102.793334,-0.900075],[102.796331,-0.903135],[102.796217,-0.903245],[102.796255,-0.903839],[102.795803,-0.904356],[102.795765,-0.904648],[102.796694,-0.904968],[102.796543,-0.905418],[102.795169,-0.905626],[102.795071,-0.906484],[102.794499,-0.905926],[102.794189,-0.905926]]]}}]}