{"type":"FeatureCollection","features":[{"type":"Feature","properties":{"kdkec":"1403011","nmkec":"KEMUNING","kddesa":"1403011007","nmdesa":"KEMUNING TUA","idsubsls":"1403011007001000","kdsubsls":"00"},"geometry":{"type":"Polygon","coordinates":[[[102.805202,-0.894997],[102.802421,-0.893544],[102.800118,-0.893388],[102.798632,-0.892191],[102.798455,-0.892368],[102.798147,-0.892069],[102.798798,-0.891241],[102.79932,-0.89021],[102.801281,-0.89157],[102.805779,-0.894265],[102.806287,-0.89472],[102.805955,-0.894972],[102.805202,-0.894997]]]}}]}