{"type":"FeatureCollection","features":[{"type":"Feature","properties":{"kdkec":"1403080","nmkec":"BATANG TUAKA","kddesa":"1403080009","nmdesa":"SIALANG JAYA","idsubsls":"1403080009001300","kdsubsls":"00"},"geometry":{"type":"Polygon","coordinates":[[[103.30675,-0.227924],[103.308431,-0.230772],[103.311013,-0.23343],[103.312865,-0.234592],[103.315477,-0.236969],[103.317236,-0.240349],[103.319482,-0.245695],[103.309383,-0.246128],[103.308401,-0.245903],[103.307065,-0.239308],[103.30349,-0.232738],[103.302002,-0.230419],[103.30675,-0.227924]]]}}]}