{"type":"FeatureCollection","features":[{"type":"Feature","properties":{"kdkec":"1403071","nmkec":"KEMPAS","kddesa":"1403071008","nmdesa":"SUNGAI GANTANG","idsubsls":"1403071008000300","kdsubsls":"00"},"geometry":{"type":"Polygon","coordinates":[[[102.897955,-0.570703],[102.897659,-0.570872],[102.893556,-0.556037],[102.891632,-0.54973],[102.88837,-0.540719],[102.887551,-0.538835],[102.887196,-0.53673],[102.887103,-0.524068],[102.887995,-0.524033],[102.88914,-0.52422],[102.889989,-0.524691],[102.890745,-0.524884],[102.893276,-0.536961],[102.897193,-0.551373],[102.898076,-0.561121],[102.899161,-0.570011],[102.897955,-0.570703]]]}}]}