{"type":"FeatureCollection","features":[{"type":"Feature","properties":{"kdkec":"1403080","nmkec":"BATANG TUAKA","kddesa":"1403080008","nmdesa":"SUNGAI RAWA","idsubsls":"1403080008000900","kdsubsls":"00"},"geometry":{"type":"Polygon","coordinates":[[[103.119735,-0.213495],[103.12904,-0.222752],[103.114215,-0.240315],[103.113592,-0.239386],[103.113617,-0.238679],[103.113006,-0.237547],[103.112202,-0.237097],[103.110478,-0.236775],[103.109365,-0.235971],[103.109005,-0.234903],[103.108291,-0.233661],[103.108766,-0.233093],[103.110739,-0.231546],[103.119735,-0.213495]]]}}]}