{"type":"FeatureCollection","features":[{"type":"Feature","properties":{"kdkec":"1403080","nmkec":"BATANG TUAKA","kddesa":"1403080008","nmdesa":"SUNGAI RAWA","idsubsls":"1403080008001100","kdsubsls":"00"},"geometry":{"type":"Polygon","coordinates":[[[103.13078,-0.224843],[103.133231,-0.226148],[103.136786,-0.22879],[103.131394,-0.233861],[103.121518,-0.244597],[103.120411,-0.244391],[103.119652,-0.243761],[103.118829,-0.242718],[103.117969,-0.242146],[103.116114,-0.241663],[103.114995,-0.241059],[103.114215,-0.240315],[103.12904,-0.222752],[103.13078,-0.224843]]]}}]}