{"type":"FeatureCollection","features":[{"type":"Feature","properties":{"kdkec":"1403080","nmkec":"BATANG TUAKA","kddesa":"1403080008","nmdesa":"SUNGAI RAWA","idsubsls":"1403080008100400","kdsubsls":"00"},"geometry":{"type":"Polygon","coordinates":[[[103.138891,-0.243086],[103.147931,-0.24984],[103.135839,-0.255282],[103.135743,-0.25467],[103.135082,-0.25414],[103.134902,-0.253617],[103.132514,-0.254108],[103.126709,-0.246993],[103.128202,-0.245552],[103.133538,-0.239087],[103.133855,-0.238244],[103.137966,-0.242395],[103.138891,-0.243086]]]}}]}