{"type":"FeatureCollection","features":[{"type":"Feature","properties":{"kdkec":"1403080","nmkec":"BATANG TUAKA","kddesa":"1403080008","nmdesa":"SUNGAI RAWA","idsubsls":"1403080008001300","kdsubsls":"00"},"geometry":{"type":"Polygon","coordinates":[[[103.13781,-0.260272],[103.136646,-0.26098],[103.136064,-0.260302],[103.133334,-0.26173],[103.133847,-0.262602],[103.130005,-0.265465],[103.128206,-0.266557],[103.127807,-0.267028],[103.125578,-0.268713],[103.123118,-0.266048],[103.122208,-0.264809],[103.123612,-0.26359],[103.128128,-0.260566],[103.132067,-0.258056],[103.136315,-0.255691],[103.136838,-0.257971],[103.13781,-0.260272]]]}}]}