{"type":"FeatureCollection","features":[{"type":"Feature","properties":{"kdkec":"1403080","nmkec":"BATANG TUAKA","kddesa":"1403080008","nmdesa":"SUNGAI RAWA","idsubsls":"1403080008001600","kdsubsls":"00"},"geometry":{"type":"Polygon","coordinates":[[[103.131322,-0.25268],[103.132514,-0.254108],[103.134902,-0.253617],[103.135082,-0.25414],[103.135743,-0.25467],[103.135839,-0.255282],[103.136315,-0.255691],[103.132067,-0.258056],[103.128128,-0.260566],[103.123612,-0.26359],[103.122208,-0.264809],[103.118571,-0.26049],[103.123682,-0.256922],[103.130522,-0.253274],[103.131322,-0.25268]]]}}]}