{"type":"FeatureCollection","features":[{"type":"Feature","properties":{"kdkec":"1403010","nmkec":"KERITANG","kddesa":"1403010001","nmdesa":"KOTABARU RETEH","idsubsls":"1403010001003800","kdsubsls":"00"},"geometry":{"type":"Polygon","coordinates":[[[102.948517,-0.733813],[102.949622,-0.734545],[102.943314,-0.740808],[102.942494,-0.741318],[102.941398,-0.741065],[102.939952,-0.740969],[102.936376,-0.741958],[102.935636,-0.741889],[102.936382,-0.740867],[102.945004,-0.731133],[102.948517,-0.733813]]]}}]}