{"type":"FeatureCollection","features":[{"type":"Feature","properties":{"kdkec":"1403010","nmkec":"KERITANG","kddesa":"1403010001","nmdesa":"KOTABARU RETEH","idsubsls":"1403010001100100","kdsubsls":"00"},"geometry":{"type":"Polygon","coordinates":[[[102.993451,-0.759225],[102.994859,-0.762935],[102.997249,-0.771675],[102.994979,-0.774898],[102.976467,-0.759775],[102.9822,-0.759043],[102.983878,-0.759265],[102.985334,-0.759142],[102.987556,-0.758722],[102.989061,-0.757759],[102.992134,-0.756314],[102.993451,-0.759225]]]}}]}