{"type":"FeatureCollection","features":[{"type":"Feature","properties":{"kdkec":"1403090","nmkec":"GAUNG ANAK SERKA","kddesa":"1403090010","nmdesa":"IDAMAN","idsubsls":"1403090010000700","kdsubsls":"00"},"geometry":{"type":"Polygon","coordinates":[[[103.197396,-0.176547],[103.196696,-0.174017],[103.195166,-0.170466],[103.192859,-0.166519],[103.190938,-0.163762],[103.191716,-0.163236],[103.192567,-0.162353],[103.193202,-0.160815],[103.194648,-0.161519],[103.198801,-0.166118],[103.202146,-0.170569],[103.202851,-0.172382],[103.202362,-0.173807],[103.200646,-0.17665],[103.197396,-0.176547]]]}}]}