{"type":"FeatureCollection","features":[{"type":"Feature","properties":{"kdkec":"1403090","nmkec":"GAUNG ANAK SERKA","kddesa":"1403090010","nmdesa":"IDAMAN","idsubsls":"1403090010000300","kdsubsls":"00"},"geometry":{"type":"Polygon","coordinates":[[[103.170535,-0.198742],[103.168995,-0.198921],[103.166068,-0.198923],[103.167983,-0.186388],[103.16971,-0.177656],[103.169504,-0.17545],[103.178881,-0.165937],[103.179461,-0.164588],[103.180141,-0.164308],[103.180286,-0.165028],[103.175061,-0.176491],[103.17247,-0.186476],[103.170535,-0.198742]]]}}]}