{"type":"FeatureCollection","features":[{"type":"Feature","properties":{"kdkec":"1403090","nmkec":"GAUNG ANAK SERKA","kddesa":"1403090010","nmdesa":"IDAMAN","idsubsls":"1403090010001300","kdsubsls":"00"},"geometry":{"type":"Polygon","coordinates":[[[103.174099,-0.186541],[103.176773,-0.176867],[103.180098,-0.166507],[103.181321,-0.165452],[103.182329,-0.165997],[103.181456,-0.167442],[103.180885,-0.168964],[103.17554,-0.186464],[103.175829,-0.198606],[103.173035,-0.198641],[103.174099,-0.186541]]]}}]}