{"type":"FeatureCollection","features":[{"type":"Feature","properties":{"kdkec":"1403100","nmkec":"GAUNG","kddesa":"1403100011","nmdesa":"TERUSAN KEMPAS","idsubsls":"1403100011001200","kdsubsls":"00"},"geometry":{"type":"Polygon","coordinates":[[[103.389014,-0.12469],[103.387768,-0.129072],[103.387305,-0.133812],[103.389157,-0.138497],[103.393897,-0.14242],[103.401116,-0.147106],[103.40612,-0.149027],[103.40609,-0.150021],[103.407725,-0.15289],[103.409233,-0.155025],[103.409158,-0.157047],[103.407701,-0.158701],[103.404026,-0.157742],[103.4018,-0.157497],[103.399701,-0.158433],[103.388507,-0.152044],[103.374108,-0.141431],[103.369306,-0.135429],[103.366748,-0.134944],[103.372166,-0.129921],[103.374302,-0.128385],[103.375056,-0.128008],[103.379124,-0.126425],[103.384371,-0.124982],[103.384449,-0.124626],[103.384906,-0.124412],[103.384929,-0.124121],[103.385347,-0.123776],[103.385921,-0.123664],[103.386469,-0.123854],[103.387258,-0.123703],[103.389014,-0.12469]]]}}]}