{"type":"FeatureCollection","features":[{"type":"Feature","properties":{"kdkec":"1403121","nmkec":"PELANGIRAN","kddesa":"1403121016","nmdesa":"TERUSAN BERINGIN JAYA","idsubsls":"1403121016000800","kdsubsls":"00"},"geometry":{"type":"Polygon","coordinates":[[[103.435578,0.167553],[103.434048,0.163575],[103.433841,0.146173],[103.434008,0.141381],[103.433678,0.139997],[103.431362,0.14057],[103.428574,0.140533],[103.428486,0.159628],[103.428189,0.166546],[103.434964,0.169074],[103.435578,0.167553]]]}}]}