{"type":"FeatureCollection","features":[{"type":"Feature","properties":{"kdkec":"1403040","nmkec":"TANAH MERAH","kddesa":"1403040008","nmdesa":"TEKULAI HULU","idsubsls":"1403040008000700","kdsubsls":"00"},"geometry":{"type":"Polygon","coordinates":[[[103.25779,-0.400693],[103.242506,-0.422558],[103.241708,-0.419999],[103.251531,-0.404417],[103.255266,-0.399752],[103.262683,-0.39126],[103.262294,-0.390883],[103.264252,-0.38929],[103.265167,-0.390345],[103.264707,-0.390687],[103.264475,-0.390495],[103.264368,-0.390594],[103.264538,-0.390817],[103.264316,-0.39099],[103.264958,-0.391692],[103.25779,-0.400693]]]}}]}