{"type":"FeatureCollection","features":[{"type":"Feature","properties":{"kdkec":"1403040","nmkec":"TANAH MERAH","kddesa":"1403040008","nmdesa":"TEKULAI HULU","idsubsls":"1403040008000500","kdsubsls":"00"},"geometry":{"type":"Polygon","coordinates":[[[103.264368,-0.390594],[103.264475,-0.390495],[103.264707,-0.390687],[103.265167,-0.390345],[103.26545,-0.390672],[103.266404,-0.39023],[103.266945,-0.390288],[103.266927,-0.390758],[103.265613,-0.392408],[103.264316,-0.39099],[103.264538,-0.390817],[103.264368,-0.390594]]]}}]}