{"type":"FeatureCollection","features":[{"type":"Feature","properties":{"kdkec":"1403110","nmkec":"MANDAH","kddesa":"1403110002","nmdesa":"BATANG TUMU","idsubsls":"1403110002001300","kdsubsls":"00"},"geometry":{"type":"Polygon","coordinates":[[[103.359223,-0.019207],[103.358438,-0.019734],[103.357008,-0.01904],[103.357396,-0.018285],[103.355415,-0.016814],[103.352766,-0.020885],[103.351449,-0.019926],[103.348862,-0.019567],[103.346263,-0.018998],[103.344305,-0.018231],[103.343269,-0.017507],[103.342101,-0.015291],[103.339873,-0.01356],[103.337833,-0.012808],[103.342044,-0.005816],[103.3507,0.003591],[103.361551,-0.003504],[103.359706,-0.006179],[103.359223,-0.019207]]]}}]}