{"type":"FeatureCollection","features":[{"type":"Feature","properties":{"kdkec":"1403110","nmkec":"MANDAH","kddesa":"1403110002","nmdesa":"BATANG TUMU","idsubsls":"1403110002001200","kdsubsls":"00"},"geometry":{"type":"Polygon","coordinates":[[[103.361797,-0.003664],[103.363361,-0.004688],[103.363318,-0.007402],[103.364333,-0.014853],[103.363287,-0.026938],[103.359097,-0.026477],[103.355935,-0.024681],[103.353899,-0.021711],[103.352766,-0.020885],[103.355415,-0.016814],[103.357396,-0.018285],[103.357008,-0.01904],[103.358438,-0.019734],[103.359223,-0.019207],[103.359706,-0.006179],[103.361551,-0.003504],[103.361797,-0.003664]]]}}]}