{"type":"FeatureCollection","features":[{"type":"Feature","properties":{"kdkec":"1403010","nmkec":"KERITANG","kddesa":"1403010002","nmdesa":"SEBERANG PEBENAAN","idsubsls":"1403010002002200","kdsubsls":"00"},"geometry":{"type":"Polygon","coordinates":[[[103.016627,-0.698225],[103.017571,-0.69975],[103.017786,-0.702672],[103.021301,-0.722483],[103.021945,-0.727845],[103.023565,-0.755202],[103.021628,-0.755168],[103.020277,-0.728138],[103.017474,-0.710302],[103.015047,-0.703716],[103.013605,-0.696901],[103.016762,-0.695488],[103.016836,-0.695751],[103.016555,-0.697487],[103.016627,-0.698225]]]}}]}