{"type":"FeatureCollection","features":[{"type":"Feature","properties":{"kdkec":"1403010","nmkec":"KERITANG","kddesa":"1403010002","nmdesa":"SEBERANG PEBENAAN","idsubsls":"1403010002002500","kdsubsls":"00"},"geometry":{"type":"Polygon","coordinates":[[[103.023941,-0.695184],[103.024584,-0.69625],[103.024793,-0.69714],[103.025404,-0.698335],[103.027524,-0.707318],[103.027493,-0.73432],[103.025601,-0.730243],[103.023946,-0.717604],[103.022783,-0.71172],[103.02298,-0.701465],[103.022846,-0.699552],[103.021654,-0.696839],[103.023941,-0.695184]]]}}]}