{"type":"FeatureCollection","features":[{"type":"Feature","properties":{"kdkec":"1403010","nmkec":"KERITANG","kddesa":"1403010002","nmdesa":"SEBERANG PEBENAAN","idsubsls":"1403010002000300","kdsubsls":"00"},"geometry":{"type":"Polygon","coordinates":[[[102.988238,-0.718247],[102.988526,-0.719266],[102.987959,-0.719431],[102.987267,-0.71654],[102.985647,-0.716619],[102.985315,-0.706892],[102.988691,-0.70714],[102.989189,-0.706958],[102.989594,-0.713617],[102.990345,-0.717565],[102.988238,-0.718247]]]}}]}