{"type":"FeatureCollection","features":[{"type":"Feature","properties":{"kdkec":"1403010","nmkec":"KERITANG","kddesa":"1403010002","nmdesa":"SEBERANG PEBENAAN","idsubsls":"1403010002002700","kdsubsls":"00"},"geometry":{"type":"Polygon","coordinates":[[[103.028903,-0.692638],[103.029125,-0.691686],[103.031696,-0.691101],[103.034649,-0.706459],[103.034013,-0.732221],[103.032798,-0.741347],[103.033987,-0.765134],[103.02969,-0.75531],[103.0306,-0.738523],[103.030767,-0.706984],[103.026773,-0.694261],[103.028905,-0.693391],[103.028903,-0.692638]]]}}]}