{"type":"FeatureCollection","features":[{"type":"Feature","properties":{"kdkec":"1403010","nmkec":"KERITANG","kddesa":"1403010002","nmdesa":"SEBERANG PEBENAAN","idsubsls":"1403010002002000","kdsubsls":"00"},"geometry":{"type":"Polygon","coordinates":[[[103.021584,-0.695373],[103.021654,-0.696839],[103.01812,-0.697571],[103.018237,-0.698028],[103.017926,-0.698117],[103.017846,-0.697844],[103.016697,-0.698198],[103.016555,-0.697487],[103.016722,-0.696483],[103.018377,-0.696288],[103.021584,-0.695373]]]}}]}