{"type":"FeatureCollection","features":[{"type":"Feature","properties":{"kdkec":"1403010","nmkec":"KERITANG","kddesa":"1403010002","nmdesa":"SEBERANG PEBENAAN","idsubsls":"1403010002002900","kdsubsls":"00"},"geometry":{"type":"Polygon","coordinates":[[[103.03446,-0.69042],[103.034729,-0.690798],[103.037171,-0.689933],[103.03787,-0.694295],[103.038347,-0.698894],[103.038347,-0.70474],[103.037555,-0.716422],[103.037672,-0.733671],[103.038687,-0.752755],[103.039025,-0.752763],[103.0384,-0.766877],[103.03483,-0.765148],[103.033987,-0.765134],[103.032798,-0.741347],[103.034013,-0.732221],[103.034649,-0.706459],[103.031696,-0.691101],[103.03446,-0.69042]]]}}]}