{"type":"FeatureCollection","features":[{"type":"Feature","properties":{"kdkec":"1403061","nmkec":"TEMBILAHAN HULU","kddesa":"1403061005","nmdesa":"SUNGAI INTAN","idsubsls":"1403061005000700","kdsubsls":"00"},"geometry":{"type":"Polygon","coordinates":[[[103.119557,-0.41069],[103.120382,-0.412217],[103.123316,-0.414923],[103.133586,-0.422053],[103.145136,-0.435622],[103.137765,-0.438417],[103.129138,-0.426968],[103.128577,-0.42587],[103.125153,-0.422919],[103.120508,-0.420215],[103.117084,-0.416279],[103.112802,-0.408407],[103.110112,-0.405579],[103.105833,-0.401644],[103.098115,-0.392832],[103.103193,-0.386269],[103.111453,-0.39795],[103.114878,-0.403854],[103.118057,-0.407912],[103.119557,-0.41069]]]}}]}