{"type":"FeatureCollection","features":[{"type":"Feature","properties":{"kdkec":"1403061","nmkec":"TEMBILAHAN HULU","kddesa":"1403061005","nmdesa":"SUNGAI INTAN","idsubsls":"1403061005001400","kdsubsls":"00"},"geometry":{"type":"Polygon","coordinates":[[[103.103319,-0.451476],[103.100847,-0.452412],[103.098224,-0.444567],[103.093325,-0.432546],[103.090577,-0.427518],[103.08969,-0.424289],[103.088328,-0.420304],[103.086337,-0.416443],[103.082316,-0.41067],[103.080235,-0.40795],[103.081363,-0.407053],[103.086039,-0.412112],[103.092522,-0.421829],[103.094111,-0.423428],[103.096435,-0.426625],[103.098026,-0.430069],[103.099862,-0.435113],[103.103319,-0.451476]]]}}]}