{"type":"FeatureCollection","features":[{"type":"Feature","properties":{"kdkec":"1403061","nmkec":"TEMBILAHAN HULU","kddesa":"1403061005","nmdesa":"SUNGAI INTAN","idsubsls":"1403061005000500","kdsubsls":"00"},"geometry":{"type":"Polygon","coordinates":[[[103.119768,-0.41058],[103.125338,-0.407689],[103.127836,-0.411721],[103.134317,-0.419223],[103.138352,-0.42242],[103.147795,-0.434613],[103.145136,-0.435622],[103.133586,-0.422053],[103.123316,-0.414923],[103.120382,-0.412217],[103.119557,-0.41069],[103.119768,-0.41058]]]}}]}