{"type":"FeatureCollection","features":[{"type":"Feature","properties":{"kdkec":"1403123","nmkec":"PULAU BURUNG","kddesa":"1403123008","nmdesa":"SUNGAI DANAI","idsubsls":"1403123008000500","kdsubsls":"00"},"geometry":{"type":"Polygon","coordinates":[[[103.409208,0.505716],[103.408046,0.505852],[103.407245,0.504379],[103.406591,0.49986],[103.375977,0.502438],[103.374806,0.505968],[103.367785,0.506018],[103.361155,0.514235],[103.365382,0.51491],[103.371704,0.51491],[103.382708,0.513915],[103.386053,0.513421],[103.385992,0.512055],[103.396895,0.511289],[103.411339,0.512106],[103.410356,0.505531],[103.409208,0.505716]]]}}]}