{"type":"FeatureCollection","features":[{"type":"Feature","properties":{"kdkec":"1403123","nmkec":"PULAU BURUNG","kddesa":"1403123008","nmdesa":"SUNGAI DANAI","idsubsls":"1403123008000300","kdsubsls":"00"},"geometry":{"type":"Polygon","coordinates":[[[103.415795,0.502324],[103.415221,0.503874],[103.413793,0.504849],[103.410356,0.505531],[103.411339,0.512106],[103.415863,0.511587],[103.416473,0.51312],[103.418957,0.513081],[103.418993,0.513382],[103.420167,0.51336],[103.420474,0.512344],[103.419965,0.510989],[103.420934,0.5103],[103.420759,0.509567],[103.421325,0.507816],[103.421251,0.507275],[103.420946,0.507002],[103.420237,0.506804],[103.420082,0.506537],[103.4201,0.505562],[103.419833,0.504742],[103.419345,0.504473],[103.418722,0.504475],[103.418182,0.504258],[103.418144,0.503888],[103.418604,0.502988],[103.418486,0.502764],[103.417169,0.503273],[103.416946,0.503068],[103.416822,0.502236],[103.415795,0.502324]]]}}]}