{"type":"FeatureCollection","features":[{"type":"Feature","properties":{"kdkec":"1403123","nmkec":"PULAU BURUNG","kddesa":"1403123008","nmdesa":"SUNGAI DANAI","idsubsls":"1403123008001300","kdsubsls":"00"},"geometry":{"type":"Polygon","coordinates":[[[103.440472,0.447598],[103.446503,0.45357],[103.449267,0.457092],[103.452104,0.461482],[103.4534,0.463219],[103.457487,0.465354],[103.458142,0.464221],[103.458411,0.463371],[103.460638,0.459766],[103.450153,0.448461],[103.445461,0.443154],[103.440472,0.447598]]]}}]}