{"type":"FeatureCollection","features":[{"type":"Feature","properties":{"kdkec":"1403123","nmkec":"PULAU BURUNG","kddesa":"1403123008","nmdesa":"SUNGAI DANAI","idsubsls":"1403123008001000","kdsubsls":"00"},"geometry":{"type":"Polygon","coordinates":[[[103.455504,0.464368],[103.4534,0.463219],[103.449561,0.457595],[103.416613,0.486948],[103.412369,0.491121],[103.41216,0.491435],[103.412091,0.492323],[103.411577,0.493455],[103.411464,0.494491],[103.41176,0.495754],[103.411115,0.496955],[103.411986,0.497913],[103.412178,0.499351],[103.412648,0.500352],[103.413414,0.500892],[103.41324,0.501571],[103.413754,0.501658],[103.414224,0.501214],[103.414633,0.501257],[103.414782,0.502302],[103.416822,0.502236],[103.416946,0.503068],[103.417169,0.503273],[103.418486,0.502764],[103.418604,0.502988],[103.418144,0.503888],[103.418182,0.504258],[103.418722,0.504475],[103.419345,0.504473],[103.419833,0.504742],[103.4201,0.505562],[103.420082,0.506537],[103.420237,0.506804],[103.420946,0.507002],[103.421251,0.507275],[103.421325,0.507816],[103.420828,0.509045],[103.420759,0.509567],[103.420934,0.5103],[103.419965,0.510989],[103.420397,0.511903],[103.422544,0.509527],[103.423349,0.507591],[103.423905,0.505234],[103.427642,0.501266],[103.433871,0.495306],[103.441859,0.491838],[103.435432,0.484629],[103.445743,0.477164],[103.446091,0.476643],[103.448539,0.474585],[103.454825,0.46649],[103.456378,0.467272],[103.457487,0.465354],[103.455504,0.464368]]]}}]}