{"type":"FeatureCollection","features":[{"type":"Feature","properties":{"kdkec":"1403123","nmkec":"PULAU BURUNG","kddesa":"1403123008","nmdesa":"SUNGAI DANAI","idsubsls":"1403123008000800","kdsubsls":"00"},"geometry":{"type":"Polygon","coordinates":[[[103.437762,0.505151],[103.440456,0.501368],[103.444801,0.496844],[103.445608,0.4963],[103.441859,0.491838],[103.433871,0.495306],[103.427642,0.501266],[103.423905,0.505234],[103.423349,0.507591],[103.422544,0.509527],[103.420397,0.511903],[103.420474,0.512344],[103.420167,0.51336],[103.420206,0.515564],[103.419813,0.51653],[103.420252,0.517292],[103.421612,0.516641],[103.421838,0.516343],[103.425816,0.51396],[103.430072,0.509864],[103.434471,0.506604],[103.436929,0.505821],[103.437762,0.505151]]]}}]}