{"type":"FeatureCollection","features":[{"type":"Feature","properties":{"kdkec":"1403080","nmkec":"BATANG TUAKA","kddesa":"1403080002","nmdesa":"SUNGAI RAYA","idsubsls":"1403080002000100","kdsubsls":"00"},"geometry":{"type":"Polygon","coordinates":[[[103.102192,-0.303046],[103.102411,-0.302868],[103.103714,-0.305036],[103.101861,-0.307145],[103.100536,-0.309355],[103.0977,-0.308125],[103.098297,-0.306914],[103.099891,-0.3062],[103.099094,-0.304706],[103.094827,-0.302882],[103.095209,-0.301424],[103.100707,-0.304684],[103.102192,-0.303046]]]}}]}