{"type":"FeatureCollection","features":[{"type":"Feature","properties":{"kdkec":"1403010","nmkec":"KERITANG","kddesa":"1403010001","nmdesa":"KOTABARU RETEH","idsubsls":"1403010001002300","kdsubsls":"00"},"geometry":{"type":"Polygon","coordinates":[[[102.942154,-0.723797],[102.943035,-0.724401],[102.943728,-0.723374],[102.951092,-0.730795],[102.958884,-0.738136],[102.955504,-0.739445],[102.953022,-0.736797],[102.948517,-0.733813],[102.939792,-0.727156],[102.937817,-0.725852],[102.93856,-0.723831],[102.940562,-0.724833],[102.941524,-0.72374],[102.941911,-0.724134],[102.942154,-0.723797]]]}}]}