{"type":"FeatureCollection","features":[{"type":"Feature","properties":{"kdkec":"1403011","nmkec":"KEMUNING","kddesa":"1403011012","nmdesa":"SEKAYAN","idsubsls":"1403011012001300","kdsubsls":"00"},"geometry":{"type":"Polygon","coordinates":[[[102.742186,-0.793781],[102.743911,-0.792757],[102.744186,-0.793104],[102.744878,-0.79264],[102.75099,-0.800417],[102.740774,-0.809771],[102.735319,-0.805464],[102.73317,-0.804246],[102.731393,-0.802352],[102.731031,-0.80175],[102.725447,-0.796966],[102.72483,-0.795846],[102.730308,-0.791574],[102.732382,-0.790485],[102.736607,-0.786783],[102.740933,-0.791967],[102.742186,-0.793781]]]}}]}