{"type":"FeatureCollection","features":[{"type":"Feature","properties":{"kdkec":"1403011","nmkec":"KEMUNING","kddesa":"1403011012","nmdesa":"SEKAYAN","idsubsls":"1403011012001200","kdsubsls":"00"},"geometry":{"type":"Polygon","coordinates":[[[102.754569,-0.819888],[102.743997,-0.824321],[102.721046,-0.802993],[102.726366,-0.797685],[102.731031,-0.80175],[102.731393,-0.802352],[102.73317,-0.804246],[102.735319,-0.805464],[102.740774,-0.809771],[102.75099,-0.800417],[102.755099,-0.805684],[102.76139,-0.816246],[102.757037,-0.818854],[102.754569,-0.819888]]]}}]}