{"type":"FeatureCollection","features":[{"type":"Feature","properties":{"kdkec":"1403020","nmkec":"RETEH","kddesa":"1403020010","nmdesa":"SEBERANG SANGLAR","idsubsls":"1403020010002600","kdsubsls":"00"},"geometry":{"type":"Polygon","coordinates":[[[103.078504,-0.676455],[103.076465,-0.685641],[103.073994,-0.685295],[103.072312,-0.684579],[103.069673,-0.682426],[103.0756,-0.663205],[103.084988,-0.627656],[103.085594,-0.627808],[103.089176,-0.627932],[103.085475,-0.645069],[103.083372,-0.65627],[103.08117,-0.666319],[103.078504,-0.676455]]]}}]}