{"type":"FeatureCollection","features":[{"type":"Feature","properties":{"kdkec":"1403020","nmkec":"RETEH","kddesa":"1403020010","nmdesa":"SEBERANG SANGLAR","idsubsls":"1403020010000800","kdsubsls":"00"},"geometry":{"type":"Polygon","coordinates":[[[103.062047,-0.664363],[103.063226,-0.659236],[103.064213,-0.651204],[103.06537,-0.613257],[103.066391,-0.61317],[103.071928,-0.611653],[103.071991,-0.625659],[103.070879,-0.64383],[103.06924,-0.660981],[103.068264,-0.666277],[103.065164,-0.679683],[103.064432,-0.679504],[103.062655,-0.679442],[103.060543,-0.679779],[103.062047,-0.664363]]]}}]}