{"type":"FeatureCollection","features":[{"type":"Feature","properties":{"kdkec":"1403090","nmkec":"GAUNG ANAK SERKA","kddesa":"1403090011","nmdesa":"HARAPAN MAKMUR","idsubsls":"1403090011000400","kdsubsls":"00"},"geometry":{"type":"Polygon","coordinates":[[[103.218213,-0.132847],[103.21884,-0.135958],[103.219246,-0.139647],[103.219567,-0.144069],[103.21941,-0.146092],[103.220242,-0.148144],[103.219421,-0.148427],[103.219003,-0.148309],[103.218959,-0.147797],[103.218316,-0.147786],[103.218299,-0.148584],[103.217037,-0.148012],[103.215155,-0.146746],[103.212577,-0.144686],[103.212227,-0.144585],[103.211982,-0.132289],[103.216298,-0.132873],[103.218213,-0.132847]]]}}]}