{"type":"FeatureCollection","features":[{"type":"Feature","properties":{"kdkec":"1403090","nmkec":"GAUNG ANAK SERKA","kddesa":"1403090011","nmdesa":"HARAPAN MAKMUR","idsubsls":"1403090011000500","kdsubsls":"00"},"geometry":{"type":"Polygon","coordinates":[[[103.218299,-0.148584],[103.217712,-0.163737],[103.217869,-0.18565],[103.211531,-0.185771],[103.211195,-0.182824],[103.212906,-0.163184],[103.212906,-0.160462],[103.212165,-0.146954],[103.212227,-0.144585],[103.212577,-0.144686],[103.215155,-0.146746],[103.217037,-0.148012],[103.218299,-0.148584]]]}}]}