{"type":"FeatureCollection","features":[{"type":"Feature","properties":{"kdkec":"1403050","nmkec":"KUALA INDRAGIRI","kddesa":"1403050010","nmdesa":"TELUK DALAM","idsubsls":"1403050010001100","kdsubsls":"00"},"geometry":{"type":"Polygon","coordinates":[[[103.26149,-0.276116],[103.261145,-0.277435],[103.25997,-0.280358],[103.255181,-0.287821],[103.253648,-0.291534],[103.250688,-0.291505],[103.248228,-0.286911],[103.245002,-0.28419],[103.244479,-0.28403],[103.244947,-0.28333],[103.247541,-0.280775],[103.251146,-0.27907],[103.258539,-0.27632],[103.26149,-0.276116]]]}}]}