{"type":"FeatureCollection","features":[{"type":"Feature","properties":{"kdkec":"1403030","nmkec":"ENOK","kddesa":"1403030002","nmdesa":"SUHADA","idsubsls":"1403030002000700","kdsubsls":"00"},"geometry":{"type":"Polygon","coordinates":[[[103.013371,-0.531748],[103.012507,-0.54335],[103.007236,-0.54363],[103.005238,-0.530916],[103.004376,-0.530874],[103.004051,-0.526408],[103.003685,-0.52432],[103.002258,-0.523121],[103.001559,-0.521518],[103.001245,-0.51914],[103.001573,-0.51739],[103.002233,-0.5159],[103.011671,-0.527697],[103.012355,-0.528706],[103.013371,-0.531748]]]}}]}