{"type":"FeatureCollection","features":[{"type":"Feature","properties":{"kdkec":"1403030","nmkec":"ENOK","kddesa":"1403030002","nmdesa":"SUHADA","idsubsls":"1403030002000300","kdsubsls":"00"},"geometry":{"type":"Polygon","coordinates":[[[103.016652,-0.591285],[103.013008,-0.592769],[103.012752,-0.578975],[103.012507,-0.54335],[103.013371,-0.531748],[103.016244,-0.531828],[103.016626,-0.523547],[103.017339,-0.514468],[103.018572,-0.507327],[103.018532,-0.505281],[103.021673,-0.505027],[103.023939,-0.505182],[103.024563,-0.505311],[103.018845,-0.551855],[103.017269,-0.57084],[103.016652,-0.591285]]]}}]}