{"type":"FeatureCollection","features":[{"type":"Feature","properties":{"kdkec":"1403030","nmkec":"ENOK","kddesa":"1403030002","nmdesa":"SUHADA","idsubsls":"1403030002001700","kdsubsls":"00"},"geometry":{"type":"Polygon","coordinates":[[[103.003109,-0.513921],[103.00281,-0.513727],[103.002748,-0.513835],[103.001799,-0.513122],[103.001867,-0.512789],[103.001446,-0.512496],[103.001757,-0.512075],[102.99984,-0.510573],[102.994519,-0.505677],[103.002112,-0.500534],[103.007344,-0.508915],[103.005965,-0.509907],[103.004536,-0.511452],[103.003109,-0.513921]]]}}]}