{"type":"FeatureCollection","features":[{"type":"Feature","properties":{"kdkec":"1403030","nmkec":"ENOK","kddesa":"1403030002","nmdesa":"SUHADA","idsubsls":"1403030002002300","kdsubsls":"00"},"geometry":{"type":"Polygon","coordinates":[[[102.985748,-0.595353],[102.98381,-0.597135],[102.982244,-0.594344],[102.983612,-0.592486],[102.984773,-0.587596],[102.987529,-0.581082],[102.987862,-0.556715],[102.994398,-0.552761],[102.992747,-0.565933],[102.992689,-0.582834],[102.987941,-0.591582],[102.986704,-0.594474],[102.985748,-0.595353]]]}}]}