{"type":"FeatureCollection","features":[{"type":"Feature","properties":{"kdkec":"1403030","nmkec":"ENOK","kddesa":"1403030002","nmdesa":"SUHADA","idsubsls":"1403030002000900","kdsubsls":"00"},"geometry":{"type":"Polygon","coordinates":[[[103.002469,-0.566791],[103.002434,-0.57212],[103.002778,-0.586393],[102.997387,-0.584491],[102.998187,-0.540432],[102.99939,-0.539472],[103.000432,-0.539042],[103.002064,-0.536655],[103.002166,-0.538381],[103.002824,-0.541589],[103.002594,-0.547157],[103.002469,-0.566791]]]}}]}