{"type":"FeatureCollection","features":[{"type":"Feature","properties":{"kdkec":"1403090","nmkec":"GAUNG ANAK SERKA","kddesa":"1403090008","nmdesa":"KUALA GAUNG","idsubsls":"1403090008000100","kdsubsls":"00"},"geometry":{"type":"Polygon","coordinates":[[[103.439753,-0.195158],[103.433776,-0.186857],[103.430123,-0.184372],[103.427138,-0.179773],[103.427839,-0.177271],[103.442945,-0.172381],[103.456835,-0.167224],[103.457802,-0.166735],[103.462516,-0.175442],[103.462016,-0.175636],[103.456834,-0.183102],[103.454552,-0.185093],[103.450847,-0.187867],[103.439753,-0.195158]]]}}]}