{"type":"FeatureCollection","features":[{"type":"Feature","properties":{"kdkec":"1403090","nmkec":"GAUNG ANAK SERKA","kddesa":"1403090008","nmdesa":"KUALA GAUNG","idsubsls":"1403090008000800","kdsubsls":"00"},"geometry":{"type":"Polygon","coordinates":[[[103.406116,-0.149178],[103.411669,-0.14903],[103.414675,-0.147873],[103.422306,-0.14533],[103.430689,-0.145734],[103.432249,-0.146086],[103.425525,-0.169484],[103.413712,-0.169621],[103.413825,-0.157277],[103.409158,-0.157047],[103.409233,-0.155025],[103.407725,-0.15289],[103.40609,-0.150021],[103.406116,-0.149178]]]}}]}