{"type":"FeatureCollection","features":[{"type":"Feature","properties":{"kdkec":"1403090","nmkec":"GAUNG ANAK SERKA","kddesa":"1403090008","nmdesa":"KUALA GAUNG","idsubsls":"1403090008000700","kdsubsls":"00"},"geometry":{"type":"Polygon","coordinates":[[[103.411105,-0.169636],[103.410203,-0.172267],[103.410216,-0.17486],[103.410421,-0.176537],[103.4106,-0.177266],[103.410945,-0.177765],[103.411521,-0.178162],[103.413134,-0.180504],[103.413441,-0.181054],[103.413391,-0.181653],[103.400562,-0.18186],[103.400446,-0.170559],[103.399701,-0.158433],[103.4018,-0.157497],[103.404026,-0.157742],[103.407701,-0.158701],[103.409158,-0.157047],[103.413825,-0.157277],[103.413712,-0.169621],[103.411105,-0.169636]]]}}]}