{"type":"FeatureCollection","features":[{"type":"Feature","properties":{"kdkec":"1403123","nmkec":"PULAU BURUNG","kddesa":"1403123008","nmdesa":"SUNGAI DANAI","idsubsls":"1403123008001200","kdsubsls":"00"},"geometry":{"type":"Polygon","coordinates":[[[103.462133,0.461378],[103.460638,0.459766],[103.458411,0.463371],[103.458142,0.464221],[103.456378,0.467272],[103.454825,0.46649],[103.448539,0.474585],[103.446091,0.476643],[103.445743,0.477164],[103.435432,0.484629],[103.440216,0.490095],[103.453366,0.479553],[103.455609,0.477515],[103.461967,0.468971],[103.464734,0.464182],[103.462133,0.461378]]]}}]}