{"type":"FeatureCollection","features":[{"type":"Feature","properties":{"kdkec":"1403123","nmkec":"PULAU BURUNG","kddesa":"1403123008","nmdesa":"SUNGAI DANAI","idsubsls":"1403123008000700","kdsubsls":"00"},"geometry":{"type":"Polygon","coordinates":[[[103.361155,0.514235],[103.367785,0.506018],[103.374806,0.505968],[103.375977,0.502438],[103.41038,0.499541],[103.411664,0.499207],[103.412178,0.499351],[103.411986,0.497913],[103.411115,0.496955],[103.41176,0.495754],[103.411464,0.494491],[103.406167,0.494824],[103.396073,0.493109],[103.384739,0.490877],[103.368845,0.495833],[103.351606,0.502379],[103.349837,0.509453],[103.346732,0.511161],[103.343413,0.513668],[103.34922,0.513875],[103.353123,0.513593],[103.355094,0.513171],[103.355698,0.512829],[103.357569,0.513191],[103.361155,0.514235]]]}}]}