{"type":"FeatureCollection","features":[{"type":"Feature","properties":{"kdkec":"1403123","nmkec":"PULAU BURUNG","kddesa":"1403123008","nmdesa":"SUNGAI DANAI","idsubsls":"1403123008001700","kdsubsls":"00"},"geometry":{"type":"Polygon","coordinates":[[[103.368074,0.527876],[103.366867,0.527634],[103.364554,0.527956],[103.359832,0.529226],[103.358776,0.529182],[103.35318,0.526527],[103.353032,0.536292],[103.353732,0.536162],[103.354475,0.53571],[103.362427,0.533566],[103.36829,0.53285],[103.368074,0.527876]]]}}]}