{"type":"FeatureCollection","features":[{"type":"Feature","properties":{"kdkec":"1403123","nmkec":"PULAU BURUNG","kddesa":"1403123008","nmdesa":"SUNGAI DANAI","idsubsls":"1403123008000600","kdsubsls":"00"},"geometry":{"type":"Polygon","coordinates":[[[103.40521,0.475711],[103.402091,0.475423],[103.384739,0.490877],[103.396073,0.493109],[103.406167,0.494824],[103.411464,0.494491],[103.411577,0.493455],[103.412091,0.492323],[103.41216,0.491435],[103.412369,0.491121],[103.416613,0.486948],[103.416566,0.483721],[103.414825,0.481025],[103.413644,0.480132],[103.413159,0.479481],[103.412341,0.478815],[103.411433,0.478663],[103.410918,0.477937],[103.410191,0.4778],[103.408284,0.476468],[103.407209,0.476059],[103.40521,0.475711]]]}}]}