{"type":"FeatureCollection","features":[{"type":"Feature","properties":{"kdkec":"1403080","nmkec":"BATANG TUAKA","kddesa":"1403080012","nmdesa":"PASIR EMAS","idsubsls":"1403080012001300","kdsubsls":"00"},"geometry":{"type":"Polygon","coordinates":[[[103.027875,-0.320348],[103.026515,-0.319324],[103.024959,-0.317814],[103.02528,-0.314764],[103.024521,-0.290781],[103.025531,-0.275903],[103.030578,-0.275407],[103.029319,-0.305478],[103.029198,-0.311577],[103.029359,-0.315008],[103.029095,-0.322677],[103.028529,-0.321125],[103.027875,-0.320348]]]}}]}