{"type":"FeatureCollection","features":[{"type":"Feature","properties":{"kdkec":"1403080","nmkec":"BATANG TUAKA","kddesa":"1403080012","nmdesa":"PASIR EMAS","idsubsls":"1403080012000900","kdsubsls":"00"},"geometry":{"type":"Polygon","coordinates":[[[103.015668,-0.309905],[103.01463,-0.308354],[103.014213,-0.306716],[103.014408,-0.30569],[103.014066,-0.304577],[103.014192,-0.303524],[103.013977,-0.30194],[103.013438,-0.299991],[103.011098,-0.293539],[103.013397,-0.290711],[103.015369,-0.297028],[103.015969,-0.299593],[103.015959,-0.304421],[103.015668,-0.309905]]]}}]}