{"type":"FeatureCollection","features":[{"type":"Feature","properties":{"kdkec":"1403070","nmkec":"TEMPULING","kddesa":"1403070014","nmdesa":"KARYA TUNAS JAYA","idsubsls":"1403070014001100","kdsubsls":"00"},"geometry":{"type":"Polygon","coordinates":[[[102.889865,-0.474602],[102.889868,-0.475625],[102.89051,-0.475625],[102.890595,-0.479263],[102.889803,-0.479489],[102.888835,-0.479538],[102.888227,-0.479178],[102.887556,-0.479106],[102.887129,-0.478796],[102.886251,-0.478557],[102.884015,-0.477328],[102.883995,-0.476929],[102.885215,-0.474699],[102.88492,-0.4742],[102.889847,-0.47418],[102.889865,-0.474602]]]}}]}