{"type":"FeatureCollection","features":[{"type":"Feature","properties":{"kdkec":"1403070","nmkec":"TEMPULING","kddesa":"1403070014","nmdesa":"KARYA TUNAS JAYA","idsubsls":"1403070014002400","kdsubsls":"00"},"geometry":{"type":"Polygon","coordinates":[[[102.902319,-0.490899],[102.902393,-0.485599],[102.903649,-0.485656],[102.905112,-0.485228],[102.905914,-0.485382],[102.906292,-0.485895],[102.907836,-0.486268],[102.907985,-0.4858],[102.90753,-0.484616],[102.90735,-0.483495],[102.907674,-0.483095],[102.907966,-0.483065],[102.907965,-0.48328],[102.908738,-0.483726],[102.909843,-0.483948],[102.911389,-0.486786],[102.911279,-0.48762],[102.911997,-0.488677],[102.911886,-0.489289],[102.912189,-0.49004],[102.912933,-0.491138],[102.902967,-0.491281],[102.902964,-0.49089],[102.902319,-0.490899]]]}}]}