{"type":"FeatureCollection","features":[{"type":"Feature","properties":{"kdkec":"1403070","nmkec":"TEMPULING","kddesa":"1403070014","nmdesa":"KARYA TUNAS JAYA","idsubsls":"1403070014002100","kdsubsls":"00"},"geometry":{"type":"Polygon","coordinates":[[[102.859186,-0.485364],[102.859173,-0.481279],[102.86264,-0.481758],[102.863347,-0.482685],[102.864188,-0.482798],[102.864864,-0.482307],[102.869068,-0.480515],[102.869725,-0.479899],[102.870184,-0.478377],[102.869878,-0.477648],[102.875391,-0.477707],[102.875377,-0.477405],[102.880405,-0.47733],[102.880626,-0.48557],[102.859186,-0.485364]]]}}]}