{"type":"FeatureCollection","features":[{"type":"Feature","properties":{"kdkec":"1403070","nmkec":"TEMPULING","kddesa":"1403070014","nmdesa":"KARYA TUNAS JAYA","idsubsls":"1403070014002000","kdsubsls":"00"},"geometry":{"type":"Polygon","coordinates":[[[102.875619,-0.470415],[102.879093,-0.470895],[102.884756,-0.473925],[102.885215,-0.474699],[102.883995,-0.476929],[102.884015,-0.477328],[102.875377,-0.477405],[102.875391,-0.477707],[102.869878,-0.477648],[102.868514,-0.476946],[102.867371,-0.476059],[102.867457,-0.475555],[102.868384,-0.473866],[102.870999,-0.471845],[102.873336,-0.470774],[102.875619,-0.470415]]]}}]}