{"type":"FeatureCollection","features":[{"type":"Feature","properties":{"kdkec":"1403070","nmkec":"TEMPULING","kddesa":"1403070014","nmdesa":"KARYA TUNAS JAYA","idsubsls":"1403070014001000","kdsubsls":"00"},"geometry":{"type":"Polygon","coordinates":[[[102.885636,-0.443659],[102.885166,-0.450078],[102.885302,-0.470665],[102.885821,-0.470653],[102.885815,-0.471082],[102.886788,-0.471192],[102.886831,-0.474187],[102.88492,-0.4742],[102.884756,-0.473925],[102.881854,-0.472353],[102.881475,-0.442245],[102.884288,-0.442426],[102.885636,-0.443659]]]}}]}