{"type":"FeatureCollection","features":[{"type":"Feature","properties":{"kdkec":"1403070","nmkec":"TEMPULING","kddesa":"1403070014","nmdesa":"KARYA TUNAS JAYA","idsubsls":"1403070014002500","kdsubsls":"00"},"geometry":{"type":"Polygon","coordinates":[[[102.902393,-0.485599],[102.902319,-0.490899],[102.892545,-0.491038],[102.892509,-0.479011],[102.893525,-0.479061],[102.893804,-0.478944],[102.894039,-0.477382],[102.894849,-0.47582],[102.895357,-0.476122],[102.897757,-0.476806],[102.901601,-0.479399],[102.901988,-0.480349],[102.902506,-0.480974],[102.901678,-0.482802],[102.900899,-0.483779],[102.902258,-0.485593],[102.902393,-0.485599]]]}}]}