{"type":"FeatureCollection","features":[{"type":"Feature","properties":{"kdkec":"1403061","nmkec":"TEMBILAHAN HULU","kddesa":"1403061003","nmdesa":"SIALANG PANJANG","idsubsls":"1403061003001500","kdsubsls":"00"},"geometry":{"type":"Polygon","coordinates":[[[103.026897,-0.371269],[103.033576,-0.374565],[103.030406,-0.380192],[103.006171,-0.367506],[103.005503,-0.36419],[103.005622,-0.360269],[103.00886,-0.356732],[103.010612,-0.355455],[103.013547,-0.352278],[103.024371,-0.370022],[103.026897,-0.371269]]]}}]}