{"type":"FeatureCollection","features":[{"type":"Feature","properties":{"kdkec":"1403061","nmkec":"TEMBILAHAN HULU","kddesa":"1403061003","nmdesa":"SIALANG PANJANG","idsubsls":"1403061003001000","kdsubsls":"00"},"geometry":{"type":"Polygon","coordinates":[[[103.043053,-0.338019],[103.045215,-0.338337],[103.039704,-0.348382],[103.038257,-0.368898],[103.038615,-0.372828],[103.036023,-0.373974],[103.035421,-0.363989],[103.034254,-0.356206],[103.031649,-0.344438],[103.0355,-0.337755],[103.038714,-0.337397],[103.040966,-0.337582],[103.043053,-0.338019]]]}}]}