{"type":"FeatureCollection","features":[{"type":"Feature","properties":{"kdkec":"1403030","nmkec":"ENOK","kddesa":"1403030007","nmdesa":"ENOK","idsubsls":"1403030007001000","kdsubsls":"00"},"geometry":{"type":"Polygon","coordinates":[[[103.1917,-0.506146],[103.191537,-0.506155],[103.191017,-0.508913],[103.190107,-0.508846],[103.190434,-0.506977],[103.190302,-0.506965],[103.190303,-0.506713],[103.190464,-0.506734],[103.190522,-0.50595],[103.190808,-0.506021],[103.191199,-0.50425],[103.191796,-0.504237],[103.191442,-0.50581],[103.191748,-0.505898],[103.1917,-0.506146]]]}}]}