{"type":"FeatureCollection","features":[{"type":"Feature","properties":{"kdkec":"1403121","nmkec":"PELANGIRAN","kddesa":"1403121015","nmdesa":"HIDAYAH","idsubsls":"1403121015000700","kdsubsls":"00"},"geometry":{"type":"Polygon","coordinates":[[[103.522331,0.245756],[103.517792,0.253309],[103.530104,0.259759],[103.533585,0.252413],[103.538197,0.245002],[103.538272,0.24404],[103.538145,0.243479],[103.538489,0.242228],[103.53954,0.241721],[103.541071,0.239537],[103.541343,0.239374],[103.542177,0.239573],[103.542476,0.239465],[103.543083,0.23884],[103.543735,0.237644],[103.54393,0.236267],[103.544765,0.235752],[103.545461,0.234304],[103.542749,0.232449],[103.536442,0.228794],[103.522331,0.245756]]]}}]}