{"type":"FeatureCollection","features":[{"type":"Feature","properties":{"kdkec":"1403121","nmkec":"PELANGIRAN","kddesa":"1403121015","nmdesa":"HIDAYAH","idsubsls":"1403121015001100","kdsubsls":"00"},"geometry":{"type":"Polygon","coordinates":[[[103.53626,0.19866],[103.531866,0.204406],[103.531033,0.205122],[103.530316,0.205504],[103.528393,0.205815],[103.527544,0.206275],[103.521735,0.21037],[103.516382,0.215299],[103.51829,0.216969],[103.524233,0.221105],[103.526335,0.221687],[103.527327,0.218533],[103.531499,0.208984],[103.536783,0.201753],[103.536982,0.199982],[103.53626,0.19866]]]}}]}