{"type":"FeatureCollection","features":[{"type":"Feature","properties":{"kdkec":"1403122","nmkec":"TELUK BELENGKONG","kddesa":"1403122003","nmdesa":"HIBRIDA MULYA","idsubsls":"1403122003100100","kdsubsls":"00"},"geometry":{"type":"Polygon","coordinates":[[[103.330585,0.29969],[103.310111,0.275316],[103.281148,0.300753],[103.302734,0.324034],[103.315076,0.313095],[103.330585,0.29969]],[[103.308588,0.306353],[103.311239,0.309397],[103.304822,0.314757],[103.301632,0.310969],[103.307837,0.305491],[103.308588,0.306353]]]}}]}