{"type":"FeatureCollection","features":[{"type":"Feature","properties":{"kdkec":"1403011","nmkec":"KEMUNING","kddesa":"1403011002","nmdesa":"BATU AMPAR","idsubsls":"1403011002000900","kdsubsls":"00"},"geometry":{"type":"Polygon","coordinates":[[[102.73369,-0.961636],[102.734309,-0.96234],[102.734137,-0.962518],[102.733791,-0.962423],[102.732593,-0.963281],[102.732093,-0.962421],[102.732345,-0.962024],[102.732279,-0.961516],[102.733363,-0.961328],[102.733585,-0.961682],[102.73369,-0.961636]]]}}]}