{"type":"FeatureCollection","features":[{"type":"Feature","properties":{"kdkec":"1403030","nmkec":"ENOK","kddesa":"1403030001","nmdesa":"BAGAN JAYA","idsubsls":"1403030001003700","kdsubsls":"00"},"geometry":{"type":"Polygon","coordinates":[[[102.974717,-0.57371],[102.97608,-0.575983],[102.972911,-0.57766],[102.97309,-0.577946],[102.964259,-0.582357],[102.962204,-0.578065],[102.960781,-0.575554],[102.969954,-0.572299],[102.970467,-0.573242],[102.972107,-0.572333],[102.973269,-0.574523],[102.974717,-0.57371]]]}}]}