{"type":"FeatureCollection","features":[{"type":"Feature","properties":{"kdkec":"1403030","nmkec":"ENOK","kddesa":"1403030001","nmdesa":"BAGAN JAYA","idsubsls":"1403030001000700","kdsubsls":"00"},"geometry":{"type":"Polygon","coordinates":[[[102.958888,-0.545647],[102.961175,-0.550001],[102.964494,-0.555691],[102.963903,-0.556697],[102.963559,-0.557748],[102.959772,-0.550913],[102.960099,-0.550589],[102.958647,-0.548251],[102.958853,-0.548145],[102.957525,-0.545572],[102.958544,-0.545026],[102.958888,-0.545647]]]}}]}