{"type":"FeatureCollection","features":[{"type":"Feature","properties":{"kdkec":"1403030","nmkec":"ENOK","kddesa":"1403030001","nmdesa":"BAGAN JAYA","idsubsls":"1403030001002300","kdsubsls":"00"},"geometry":{"type":"Polygon","coordinates":[[[102.973868,-0.565014],[102.973536,-0.565207],[102.97531,-0.56799],[102.974692,-0.568371],[102.975162,-0.569174],[102.974502,-0.569535],[102.974353,-0.569276],[102.972641,-0.570199],[102.970987,-0.56696],[102.971303,-0.566776],[102.970466,-0.565348],[102.973005,-0.563537],[102.973868,-0.565014]]]}}]}