{"type":"FeatureCollection","features":[{"type":"Feature","properties":{"kdkec":"1403121","nmkec":"PELANGIRAN","kddesa":"1403121015","nmdesa":"HIDAYAH","idsubsls":"1403121015001000","kdsubsls":"00"},"geometry":{"type":"Polygon","coordinates":[[[103.535003,0.227153],[103.545537,0.201548],[103.54614,0.202282],[103.542855,0.198003],[103.540054,0.197971],[103.536928,0.200381],[103.536783,0.201753],[103.531499,0.208984],[103.527327,0.218533],[103.526335,0.221687],[103.530912,0.222584],[103.535003,0.227153]]]}}]}