{"type":"FeatureCollection","features":[{"type":"Feature","properties":{"kdkec":"1403080","nmkec":"BATANG TUAKA","kddesa":"1403080001","nmdesa":"KUALA SEBATU","idsubsls":"1403080001001500","kdsubsls":"00"},"geometry":{"type":"Polygon","coordinates":[[[103.017618,-0.323692],[103.021106,-0.327669],[103.028875,-0.337201],[103.028246,-0.337336],[103.026543,-0.338619],[103.025282,-0.34004],[103.023673,-0.338696],[103.021262,-0.335987],[103.018187,-0.332914],[103.01198,-0.325588],[103.011557,-0.32488],[103.017407,-0.323453],[103.017618,-0.323692]]]}}]}