{"type":"FeatureCollection","features":[{"type":"Feature","properties":{"kdkec":"1403080","nmkec":"BATANG TUAKA","kddesa":"1403080001","nmdesa":"KUALA SEBATU","idsubsls":"1403080001002000","kdsubsls":"00"},"geometry":{"type":"Polygon","coordinates":[[[103.010612,-0.355455],[103.00886,-0.356732],[103.006204,-0.359623],[103.003919,-0.359553],[103.003158,-0.358679],[103.002111,-0.355547],[103.00095,-0.35386],[102.99266,-0.349464],[102.988159,-0.342788],[102.957072,-0.327863],[102.964863,-0.327135],[102.991422,-0.339228],[102.99797,-0.343906],[103.002215,-0.347398],[103.010612,-0.355455]]]}}]}