{"type":"FeatureCollection","features":[{"type":"Feature","properties":{"kdkec":"1403080","nmkec":"BATANG TUAKA","kddesa":"1403080001","nmdesa":"KUALA SEBATU","idsubsls":"1403080001000600","kdsubsls":"00"},"geometry":{"type":"Polygon","coordinates":[[[103.050003,-0.305001],[103.049568,-0.307497],[103.049114,-0.312232],[103.049076,-0.32237],[103.045449,-0.338449],[103.045023,-0.338222],[103.043053,-0.338019],[103.040966,-0.337582],[103.041088,-0.333161],[103.040044,-0.285592],[103.04581,-0.296327],[103.050003,-0.305001]]]}}]}