{"type":"FeatureCollection","features":[{"type":"Feature","properties":{"kdkec":"1403080","nmkec":"BATANG TUAKA","kddesa":"1403080001","nmdesa":"KUALA SEBATU","idsubsls":"1403080001001100","kdsubsls":"00"},"geometry":{"type":"Polygon","coordinates":[[[103.013692,-0.3134],[103.018174,-0.311475],[103.019043,-0.311976],[103.019258,-0.31251],[103.020184,-0.313544],[103.021219,-0.31387],[103.021636,-0.314614],[103.021414,-0.314959],[103.016089,-0.31608],[102.986161,-0.321307],[102.943713,-0.321702],[102.948355,-0.317211],[102.98374,-0.316684],[102.998471,-0.315826],[103.007565,-0.314478],[103.013692,-0.3134]]]}}]}