{"type":"FeatureCollection","features":[{"type":"Feature","properties":{"kdkec":"1403080","nmkec":"BATANG TUAKA","kddesa":"1403080001","nmdesa":"KUALA SEBATU","idsubsls":"1403080001002200","kdsubsls":"00"},"geometry":{"type":"Polygon","coordinates":[[[102.975663,-0.344805],[102.980098,-0.347544],[102.98436,-0.348731],[102.988734,-0.34923],[102.989912,-0.349845],[102.992154,-0.349773],[102.99266,-0.349464],[103.00095,-0.35386],[103.001186,-0.354202],[102.983063,-0.353594],[102.974152,-0.353573],[102.949837,-0.346707],[102.940916,-0.345289],[102.935234,-0.329904],[102.9488,-0.328636],[102.966347,-0.339081],[102.975663,-0.344805]]]}}]}