{"type":"FeatureCollection","features":[{"type":"Feature","properties":{"kdkec":"1403080","nmkec":"BATANG TUAKA","kddesa":"1403080001","nmdesa":"KUALA SEBATU","idsubsls":"1403080001000100","kdsubsls":"00"},"geometry":{"type":"Polygon","coordinates":[[[103.083512,-0.354216],[103.078673,-0.354819],[103.076732,-0.356411],[103.072714,-0.358818],[103.06988,-0.359148],[103.065299,-0.358702],[103.061746,-0.356566],[103.061047,-0.355935],[103.063327,-0.352057],[103.070094,-0.338557],[103.078774,-0.345242],[103.081396,-0.348378],[103.083512,-0.354216]]]}}]}