{"type":"FeatureCollection","features":[{"type":"Feature","properties":{"kdkec":"1403050","nmkec":"KUALA INDRAGIRI","kddesa":"1403050008","nmdesa":"PERIGI RAJA","idsubsls":"1403050008000100","kdsubsls":"00"},"geometry":{"type":"Polygon","coordinates":[[[103.489134,-0.254502],[103.488751,-0.255009],[103.489239,-0.255403],[103.488834,-0.256056],[103.489088,-0.256207],[103.487578,-0.258876],[103.484916,-0.262314],[103.484079,-0.261469],[103.484147,-0.259832],[103.483024,-0.259173],[103.482436,-0.258494],[103.487358,-0.25291],[103.489134,-0.254502]]]}}]}