{"type":"FeatureCollection","features":[{"type":"Feature","properties":{"kdkec":"1403050","nmkec":"KUALA INDRAGIRI","kddesa":"1403050008","nmdesa":"PERIGI RAJA","idsubsls":"1403050008100900","kdsubsls":"00"},"geometry":{"type":"Polygon","coordinates":[[[103.447257,-0.280497],[103.45065,-0.27701],[103.451963,-0.2765],[103.455688,-0.276334],[103.456698,-0.276636],[103.458589,-0.27639],[103.461275,-0.277561],[103.464325,-0.27843],[103.464602,-0.280182],[103.465906,-0.28125],[103.465457,-0.283343],[103.466269,-0.283899],[103.467679,-0.285715],[103.468714,-0.287835],[103.467798,-0.289317],[103.466269,-0.293576],[103.464194,-0.297399],[103.46205,-0.305723],[103.460434,-0.302054],[103.458125,-0.29906],[103.444061,-0.287517],[103.447257,-0.280497]]]}}]}