{"type":"FeatureCollection","features":[{"type":"Feature","properties":{"kdkec":"1403050","nmkec":"KUALA INDRAGIRI","kddesa":"1403050008","nmdesa":"PERIGI RAJA","idsubsls":"1403050008100700","kdsubsls":"00"},"geometry":{"type":"Polygon","coordinates":[[[103.449516,-0.248073],[103.456042,-0.24528],[103.458679,-0.248207],[103.462274,-0.25288],[103.465094,-0.256234],[103.470285,-0.260507],[103.472321,-0.263112],[103.477341,-0.267908],[103.480303,-0.271294],[103.4768,-0.276082],[103.475113,-0.2742],[103.47161,-0.271979],[103.467721,-0.268988],[103.460244,-0.261297],[103.457681,-0.25758],[103.449516,-0.248073]]]}}]}