{"type":"FeatureCollection","features":[{"type":"Feature","properties":{"kdkec":"1403050","nmkec":"KUALA INDRAGIRI","kddesa":"1403050008","nmdesa":"PERIGI RAJA","idsubsls":"1403050008201300","kdsubsls":"00"},"geometry":{"type":"Polygon","coordinates":[[[103.555531,-0.175773],[103.556951,-0.17621],[103.559136,-0.176101],[103.561648,-0.176538],[103.565143,-0.178613],[103.567109,-0.180579],[103.567873,-0.186477],[103.568747,-0.188443],[103.568419,-0.192047],[103.567,-0.194887],[103.560992,-0.196307],[103.559572,-0.197181],[103.557279,-0.197727],[103.55564,-0.198492],[103.55422,-0.19871],[103.549961,-0.20013],[103.539803,-0.202751],[103.532157,-0.205482],[103.528771,-0.205482],[103.523092,-0.203079],[103.519597,-0.20013],[103.516866,-0.19871],[103.513153,-0.197727],[103.510859,-0.197836],[103.502558,-0.199256],[103.496332,-0.201113],[103.490325,-0.201987],[103.485191,-0.202314],[103.478747,-0.201987],[103.478856,-0.200785],[103.491636,-0.192703],[103.497424,-0.189645],[103.498407,-0.188552],[103.50223,-0.186805],[103.505616,-0.185603],[103.51064,-0.182545],[103.522983,-0.179924],[103.530261,-0.178035],[103.531611,-0.177412],[103.537728,-0.177302],[103.539585,-0.176647],[103.542683,-0.175965],[103.553034,-0.175669],[103.555531,-0.175773]]]}}]}