{"type":"FeatureCollection","features":[{"type":"Feature","properties":{"kdkec":"1403060","nmkec":"TEMBILAHAN","kddesa":"1403060004","nmdesa":"TEMBILAHAN KOTA","idsubsls":"1403060004000400","kdsubsls":"00"},"geometry":{"type":"Polygon","coordinates":[[[103.159855,-0.323819],[103.160014,-0.323711],[103.161281,-0.325374],[103.160627,-0.325821],[103.160387,-0.32546],[103.160236,-0.325556],[103.160486,-0.325917],[103.159836,-0.326363],[103.158198,-0.323998],[103.158608,-0.323664],[103.158704,-0.323809],[103.159055,-0.323578],[103.159485,-0.324253],[103.159932,-0.32395],[103.159855,-0.323819]]]}}]}