{"type":"FeatureCollection","features":[{"type":"Feature","properties":{"kdkec":"1403060","nmkec":"TEMBILAHAN","kddesa":"1403060004","nmdesa":"TEMBILAHAN KOTA","idsubsls":"1403060004002600","kdsubsls":"00"},"geometry":{"type":"Polygon","coordinates":[[[103.154938,-0.326063],[103.154604,-0.326352],[103.154807,-0.326674],[103.154485,-0.326889],[103.154075,-0.326006],[103.15268,-0.3267],[103.152273,-0.325792],[103.152837,-0.325401],[103.152969,-0.325607],[103.153552,-0.325229],[103.153641,-0.325376],[103.154154,-0.324959],[103.154908,-0.325616],[103.154727,-0.32574],[103.154938,-0.326063]]]}}]}