{"type":"FeatureCollection","features":[{"type":"Feature","properties":{"kdkec":"1403060","nmkec":"TEMBILAHAN","kddesa":"1403060004","nmdesa":"TEMBILAHAN KOTA","idsubsls":"1403060004001100","kdsubsls":"00"},"geometry":{"type":"Polygon","coordinates":[[[103.159641,-0.326089],[103.159928,-0.326493],[103.158776,-0.327283],[103.158424,-0.326746],[103.157953,-0.327015],[103.15685,-0.32538],[103.156561,-0.325585],[103.156258,-0.325157],[103.156541,-0.324943],[103.156417,-0.324777],[103.158017,-0.323554],[103.159641,-0.326089]]]}}]}