{"type":"FeatureCollection","features":[{"type":"Feature","properties":{"kdkec":"1403060","nmkec":"TEMBILAHAN","kddesa":"1403060004","nmdesa":"TEMBILAHAN KOTA","idsubsls":"1403060004008200","kdsubsls":"00"},"geometry":{"type":"Polygon","coordinates":[[[103.149403,-0.320373],[103.150239,-0.321553],[103.149688,-0.321886],[103.149921,-0.322269],[103.150501,-0.321941],[103.150763,-0.322311],[103.151199,-0.322059],[103.1514,-0.322416],[103.149789,-0.323418],[103.14965,-0.323199],[103.149154,-0.323465],[103.148665,-0.322763],[103.149281,-0.322306],[103.148288,-0.32099],[103.14929,-0.320201],[103.149403,-0.320373]]]}}]}