{"type":"FeatureCollection","features":[{"type":"Feature","properties":{"kdkec":"1403060","nmkec":"TEMBILAHAN","kddesa":"1403060004","nmdesa":"TEMBILAHAN KOTA","idsubsls":"1403060004003100","kdsubsls":"00"},"geometry":{"type":"Polygon","coordinates":[[[103.153474,-0.324941],[103.153631,-0.324844],[103.153872,-0.325231],[103.153641,-0.325376],[103.153552,-0.325229],[103.152969,-0.325607],[103.152837,-0.325401],[103.152414,-0.325686],[103.152286,-0.325496],[103.15221,-0.325249],[103.153286,-0.324593],[103.153474,-0.324941]]]}}]}