{"type":"FeatureCollection","features":[{"type":"Feature","properties":{"kdkec":"1403060","nmkec":"TEMBILAHAN","kddesa":"1403060004","nmdesa":"TEMBILAHAN KOTA","idsubsls":"1403060004000100","kdsubsls":"00"},"geometry":{"type":"Polygon","coordinates":[[[103.161281,-0.325374],[103.161089,-0.325138],[103.161191,-0.325068],[103.161413,-0.325403],[103.16184,-0.325077],[103.162488,-0.326118],[103.160786,-0.327583],[103.15998,-0.328086],[103.159259,-0.326951],[103.160486,-0.325917],[103.160236,-0.325556],[103.160387,-0.32546],[103.160627,-0.325821],[103.161281,-0.325374]]]}}]}