{"type":"FeatureCollection","features":[{"type":"Feature","properties":{"kdkec":"1403060","nmkec":"TEMBILAHAN","kddesa":"1403060004","nmdesa":"TEMBILAHAN KOTA","idsubsls":"1403060004002900","kdsubsls":"00"},"geometry":{"type":"Polygon","coordinates":[[[103.154121,-0.327166],[103.153762,-0.326654],[103.153455,-0.326859],[103.15348,-0.327215],[103.153342,-0.327319],[103.153084,-0.327019],[103.152965,-0.327096],[103.152817,-0.326597],[103.154075,-0.326006],[103.154485,-0.326889],[103.154121,-0.327166]]]}}]}