{"type":"FeatureCollection","features":[{"type":"Feature","properties":{"kdkec":"1403060","nmkec":"TEMBILAHAN","kddesa":"1403060004","nmdesa":"TEMBILAHAN KOTA","idsubsls":"1403060004002800","kdsubsls":"00"},"geometry":{"type":"Polygon","coordinates":[[[103.152273,-0.325792],[103.15268,-0.3267],[103.152817,-0.326597],[103.152904,-0.326738],[103.152784,-0.326815],[103.152909,-0.32701],[103.152276,-0.327436],[103.152145,-0.327209],[103.152002,-0.327289],[103.150949,-0.325737],[103.15041,-0.326059],[103.150028,-0.325489],[103.151036,-0.324499],[103.15141,-0.325136],[103.151837,-0.324876],[103.152052,-0.325018],[103.152414,-0.325686],[103.152273,-0.325792]]]}}]}