{"type":"FeatureCollection","features":[{"type":"Feature","properties":{"kdkec":"1403060","nmkec":"TEMBILAHAN","kddesa":"1403060004","nmdesa":"TEMBILAHAN KOTA","idsubsls":"1403060004004800","kdsubsls":"00"},"geometry":{"type":"Polygon","coordinates":[[[103.156856,-0.320324],[103.156714,-0.320425],[103.157135,-0.321023],[103.156733,-0.321405],[103.156577,-0.321165],[103.156219,-0.321432],[103.155916,-0.321007],[103.156209,-0.320689],[103.156086,-0.3205],[103.156513,-0.320164],[103.156647,-0.320342],[103.156856,-0.320324]]]}}]}