{"type":"FeatureCollection","features":[{"type":"Feature","properties":{"kdkec":"1403020","nmkec":"RETEH","kddesa":"1403020015","nmdesa":"METRO","idsubsls":"1403020015000800","kdsubsls":"00"},"geometry":{"type":"Polygon","coordinates":[[[103.23885,-0.693227],[103.234189,-0.700761],[103.225988,-0.69585],[103.227436,-0.691509],[103.227456,-0.69096],[103.227727,-0.690194],[103.228011,-0.689996],[103.228161,-0.68957],[103.22805,-0.689098],[103.228831,-0.68778],[103.230953,-0.688267],[103.234292,-0.690152],[103.23885,-0.693227]]]}}]}