{"type":"FeatureCollection","features":[{"type":"Feature","properties":{"kdkec":"1403060","nmkec":"TEMBILAHAN","kddesa":"1403060005","nmdesa":"PEKAN ARBA","idsubsls":"1403060005003500","kdsubsls":"00"},"geometry":{"type":"Polygon","coordinates":[[[103.146083,-0.32022],[103.146518,-0.319805],[103.147314,-0.320829],[103.148052,-0.320166],[103.148512,-0.320796],[103.147589,-0.321595],[103.14752,-0.321504],[103.147279,-0.321691],[103.146914,-0.321456],[103.146872,-0.321122],[103.146538,-0.320984],[103.146083,-0.32022]]]}}]}