{"type":"FeatureCollection","features":[{"type":"Feature","properties":{"kdkec":"1403060","nmkec":"TEMBILAHAN","kddesa":"1403060005","nmdesa":"PEKAN ARBA","idsubsls":"1403060005002000","kdsubsls":"00"},"geometry":{"type":"Polygon","coordinates":[[[103.111766,-0.302749],[103.122054,-0.316981],[103.118093,-0.320638],[103.116952,-0.322136],[103.098459,-0.317362],[103.098506,-0.316601],[103.099937,-0.310355],[103.101861,-0.307145],[103.103714,-0.305036],[103.106613,-0.302591],[103.10872,-0.302283],[103.110159,-0.302364],[103.111766,-0.302749]]]}}]}