{"type":"FeatureCollection","features":[{"type":"Feature","properties":{"kdkec":"1403060","nmkec":"TEMBILAHAN","kddesa":"1403060005","nmdesa":"PEKAN ARBA","idsubsls":"1403060005000901","kdsubsls":"01"},"geometry":{"type":"Polygon","coordinates":[[[103.148842,-0.313139],[103.148006,-0.313961],[103.148664,-0.314824],[103.14841,-0.315071],[103.146521,-0.312542],[103.147398,-0.311768],[103.147594,-0.312006],[103.149132,-0.310895],[103.149498,-0.311507],[103.149692,-0.31138],[103.150823,-0.312974],[103.150491,-0.31315],[103.149715,-0.312249],[103.148842,-0.313139]]]}}]}