{"type":"FeatureCollection","features":[{"type":"Feature","properties":{"kdkec":"1403060","nmkec":"TEMBILAHAN","kddesa":"1403060005","nmdesa":"PEKAN ARBA","idsubsls":"1403060005000201","kdsubsls":"01"},"geometry":{"type":"Polygon","coordinates":[[[103.135213,-0.296175],[103.137442,-0.29911],[103.130476,-0.304168],[103.124464,-0.297313],[103.124612,-0.29687],[103.124557,-0.2961],[103.124951,-0.295033],[103.125795,-0.295693],[103.126049,-0.296723],[103.126661,-0.296613],[103.126922,-0.297108],[103.127485,-0.297362],[103.127945,-0.297802],[103.128564,-0.299011],[103.129691,-0.300296],[103.135213,-0.296175]]]}}]}