{"type":"FeatureCollection","features":[{"type":"Feature","properties":{"kdkec":"1403060","nmkec":"TEMBILAHAN","kddesa":"1403060005","nmdesa":"PEKAN ARBA","idsubsls":"1403060005001800","kdsubsls":"00"},"geometry":{"type":"Polygon","coordinates":[[[103.12187,-0.335722],[103.117487,-0.331479],[103.104252,-0.324032],[103.100252,-0.322882],[103.098208,-0.319697],[103.098279,-0.318059],[103.098459,-0.317362],[103.116952,-0.322136],[103.124184,-0.330879],[103.125667,-0.332868],[103.12187,-0.335722]]]}}]}