{"type":"FeatureCollection","features":[{"type":"Feature","properties":{"kdkec":"1403090","nmkec":"GAUNG ANAK SERKA","kddesa":"1403090004","nmdesa":"SUNGAI ILIRAN","idsubsls":"1403090004001000","kdsubsls":"00"},"geometry":{"type":"Polygon","coordinates":[[[103.296525,-0.190272],[103.295643,-0.189733],[103.296651,-0.167403],[103.298636,-0.16742],[103.298595,-0.165726],[103.297931,-0.165715],[103.298352,-0.155354],[103.299549,-0.156406],[103.303069,-0.160527],[103.304491,-0.164381],[103.305082,-0.166554],[103.305998,-0.168101],[103.304382,-0.189751],[103.296525,-0.190272]]]}}]}