{"type":"FeatureCollection","features":[{"type":"Feature","properties":{"kdkec":"1403090","nmkec":"GAUNG ANAK SERKA","kddesa":"1403090004","nmdesa":"SUNGAI ILIRAN","idsubsls":"1403090004000300","kdsubsls":"00"},"geometry":{"type":"Polygon","coordinates":[[[103.280411,-0.147709],[103.280368,-0.148387],[103.280106,-0.14911],[103.279312,-0.150294],[103.27921,-0.15158],[103.277604,-0.154677],[103.270956,-0.180797],[103.266796,-0.18082],[103.268691,-0.166826],[103.275682,-0.150187],[103.278567,-0.146996],[103.280411,-0.147709]]]}}]}