{"type":"FeatureCollection","features":[{"type":"Feature","properties":{"kdkec":"1403090","nmkec":"GAUNG ANAK SERKA","kddesa":"1403090004","nmdesa":"SUNGAI ILIRAN","idsubsls":"1403090004000200","kdsubsls":"00"},"geometry":{"type":"Polygon","coordinates":[[[103.273642,-0.146614],[103.269485,-0.157428],[103.265626,-0.166875],[103.264855,-0.18083],[103.25775,-0.182239],[103.259253,-0.164413],[103.268284,-0.145112],[103.27599,-0.137728],[103.276758,-0.143093],[103.273861,-0.145082],[103.273642,-0.146614]]]}}]}