{"type":"FeatureCollection","features":[{"type":"Feature","properties":{"kdkec":"1403060","nmkec":"TEMBILAHAN","kddesa":"1403060006","nmdesa":"SUNGAI BERINGIN","idsubsls":"1403060006001100","kdsubsls":"00"},"geometry":{"type":"Polygon","coordinates":[[[103.158424,-0.309865],[103.159055,-0.310873],[103.158151,-0.311329],[103.158237,-0.311492],[103.157931,-0.311659],[103.157799,-0.311417],[103.157629,-0.311491],[103.157768,-0.311781],[103.157246,-0.312053],[103.157082,-0.311735],[103.156522,-0.311995],[103.156375,-0.311738],[103.155755,-0.312203],[103.155535,-0.312608],[103.154571,-0.313289],[103.154295,-0.312807],[103.155957,-0.311354],[103.155678,-0.310827],[103.158238,-0.309569],[103.158424,-0.309865]]]}}]}