{"type":"FeatureCollection","features":[{"type":"Feature","properties":{"kdkec":"1403060","nmkec":"TEMBILAHAN","kddesa":"1403060006","nmdesa":"SUNGAI BERINGIN","idsubsls":"1403060006001702","kdsubsls":"02"},"geometry":{"type":"Polygon","coordinates":[[[103.168543,-0.293776],[103.167029,-0.296613],[103.165789,-0.299008],[103.165276,-0.298489],[103.166233,-0.297351],[103.167215,-0.29548],[103.165889,-0.294628],[103.166983,-0.292845],[103.167631,-0.29324],[103.167519,-0.293439],[103.167758,-0.293576],[103.167876,-0.293389],[103.168543,-0.293776]]]}}]}