{"type":"FeatureCollection","features":[{"type":"Feature","properties":{"kdkec":"1403060","nmkec":"TEMBILAHAN","kddesa":"1403060006","nmdesa":"SUNGAI BERINGIN","idsubsls":"1403060006002500","kdsubsls":"00"},"geometry":{"type":"Polygon","coordinates":[[[103.197562,-0.279968],[103.206748,-0.294693],[103.204693,-0.296371],[103.196677,-0.302046],[103.19147,-0.294057],[103.185278,-0.29224],[103.1842,-0.282672],[103.184945,-0.279602],[103.187337,-0.273106],[103.192597,-0.277275],[103.195434,-0.278935],[103.197562,-0.279968]]]}}]}