{"type":"FeatureCollection","features":[{"type":"Feature","properties":{"kdkec":"1403060","nmkec":"TEMBILAHAN","kddesa":"1403060006","nmdesa":"SUNGAI BERINGIN","idsubsls":"1403060006002700","kdsubsls":"00"},"geometry":{"type":"Polygon","coordinates":[[[103.147677,-0.275566],[103.153881,-0.287569],[103.158697,-0.295756],[103.161813,-0.301613],[103.163293,-0.303567],[103.16209,-0.305886],[103.15941,-0.3032],[103.156303,-0.298242],[103.144797,-0.275679],[103.147209,-0.274722],[103.147677,-0.275566]]]}}]}