{"type":"FeatureCollection","features":[{"type":"Feature","properties":{"kdkec":"1403011","nmkec":"KEMUNING","kddesa":"1403011001","nmdesa":"SELENSEN","idsubsls":"1403011001001200","kdsubsls":"00"},"geometry":{"type":"Polygon","coordinates":[[[102.761853,-0.966516],[102.761832,-0.965964],[102.760976,-0.964983],[102.761011,-0.964708],[102.761227,-0.964544],[102.762847,-0.964751],[102.763232,-0.96391],[102.76376,-0.964147],[102.763146,-0.966009],[102.763108,-0.966812],[102.762812,-0.966912],[102.761628,-0.966751],[102.761853,-0.966516]]]}}]}