{"type":"FeatureCollection","features":[{"type":"Feature","properties":{"kdkec":"1403011","nmkec":"KEMUNING","kddesa":"1403011001","nmdesa":"SELENSEN","idsubsls":"1403011001002300","kdsubsls":"00"},"geometry":{"type":"Polygon","coordinates":[[[102.77348,-0.978263],[102.773096,-0.97998],[102.773047,-0.981934],[102.774438,-0.988342],[102.774206,-0.991373],[102.773879,-0.993226],[102.77263,-0.994608],[102.771006,-0.995068],[102.76952,-0.995083],[102.767115,-0.996645],[102.764848,-0.997427],[102.763787,-0.999039],[102.763228,-0.999382],[102.761706,-0.999278],[102.759456,-1.000617],[102.758392,-1.000877],[102.757848,-1.001337],[102.756821,-1.00293],[102.755887,-1.003596],[102.754788,-1.003416],[102.755282,-1.002587],[102.755521,-1.001487],[102.755299,-1.000468],[102.755268,-0.999011],[102.756036,-0.99355],[102.757552,-0.990683],[102.758481,-0.989548],[102.758837,-0.988403],[102.76116,-0.984776],[102.761141,-0.984458],[102.760773,-0.98387],[102.760737,-0.982997],[102.761558,-0.981605],[102.761415,-0.980728],[102.761657,-0.979521],[102.76217,-0.9787],[102.762613,-0.977551],[102.762785,-0.97627],[102.763452,-0.97413],[102.762367,-0.971261],[102.763275,-0.970251],[102.765965,-0.971704],[102.766949,-0.971507],[102.768114,-0.97088],[102.7711,-0.977032],[102.77348,-0.978263]]]}}]}