{"type":"FeatureCollection","features":[{"type":"Feature","properties":{"kdkec":"1403061","nmkec":"TEMBILAHAN HULU","kddesa":"1403061006","nmdesa":"TEMBILAHAN BARAT","idsubsls":"1403061006001000","kdsubsls":"00"},"geometry":{"type":"Polygon","coordinates":[[[103.124767,-0.341233],[103.123743,-0.342046],[103.1263,-0.34519],[103.123107,-0.347571],[103.12195,-0.345101],[103.121159,-0.344062],[103.11419,-0.336656],[103.117487,-0.331479],[103.123977,-0.337762],[103.125779,-0.340469],[103.124767,-0.341233]]]}}]}