{"type":"FeatureCollection","features":[{"type":"Feature","properties":{"kdkec":"1403061","nmkec":"TEMBILAHAN HULU","kddesa":"1403061006","nmdesa":"TEMBILAHAN BARAT","idsubsls":"1403061006001500","kdsubsls":"00"},"geometry":{"type":"Polygon","coordinates":[[[103.132836,-0.337221],[103.132764,-0.337081],[103.133078,-0.336909],[103.133413,-0.337321],[103.133678,-0.338467],[103.134446,-0.339319],[103.134845,-0.340234],[103.132914,-0.341138],[103.131852,-0.338913],[103.130993,-0.339323],[103.130545,-0.338532],[103.131411,-0.338057],[103.131293,-0.337814],[103.132533,-0.337026],[103.13266,-0.337314],[103.132836,-0.337221]]]}}]}