{"type":"FeatureCollection","features":[{"type":"Feature","properties":{"kdkec":"1403011","nmkec":"KEMUNING","kddesa":"1403011004","nmdesa":"AIR BALUI","idsubsls":"1403011004000900","kdsubsls":"00"},"geometry":{"type":"Polygon","coordinates":[[[102.772077,-0.917043],[102.773113,-0.916403],[102.775664,-0.915596],[102.775553,-0.916013],[102.77825,-0.920898],[102.77792,-0.92096],[102.777466,-0.920616],[102.777194,-0.920716],[102.776911,-0.921196],[102.777045,-0.922044],[102.776791,-0.922222],[102.776231,-0.921884],[102.775286,-0.92044],[102.775078,-0.92032],[102.774454,-0.920392],[102.774446,-0.920552],[102.775206,-0.92122],[102.775677,-0.921872],[102.775465,-0.922212],[102.774771,-0.922142],[102.774674,-0.921576],[102.77439,-0.921288],[102.773838,-0.92114],[102.772507,-0.918953],[102.771505,-0.917944],[102.772077,-0.917043]]]}}]}