{"type":"FeatureCollection","features":[{"type":"Feature","properties":{"kdkec":"1403011","nmkec":"KEMUNING","kddesa":"1403011004","nmdesa":"AIR BALUI","idsubsls":"1403011004001700","kdsubsls":"00"},"geometry":{"type":"Polygon","coordinates":[[[102.778192,-0.908608],[102.776752,-0.909435],[102.780786,-0.914451],[102.780716,-0.91482],[102.777855,-0.915124],[102.775666,-0.915589],[102.773113,-0.916403],[102.772077,-0.917043],[102.771609,-0.91647],[102.771915,-0.916261],[102.771176,-0.915159],[102.770577,-0.912066],[102.773048,-0.909403],[102.766326,-0.899388],[102.768977,-0.897318],[102.778192,-0.908608]]]}}]}