{"type":"FeatureCollection","features":[{"type":"Feature","properties":{"kdkec":"1403011","nmkec":"KEMUNING","kddesa":"1403011004","nmdesa":"AIR BALUI","idsubsls":"1403011004001300","kdsubsls":"00"},"geometry":{"type":"Polygon","coordinates":[[[102.761194,-0.886843],[102.761925,-0.89379],[102.762645,-0.893693],[102.762722,-0.894935],[102.757485,-0.895909],[102.75578,-0.896633],[102.753148,-0.897079],[102.751378,-0.894986],[102.748033,-0.890056],[102.749748,-0.888809],[102.7559,-0.885187],[102.761194,-0.886843]]]}}]}