{"type":"FeatureCollection","features":[{"type":"Feature","properties":{"kdkec":"1403011","nmkec":"KEMUNING","kddesa":"1403011004","nmdesa":"AIR BALUI","idsubsls":"1403011004000300","kdsubsls":"00"},"geometry":{"type":"Polygon","coordinates":[[[102.768229,-0.927456],[102.766684,-0.927323],[102.76373,-0.925412],[102.764981,-0.924009],[102.767187,-0.920927],[102.77012,-0.922853],[102.769279,-0.923691],[102.769635,-0.924371],[102.768987,-0.924767],[102.768851,-0.925027],[102.769527,-0.925631],[102.769639,-0.926003],[102.769559,-0.926123],[102.768931,-0.925887],[102.768443,-0.925939],[102.768343,-0.926151],[102.768827,-0.926767],[102.768823,-0.926967],[102.768395,-0.927515],[102.768229,-0.927456]]]}}]}