{"type":"FeatureCollection","features":[{"type":"Feature","properties":{"kdkec":"1403010","nmkec":"KERITANG","kddesa":"1403010014","nmdesa":"KAYU RAJA","idsubsls":"1403010014000700","kdsubsls":"00"},"geometry":{"type":"Polygon","coordinates":[[[102.943006,-0.785071],[102.944069,-0.785541],[102.946513,-0.787082],[102.947941,-0.788248],[102.948627,-0.788004],[102.949206,-0.78621],[102.949242,-0.785638],[102.95127,-0.787148],[102.956953,-0.792352],[102.963705,-0.800462],[102.96598,-0.803593],[102.973424,-0.811474],[102.969547,-0.815668],[102.966146,-0.811364],[102.961271,-0.804267],[102.959318,-0.800863],[102.953678,-0.794892],[102.950695,-0.796007],[102.947912,-0.79773],[102.944857,-0.792689],[102.939936,-0.783565],[102.942502,-0.784665],[102.943006,-0.785071]]]}}]}