{"type":"FeatureCollection","features":[{"type":"Feature","properties":{"kdkec":"1403010","nmkec":"KERITANG","kddesa":"1403010014","nmdesa":"KAYU RAJA","idsubsls":"1403010014000300","kdsubsls":"00"},"geometry":{"type":"Polygon","coordinates":[[[102.982729,-0.792785],[102.980074,-0.796671],[102.957941,-0.775498],[102.955509,-0.773502],[102.955766,-0.773066],[102.956167,-0.772826],[102.957178,-0.772666],[102.957847,-0.772249],[102.957847,-0.771811],[102.9564,-0.770254],[102.952793,-0.76732],[102.952614,-0.766834],[102.952845,-0.766462],[102.955061,-0.765681],[102.982729,-0.792785]]]}}]}