{"type":"FeatureCollection","features":[{"type":"Feature","properties":{"kdkec":"1403100","nmkec":"GAUNG","kddesa":"1403100004","nmdesa":"BELANTARAYA","idsubsls":"1403100004100400","kdsubsls":"00"},"geometry":{"type":"Polygon","coordinates":[[[103.203279,-0.08709],[103.202327,-0.086724],[103.202069,-0.087081],[103.200828,-0.086564],[103.201043,-0.084323],[103.203328,-0.036546],[103.194359,-0.036427],[103.194168,-0.019655],[103.173899,-0.020264],[103.177562,-0.036585],[103.168699,-0.034907],[103.156956,-0.036957],[103.118468,0.048121],[103.1163,0.055564],[103.128312,0.055448],[103.133067,0.048122],[103.15411,0.024296],[103.180876,-0.002865],[103.205028,-0.019336],[103.217803,-0.011993],[103.241854,-0.03299],[103.236909,-0.068402],[103.233303,-0.075866],[103.235132,-0.079225],[103.232528,-0.095597],[103.229382,-0.104877],[103.225263,-0.110153],[103.218435,-0.099753],[103.210646,-0.089889],[103.208463,-0.088086],[103.208601,-0.087725],[103.207308,-0.086953],[103.205384,-0.087937],[103.20498,-0.088405],[103.203962,-0.087769],[103.204065,-0.087581],[103.203279,-0.08709]]]}}]}