{"type":"FeatureCollection","features":[{"type":"Feature","properties":{"kdkec":"1403100","nmkec":"GAUNG","kddesa":"1403100004","nmdesa":"BELANTARAYA","idsubsls":"1403100004100100","kdsubsls":"00"},"geometry":{"type":"Polygon","coordinates":[[[103.183442,-0.071728],[103.185019,-0.074021],[103.185743,-0.074655],[103.186499,-0.075785],[103.187105,-0.077637],[103.185669,-0.080363],[103.185604,-0.081054],[103.185759,-0.081533],[103.1871,-0.082476],[103.188287,-0.082395],[103.189442,-0.081695],[103.190224,-0.080804],[103.190393,-0.080275],[103.190838,-0.0798],[103.191214,-0.079607],[103.19257,-0.079849],[103.193229,-0.080616],[103.193511,-0.081106],[103.193496,-0.081636],[103.193738,-0.082081],[103.194308,-0.082517],[103.194293,-0.082977],[103.19473,-0.08356],[103.194595,-0.08412],[103.194768,-0.084546],[103.194694,-0.084888],[103.194953,-0.086404],[103.191291,-0.086578],[103.188203,-0.087607],[103.185273,-0.09022],[103.178799,-0.098208],[103.177012,-0.099091],[103.173209,-0.099898],[103.171305,-0.078779],[103.171688,-0.075525],[103.171304,-0.069381],[103.169817,-0.06591],[103.171271,-0.065517],[103.172344,-0.065443],[103.173547,-0.065614],[103.176962,-0.066817],[103.180409,-0.068476],[103.181612,-0.069354],[103.182905,-0.07072],[103.183442,-0.071728]]]}}]}