{"type":"FeatureCollection","features":[{"type":"Feature","properties":{"kdkec":"1403100","nmkec":"GAUNG","kddesa":"1403100004","nmdesa":"BELANTARAYA","idsubsls":"1403100004400300","kdsubsls":"00"},"geometry":{"type":"Polygon","coordinates":[[[103.219678,-0.117549],[103.210688,-0.132106],[103.205381,-0.131356],[103.202376,-0.129852],[103.202346,-0.128973],[103.201416,-0.125627],[103.199931,-0.124281],[103.198352,-0.121392],[103.215393,-0.109177],[103.218537,-0.116234],[103.219678,-0.117549]]]}}]}