{"type":"FeatureCollection","features":[{"type":"Feature","properties":{"kdkec":"1403030","nmkec":"ENOK","kddesa":"1403030014","nmdesa":"SIMPANG TIGA DARATAN","idsubsls":"1403030014001000","kdsubsls":"00"},"geometry":{"type":"Polygon","coordinates":[[[103.164294,-0.466209],[103.167605,-0.466316],[103.167904,-0.465995],[103.169741,-0.465056],[103.169869,-0.464543],[103.170104,-0.464394],[103.170595,-0.464484],[103.17075,-0.464372],[103.171017,-0.463977],[103.17099,-0.463053],[103.171177,-0.463],[103.172966,-0.462952],[103.174573,-0.463459],[103.176027,-0.464178],[103.175722,-0.469063],[103.171521,-0.46895],[103.171458,-0.469976],[103.167837,-0.471022],[103.164845,-0.47235],[103.162109,-0.471814],[103.157874,-0.471901],[103.155789,-0.466452],[103.152473,-0.466521],[103.152209,-0.464877],[103.150604,-0.463046],[103.15038,-0.457917],[103.157951,-0.461916],[103.16045,-0.462535],[103.16186,-0.463475],[103.164294,-0.466209]]]}}]}