{"type":"FeatureCollection","features":[{"type":"Feature","properties":{"kdkec":"1403030","nmkec":"ENOK","kddesa":"1403030014","nmdesa":"SIMPANG TIGA DARATAN","idsubsls":"1403030014000500","kdsubsls":"00"},"geometry":{"type":"Polygon","coordinates":[[[103.176143,-0.462333],[103.176027,-0.464178],[103.174573,-0.463459],[103.173043,-0.462976],[103.172795,-0.461999],[103.172159,-0.460787],[103.172213,-0.460482],[103.171946,-0.460109],[103.171892,-0.459457],[103.171588,-0.458763],[103.16667,-0.449563],[103.163451,-0.444913],[103.16194,-0.443402],[103.159808,-0.440872],[103.160484,-0.440426],[103.16036,-0.440224],[103.153089,-0.431624],[103.15638,-0.429793],[103.163782,-0.439389],[103.172934,-0.452001],[103.175284,-0.457586],[103.176143,-0.462333]]]}}]}