{"type":"FeatureCollection","features":[{"type":"Feature","properties":{"kdkec":"1403030","nmkec":"ENOK","kddesa":"1403030014","nmdesa":"SIMPANG TIGA DARATAN","idsubsls":"1403030014000300","kdsubsls":"00"},"geometry":{"type":"Polygon","coordinates":[[[103.166719,-0.436488],[103.175737,-0.450629],[103.178917,-0.464869],[103.176027,-0.464178],[103.176143,-0.462333],[103.175685,-0.457499],[103.17545,-0.456442],[103.174724,-0.45452],[103.173432,-0.451871],[103.165211,-0.437426],[103.166719,-0.436488]]]}}]}