{"type":"FeatureCollection","features":[{"type":"Feature","properties":{"kdkec":"1403030","nmkec":"ENOK","kddesa":"1403030014","nmdesa":"SIMPANG TIGA DARATAN","idsubsls":"1403030014001100","kdsubsls":"00"},"geometry":{"type":"Polygon","coordinates":[[[103.152209,-0.464877],[103.152473,-0.466521],[103.155789,-0.466452],[103.157874,-0.471901],[103.153236,-0.471921],[103.14793,-0.471627],[103.136004,-0.470123],[103.131431,-0.465848],[103.127223,-0.464107],[103.123596,-0.463817],[103.116776,-0.458303],[103.123435,-0.443852],[103.137765,-0.438417],[103.15038,-0.457917],[103.150604,-0.463046],[103.152209,-0.464877]]]}}]}