{"type":"FeatureCollection","features":[{"type":"Feature","properties":{"kdkec":"1403030","nmkec":"ENOK","kddesa":"1403030014","nmdesa":"SIMPANG TIGA DARATAN","idsubsls":"1403030014000700","kdsubsls":"00"},"geometry":{"type":"Polygon","coordinates":[[[103.171819,-0.46239],[103.171791,-0.463008],[103.17099,-0.463053],[103.171017,-0.463977],[103.17075,-0.464372],[103.170595,-0.464484],[103.170104,-0.464394],[103.169869,-0.464543],[103.169618,-0.465132],[103.169587,-0.462303],[103.165583,-0.454262],[103.157541,-0.445463],[103.156687,-0.444964],[103.146366,-0.435155],[103.148459,-0.434361],[103.149591,-0.433621],[103.157262,-0.442733],[103.158629,-0.443605],[103.167158,-0.453059],[103.171732,-0.461262],[103.171819,-0.46239]]]}}]}