{"type":"FeatureCollection","features":[{"type":"Feature","properties":{"kdkec":"1403110","nmkec":"MANDAH","kddesa":"1403110006","nmdesa":"KHAIRIAH MANDAH","idsubsls":"1403110006200600","kdsubsls":"00"},"geometry":{"type":"Polygon","coordinates":[[[103.555887,0.011695],[103.557471,0.007734],[103.559253,0.005555],[103.566185,0.001991],[103.568957,-0.001376],[103.574502,-0.012466],[103.579057,-0.018011],[103.58399,-0.0245],[103.583006,-0.026967],[103.579403,-0.030135],[103.577046,-0.032451],[103.574356,-0.034054],[103.57185,-0.034104],[103.571254,-0.033254],[103.57034,-0.031426],[103.56906,-0.026125],[103.562846,-0.012052],[103.561018,-0.009859],[103.559191,-0.008579],[103.552062,-0.004193],[103.548309,0.000931],[103.540238,0.004967],[103.53548,0.010124],[103.526198,-0.003132],[103.522604,0.002101],[103.521581,0.002164],[103.519583,0.0038],[103.518339,0.00421],[103.516574,0.006914],[103.516116,0.007197],[103.517143,0.009292],[103.518075,0.010261],[103.51319,0.014544],[103.521626,0.029122],[103.52222,0.030509],[103.522814,0.032687],[103.524992,0.034073],[103.528359,0.03546],[103.533508,0.031301],[103.538459,0.026548],[103.541232,0.024369],[103.546183,0.021399],[103.549351,0.019022],[103.554104,0.014467],[103.555887,0.011695]]]}}]}