{"type":"FeatureCollection","features":[{"type":"Feature","properties":{"kdkec":"1403120","nmkec":"KATEMAN","kddesa":"1403120010","nmdesa":"AMAL BAKTI","idsubsls":"1403120010001100","kdsubsls":"00"},"geometry":{"type":"Polygon","coordinates":[[[103.638507,0.2555],[103.64058,0.253759],[103.645325,0.250433],[103.648812,0.248203],[103.623131,0.217524],[103.616038,0.215551],[103.615731,0.224679],[103.625703,0.233226],[103.626929,0.24071],[103.629401,0.241984],[103.633904,0.241125],[103.637064,0.25157],[103.636536,0.255723],[103.636652,0.256551],[103.638507,0.2555]]]}}]}