{"type":"FeatureCollection","features":[{"type":"Feature","properties":{"kdkec":"1403120","nmkec":"KATEMAN","kddesa":"1403120010","nmdesa":"AMAL BAKTI","idsubsls":"1403120010000600","kdsubsls":"00"},"geometry":{"type":"Polygon","coordinates":[[[103.660882,0.262813],[103.66847,0.266877],[103.674658,0.259342],[103.668028,0.253965],[103.652828,0.244866],[103.648812,0.248203],[103.645325,0.250433],[103.64058,0.253759],[103.638507,0.2555],[103.639017,0.256134],[103.639274,0.257628],[103.639761,0.258439],[103.639991,0.259338],[103.639771,0.26062],[103.645822,0.260169],[103.645793,0.259113],[103.647782,0.258981],[103.65243,0.259058],[103.653271,0.257793],[103.661112,0.262406],[103.660882,0.262813]]]}}]}