{"type":"FeatureCollection","features":[{"type":"Feature","properties":{"kdkec":"1403100","nmkec":"GAUNG","kddesa":"1403100001","nmdesa":"TELUK KABUNG","idsubsls":"1403100001000600","kdsubsls":"00"},"geometry":{"type":"Polygon","coordinates":[[[103.080303,-0.125704],[103.079108,-0.127456],[103.07797,-0.128486],[103.075875,-0.128785],[103.068732,-0.126309],[103.069381,-0.106484],[103.073705,-0.10623],[103.07548,-0.104899],[103.075612,-0.106915],[103.076681,-0.110043],[103.078621,-0.114755],[103.079759,-0.117106],[103.080888,-0.118319],[103.081795,-0.118665],[103.081367,-0.122962],[103.080971,-0.124467],[103.080303,-0.125704]]]}}]}