{"type":"FeatureCollection","features":[{"type":"Feature","properties":{"kdkec":"1403100","nmkec":"GAUNG","kddesa":"1403100001","nmdesa":"TELUK KABUNG","idsubsls":"1403100001200100","kdsubsls":"00"},"geometry":{"type":"Polygon","coordinates":[[[102.986853,-0.132295],[102.991668,-0.183025],[102.877614,-0.218582],[102.80409,-0.244571],[102.782287,-0.244716],[102.716854,-0.244722],[102.716847,-0.115717],[102.821795,-0.145783],[102.829475,-0.146551],[102.835619,-0.145399],[102.851523,-0.13998],[102.874529,-0.133563],[102.890532,-0.127351],[102.938149,-0.114678],[102.96119,-0.110454],[102.988744,-0.110852],[102.988969,-0.132821],[102.986853,-0.132295]],[[102.97833,-0.17181],[102.978775,-0.176064],[102.976983,-0.175886],[102.976949,-0.18034],[102.981708,-0.180416],[102.981715,-0.176331],[102.983094,-0.176385],[102.983252,-0.172033],[102.97833,-0.17181]],[[102.904418,-0.126287],[102.904364,-0.127173],[102.901969,-0.127095],[102.901273,-0.130984],[102.903902,-0.131452],[102.904628,-0.127226],[102.908673,-0.127028],[102.908751,-0.126059],[102.904418,-0.126287]]]}}]}