{"type":"FeatureCollection","features":[{"type":"Feature","properties":{"kdkec":"1403110","nmkec":"MANDAH","kddesa":"1403110001","nmdesa":"PULAU CAWAN","idsubsls":"1403110001000500","kdsubsls":"00"},"geometry":{"type":"Polygon","coordinates":[[[103.558682,-0.091195],[103.554642,-0.092619],[103.547093,-0.078552],[103.548251,-0.078043],[103.554592,-0.076999],[103.559488,-0.077277],[103.565318,-0.07691],[103.570417,-0.075892],[103.578132,-0.073176],[103.580566,-0.073987],[103.581874,-0.07897],[103.583849,-0.081983],[103.558682,-0.091195]]]}}]}