{"type":"FeatureCollection","features":[{"type":"Feature","properties":{"kdkec":"1403110","nmkec":"MANDAH","kddesa":"1403110001","nmdesa":"PULAU CAWAN","idsubsls":"1403110001000100","kdsubsls":"00"},"geometry":{"type":"Polygon","coordinates":[[[103.554642,-0.092619],[103.56523,-0.112348],[103.560149,-0.114956],[103.559122,-0.11534],[103.55398,-0.10803],[103.550139,-0.101704],[103.547939,-0.097243],[103.546383,-0.09587],[103.545418,-0.095757],[103.544512,-0.095254],[103.540243,-0.083142],[103.542844,-0.080417],[103.547093,-0.078552],[103.554642,-0.092619]]]}}]}