{"type":"FeatureCollection","features":[{"type":"Feature","properties":{"kdkec":"1403080","nmkec":"BATANG TUAKA","kddesa":"1403080009","nmdesa":"SIALANG JAYA","idsubsls":"1403080009000800","kdsubsls":"00"},"geometry":{"type":"Polygon","coordinates":[[[103.324539,-0.233041],[103.325042,-0.233969],[103.325888,-0.234949],[103.325821,-0.235406],[103.326367,-0.235818],[103.326564,-0.236194],[103.325935,-0.236718],[103.317236,-0.240349],[103.315477,-0.236969],[103.316256,-0.236518],[103.324539,-0.233041]]]}}]}