{"type":"FeatureCollection","features":[{"type":"Feature","properties":{"kdkec":"1403080","nmkec":"BATANG TUAKA","kddesa":"1403080009","nmdesa":"SIALANG JAYA","idsubsls":"1403080009000700","kdsubsls":"00"},"geometry":{"type":"Polygon","coordinates":[[[103.325935,-0.236718],[103.326564,-0.236194],[103.327093,-0.236342],[103.327415,-0.236589],[103.327662,-0.237375],[103.328568,-0.238071],[103.328673,-0.238453],[103.329019,-0.23872],[103.328935,-0.239224],[103.329354,-0.240115],[103.329444,-0.240714],[103.328364,-0.24486],[103.321475,-0.245763],[103.319482,-0.245695],[103.317236,-0.240349],[103.325935,-0.236718]]]}}]}