{"type":"FeatureCollection","features":[{"type":"Feature","properties":{"kdkec":"1403070","nmkec":"TEMPULING","kddesa":"1403070013","nmdesa":"TELUK KIAMBANG","idsubsls":"1403070013002600","kdsubsls":"00"},"geometry":{"type":"Polygon","coordinates":[[[102.841791,-0.490899],[102.841102,-0.493854],[102.835276,-0.493704],[102.827848,-0.493809],[102.826775,-0.48253],[102.819505,-0.447904],[102.782287,-0.244716],[102.80409,-0.244571],[102.84211,-0.426743],[102.842141,-0.435424],[102.841785,-0.459309],[102.841868,-0.463801],[102.840979,-0.484519],[102.841776,-0.486495],[102.841791,-0.490899]]]}}]}