{"type":"FeatureCollection","features":[{"type":"Feature","properties":{"kdkec":"1403070","nmkec":"TEMPULING","kddesa":"1403070013","nmdesa":"TELUK KIAMBANG","idsubsls":"1403070013002100","kdsubsls":"00"},"geometry":{"type":"Polygon","coordinates":[[[102.847412,-0.5066],[102.849581,-0.521335],[102.848285,-0.525251],[102.84716,-0.527136],[102.845891,-0.526376],[102.844207,-0.529295],[102.841852,-0.528047],[102.843539,-0.524588],[102.843793,-0.518112],[102.843941,-0.507256],[102.84388,-0.493852],[102.846105,-0.493855],[102.847412,-0.5066]]]}}]}