{"type":"FeatureCollection","features":[{"type":"Feature","properties":{"kdkec":"1403123","nmkec":"PULAU BURUNG","kddesa":"1403123003","nmdesa":"RINGIN JAYA","idsubsls":"1403123003100100","kdsubsls":"00"},"geometry":{"type":"Polygon","coordinates":[[[103.348904,0.321927],[103.341975,0.316483],[103.330585,0.29969],[103.315076,0.313095],[103.325309,0.324685],[103.321941,0.327808],[103.330029,0.336969],[103.333357,0.333906],[103.352827,0.356136],[103.381124,0.331471],[103.348904,0.321927]],[[103.331055,0.324127],[103.335723,0.329467],[103.332197,0.332575],[103.326171,0.325646],[103.329673,0.322547],[103.331055,0.324127]]]}}]}