{"type":"FeatureCollection","features":[{"type":"Feature","properties":{"kdkec":"1403011","nmkec":"KEMUNING","kddesa":"1403011005","nmdesa":"TUK JIMUN","idsubsls":"1403011005000500","kdsubsls":"00"},"geometry":{"type":"Polygon","coordinates":[[[102.771865,-0.934267],[102.771817,-0.931947],[102.771879,-0.931291],[102.772201,-0.930672],[102.778391,-0.935112],[102.772747,-0.941016],[102.769946,-0.940531],[102.769602,-0.939065],[102.769734,-0.938035],[102.770964,-0.936907],[102.771728,-0.935072],[102.771865,-0.934267]]]}}]}