{"type":"FeatureCollection","features":[{"type":"Feature","properties":{"kdkec":"1403121","nmkec":"PELANGIRAN","kddesa":"1403121001","nmdesa":"TANJUNG SIMPANG","idsubsls":"1403121001004100","kdsubsls":"00"},"geometry":{"type":"Polygon","coordinates":[[[103.110662,0.068225],[103.110568,0.0671],[103.110868,0.066031],[103.111749,0.064493],[103.113306,0.062337],[103.114599,0.061399],[103.116118,0.060874],[103.118631,0.060405],[103.120806,0.059037],[103.122325,0.058943],[103.124087,0.059074],[103.126075,0.057837],[103.126825,0.057873],[103.126707,0.055464],[103.059644,0.056113],[103.093461,0.083893],[103.098042,0.078388],[103.102355,0.073512],[103.10537,0.077685],[103.097716,0.087389],[103.109425,0.096925],[103.115966,0.089561],[103.115485,0.088541],[103.113798,0.086854],[103.111848,0.083685],[103.111229,0.082616],[103.110113,0.079963],[103.110066,0.078894],[103.110254,0.07715],[103.110685,0.0767],[103.11196,0.076044],[103.112654,0.075369],[103.112804,0.074375],[103.112673,0.07355],[103.111431,0.070831],[103.110662,0.068225]]]}}]}