{"type":"FeatureCollection","features":[{"type":"Feature","properties":{"kdkec":"1403121","nmkec":"PELANGIRAN","kddesa":"1403121001","nmdesa":"TANJUNG SIMPANG","idsubsls":"1403121001003500","kdsubsls":"00"},"geometry":{"type":"Polygon","coordinates":[[[103.165942,0.209128],[103.168197,0.208959],[103.167909,0.198244],[103.140195,0.176775],[103.132695,0.1863],[103.1209,0.200513],[103.136586,0.199441],[103.146878,0.207375],[103.152908,0.207419],[103.158483,0.208564],[103.163321,0.209081],[103.165942,0.209128]]]}}]}