{"type":"FeatureCollection","features":[{"type":"Feature","properties":{"kdkec":"1403121","nmkec":"PELANGIRAN","kddesa":"1403121001","nmdesa":"TANJUNG SIMPANG","idsubsls":"1403121001001700","kdsubsls":"00"},"geometry":{"type":"Polygon","coordinates":[[[103.231793,0.171693],[103.230708,0.171524],[103.229762,0.17112],[103.225802,0.168517],[103.223882,0.166875],[103.222456,0.165223],[103.220634,0.164062],[103.218408,0.167087],[103.215206,0.171895],[103.20989,0.178926],[103.220107,0.187128],[103.225284,0.18027],[103.230056,0.17619],[103.231519,0.175478],[103.231793,0.171693]]]}}]}