{"type":"FeatureCollection","features":[{"type":"Feature","properties":{"kdkec":"1403121","nmkec":"PELANGIRAN","kddesa":"1403121001","nmdesa":"TANJUNG SIMPANG","idsubsls":"1403121001004000","kdsubsls":"00"},"geometry":{"type":"Polygon","coordinates":[[[103.24273,0.176156],[103.244844,0.175818],[103.245741,0.175509],[103.245803,0.175751],[103.246016,0.17582],[103.247563,0.175204],[103.247372,0.174582],[103.246241,0.175031],[103.245288,0.17339],[103.242166,0.171919],[103.240731,0.170927],[103.238943,0.170117],[103.236896,0.169799],[103.235934,0.170186],[103.233859,0.171561],[103.232634,0.171824],[103.231793,0.171693],[103.231519,0.175478],[103.235068,0.183054],[103.236053,0.184123],[103.236784,0.183575],[103.238456,0.182726],[103.241508,0.180354],[103.243581,0.179357],[103.24273,0.176156]]]}}]}