{"type":"FeatureCollection","features":[{"type":"Feature","properties":{"kdkec":"1403121","nmkec":"PELANGIRAN","kddesa":"1403121001","nmdesa":"TANJUNG SIMPANG","idsubsls":"1403121001000900","kdsubsls":"00"},"geometry":{"type":"Polygon","coordinates":[[[103.262122,0.181394],[103.269952,0.181076],[103.267659,0.189294],[103.27355,0.190564],[103.27549,0.183969],[103.276565,0.18434],[103.27818,0.176118],[103.277893,0.172146],[103.276085,0.171292],[103.274815,0.170122],[103.272906,0.167884],[103.2717,0.16703],[103.268917,0.165286],[103.266308,0.164275],[103.264936,0.169226],[103.262122,0.181394]]]}}]}