{"type":"FeatureCollection","features":[{"type":"Feature","properties":{"kdkec":"1403121","nmkec":"PELANGIRAN","kddesa":"1403121001","nmdesa":"TANJUNG SIMPANG","idsubsls":"1403121001001900","kdsubsls":"00"},"geometry":{"type":"Polygon","coordinates":[[[103.20989,0.178926],[103.215206,0.171895],[103.218408,0.167087],[103.220634,0.164062],[103.218834,0.163612],[103.216546,0.162778],[103.215243,0.161981],[103.212364,0.157683],[103.207114,0.153069],[103.196705,0.167609],[103.204998,0.175003],[103.20989,0.178926]]]}}]}