{"type":"FeatureCollection","features":[{"type":"Feature","properties":{"kdkec":"1403121","nmkec":"PELANGIRAN","kddesa":"1403121001","nmdesa":"TANJUNG SIMPANG","idsubsls":"1403121001000400","kdsubsls":"00"},"geometry":{"type":"Polygon","coordinates":[[[103.282229,0.181313],[103.285343,0.177316],[103.294646,0.180472],[103.302126,0.177131],[103.284275,0.170418],[103.282065,0.171715],[103.279568,0.17241],[103.277893,0.172146],[103.27818,0.176118],[103.276565,0.18434],[103.27918,0.185243],[103.282229,0.181313]]]}}]}