{"type":"FeatureCollection","features":[{"type":"Feature","properties":{"kdkec":"1403121","nmkec":"PELANGIRAN","kddesa":"1403121001","nmdesa":"TANJUNG SIMPANG","idsubsls":"1403121001001500","kdsubsls":"00"},"geometry":{"type":"Polygon","coordinates":[[[103.249332,0.184958],[103.245231,0.178776],[103.242169,0.17997],[103.240403,0.181123],[103.238456,0.182726],[103.236784,0.183575],[103.236766,0.18385],[103.242736,0.196148],[103.24692,0.196384],[103.251365,0.198147],[103.254171,0.190452],[103.249332,0.184958]]]}}]}