{"type":"FeatureCollection","features":[{"type":"Feature","properties":{"kdkec":"1403051","nmkec":"CONCONG","kddesa":"1403051001","nmdesa":"CONCONG LUAR","idsubsls":"1403051001001200","kdsubsls":"00"},"geometry":{"type":"Polygon","coordinates":[[[103.638569,-0.237257],[103.638421,-0.237062],[103.638267,-0.237182],[103.637959,-0.23674],[103.637764,-0.236364],[103.637985,-0.2362],[103.637045,-0.234752],[103.637574,-0.23434],[103.638251,-0.23541],[103.638841,-0.235028],[103.63974,-0.23635],[103.638569,-0.237257]]]}}]}