{"type":"FeatureCollection","features":[{"type":"Feature","properties":{"kdkec":"1403110","nmkec":"MANDAH","kddesa":"1403110010","nmdesa":"BANTAYAN","idsubsls":"1403110010003500","kdsubsls":"00"},"geometry":{"type":"Polygon","coordinates":[[[103.375414,-0.001042],[103.370698,-0.009324],[103.369304,-0.008573],[103.361685,-0.003591],[103.36708,0.010772],[103.367508,0.01046],[103.368946,0.011323],[103.369521,0.012473],[103.372109,0.01391],[103.373063,0.01391],[103.373609,0.013738],[103.373906,0.013322],[103.375035,0.012534],[103.375818,0.009778],[103.376633,0.00793],[103.378355,0.006803],[103.379831,0.006539],[103.379387,0.005568],[103.375414,-0.001042]]]}}]}