{"type":"FeatureCollection","features":[{"type":"Feature","properties":{"kdkec":"1403110","nmkec":"MANDAH","kddesa":"1403110010","nmdesa":"BANTAYAN","idsubsls":"1403110010003200","kdsubsls":"00"},"geometry":{"type":"Polygon","coordinates":[[[103.342272,0.027783],[103.345991,0.034858],[103.348023,0.039767],[103.3499,0.038395],[103.34884,0.034977],[103.347352,0.031304],[103.34508,0.026784],[103.34508,0.027137],[103.344792,0.027713],[103.343067,0.027713],[103.342053,0.027205],[103.342272,0.027783]]]}}]}