{"type":"FeatureCollection","features":[{"type":"Feature","properties":{"kdkec":"1403110","nmkec":"MANDAH","kddesa":"1403110010","nmdesa":"BANTAYAN","idsubsls":"1403110010001800","kdsubsls":"00"},"geometry":{"type":"Polygon","coordinates":[[[103.312091,0.056411],[103.312014,0.056981],[103.311179,0.057132],[103.310768,0.057814],[103.310474,0.057379],[103.31015,0.057564],[103.310453,0.058927],[103.315285,0.074646],[103.318023,0.073769],[103.318775,0.070917],[103.31767,0.070499],[103.320531,0.066518],[103.318728,0.06374],[103.322187,0.061199],[103.314507,0.048972],[103.311541,0.053279],[103.31202,0.053842],[103.311683,0.054912],[103.312091,0.056411]]]}}]}