{"type":"FeatureCollection","features":[{"type":"Feature","properties":{"kdkec":"1403110","nmkec":"MANDAH","kddesa":"1403110010","nmdesa":"BANTAYAN","idsubsls":"1403110010003700","kdsubsls":"00"},"geometry":{"type":"Polygon","coordinates":[[[103.334245,0.033478],[103.332428,0.034614],[103.331853,0.034326],[103.331565,0.033751],[103.331565,0.032313],[103.330703,0.031738],[103.330127,0.031738],[103.328402,0.032313],[103.326964,0.034038],[103.325224,0.036704],[103.324952,0.038064],[103.327488,0.045856],[103.3289,0.05124],[103.332969,0.049187],[103.336789,0.046644],[103.334245,0.033478]]]}}]}