{"type":"FeatureCollection","features":[{"type":"Feature","properties":{"kdkec":"1403110","nmkec":"MANDAH","kddesa":"1403110010","nmdesa":"BANTAYAN","idsubsls":"1403110010000200","kdsubsls":"00"},"geometry":{"type":"Polygon","coordinates":[[[103.384767,-0.008808],[103.38267,-0.006061],[103.376282,-0.01233],[103.370698,-0.009324],[103.372536,-0.006241],[103.373446,-0.004329],[103.379387,0.005568],[103.379831,0.006539],[103.381331,0.00627],[103.383273,0.004673],[103.384839,0.002762],[103.387219,0.001196],[103.388002,-0.001184],[103.386281,-0.001491],[103.386795,-0.003436],[103.386292,-0.003602],[103.387047,-0.005647],[103.38545,-0.008091],[103.384767,-0.008808]]]}}]}