{"type":"FeatureCollection","features":[{"type":"Feature","properties":{"kdkec":"1403110","nmkec":"MANDAH","kddesa":"1403110010","nmdesa":"BANTAYAN","idsubsls":"1403110010003400","kdsubsls":"00"},"geometry":{"type":"Polygon","coordinates":[[[103.287431,0.049987],[103.289378,0.051783],[103.293639,0.054037],[103.301751,0.057601],[103.303349,0.058954],[103.303923,0.060541],[103.302925,0.06201],[103.303318,0.062097],[103.304398,0.060766],[103.304479,0.059885],[103.305002,0.059845],[103.305255,0.059259],[103.305729,0.059122],[103.306309,0.058693],[103.307076,0.058815],[103.307487,0.058671],[103.308283,0.057926],[103.309536,0.058051],[103.310413,0.057355],[103.310768,0.057814],[103.311179,0.057132],[103.31139,0.057001],[103.311743,0.057088],[103.312076,0.056833],[103.311683,0.054912],[103.31202,0.053842],[103.311541,0.053279],[103.293669,0.044944],[103.287431,0.049987]]]}}]}