{"type":"FeatureCollection","features":[{"type":"Feature","properties":{"kdkec":"1403110","nmkec":"MANDAH","kddesa":"1403110010","nmdesa":"BANTAYAN","idsubsls":"1403110010003900","kdsubsls":"00"},"geometry":{"type":"Polygon","coordinates":[[[103.34761,0.040069],[103.348023,0.039767],[103.345991,0.034858],[103.342053,0.027205],[103.341342,0.02685],[103.339329,0.026562],[103.338466,0.027137],[103.337891,0.028],[103.337316,0.030013],[103.334728,0.033176],[103.334245,0.033478],[103.337235,0.048951],[103.34457,0.042349],[103.34761,0.040069]]]}}]}