{"type":"FeatureCollection","features":[{"type":"Feature","properties":{"kdkec":"1403110","nmkec":"MANDAH","kddesa":"1403110010","nmdesa":"BANTAYAN","idsubsls":"1403110010100200","kdsubsls":"00"},"geometry":{"type":"Polygon","coordinates":[[[103.286691,0.08401],[103.28754,0.082102],[103.288338,0.081054],[103.290229,0.079737],[103.280431,0.078774],[103.278668,0.079057],[103.268551,0.077979],[103.267435,0.077441],[103.267606,0.077287],[103.267571,0.07702],[103.266977,0.075536],[103.264412,0.075907],[103.263284,0.07589],[103.256242,0.072523],[103.260156,0.078786],[103.266612,0.093566],[103.286219,0.085068],[103.286691,0.08401]]]}}]}