{"type":"FeatureCollection","features":[{"type":"Feature","properties":{"kdkec":"1403110","nmkec":"MANDAH","kddesa":"1403110010","nmdesa":"BANTAYAN","idsubsls":"1403110010001100","kdsubsls":"00"},"geometry":{"type":"Polygon","coordinates":[[[103.314507,0.048972],[103.314418,0.047804],[103.315082,0.046317],[103.315001,0.045679],[103.316727,0.043838],[103.317286,0.04272],[103.317434,0.041634],[103.31681,0.040862],[103.316901,0.040613],[103.308241,0.031776],[103.303954,0.033916],[103.302557,0.0355],[103.296362,0.040508],[103.293669,0.044944],[103.311541,0.053279],[103.314507,0.048972]]]}}]}