{"type":"FeatureCollection","features":[{"type":"Feature","properties":{"kdkec":"1403110","nmkec":"MANDAH","kddesa":"1403110010","nmdesa":"BANTAYAN","idsubsls":"1403110010002300","kdsubsls":"00"},"geometry":{"type":"Polygon","coordinates":[[[103.291626,0.074895],[103.291153,0.077087],[103.291321,0.07846],[103.291052,0.078988],[103.29108,0.079691],[103.290461,0.079735],[103.290619,0.083798],[103.290421,0.087325],[103.290569,0.088787],[103.292126,0.094025],[103.298304,0.092298],[103.298103,0.089111],[103.29759,0.085825],[103.296828,0.076491],[103.295855,0.070612],[103.295144,0.071806],[103.294372,0.072156],[103.293519,0.073217],[103.293186,0.073413],[103.292977,0.074157],[103.291626,0.074895]]]}}]}