{"type":"FeatureCollection","features":[{"type":"Feature","properties":{"kdkec":"1403110","nmkec":"MANDAH","kddesa":"1403110010","nmdesa":"BANTAYAN","idsubsls":"1403110010002500","kdsubsls":"00"},"geometry":{"type":"Polygon","coordinates":[[[103.303349,0.058954],[103.301751,0.057601],[103.293639,0.054037],[103.289378,0.051783],[103.287431,0.049987],[103.272977,0.061672],[103.288432,0.061551],[103.290995,0.06079],[103.297227,0.060749],[103.302925,0.06201],[103.303923,0.060541],[103.303349,0.058954]]]}}]}