{"type":"FeatureCollection","features":[{"type":"Feature","properties":{"kdkec":"1403121","nmkec":"PELANGIRAN","kddesa":"1403121016","nmdesa":"TERUSAN BERINGIN JAYA","idsubsls":"1403121016100100","kdsubsls":"00"},"geometry":{"type":"Polygon","coordinates":[[[103.432294,0.124038],[103.431138,0.13788],[103.431155,0.140568],[103.433678,0.139997],[103.435626,0.138736],[103.437017,0.136709],[103.437646,0.133677],[103.438792,0.132508],[103.440715,0.131857],[103.440734,0.127372],[103.440324,0.124153],[103.432294,0.124038]]]}}]}