{"type":"FeatureCollection","features":[{"type":"Feature","properties":{"kdkec":"1403040","nmkec":"TANAH MERAH","kddesa":"1403040002","nmdesa":"SELAT NAMA","idsubsls":"1403040002000500","kdsubsls":"00"},"geometry":{"type":"Polygon","coordinates":[[[103.360818,-0.559903],[103.366713,-0.567007],[103.365189,-0.567707],[103.353343,-0.571769],[103.348247,-0.574599],[103.342883,-0.576957],[103.342132,-0.574199],[103.334909,-0.574476],[103.334486,-0.560882],[103.340792,-0.562747],[103.349185,-0.566616],[103.353817,-0.566344],[103.358528,-0.561314],[103.360818,-0.559903]]]}}]}