{"type":"FeatureCollection","features":[{"type":"Feature","properties":{"kdkec":"1403100","nmkec":"GAUNG","kddesa":"1403100002","nmdesa":"SIMPANG GAUNG","idsubsls":"1403100002002300","kdsubsls":"00"},"geometry":{"type":"Polygon","coordinates":[[[103.092936,-0.086143],[103.093285,-0.084281],[103.091663,-0.035168],[103.093851,-0.03479],[103.095748,-0.059472],[103.095489,-0.060963],[103.095336,-0.066959],[103.09543,-0.072042],[103.09527,-0.085394],[103.09507,-0.08564],[103.094505,-0.085605],[103.093893,-0.086386],[103.092936,-0.086143]]]}}]}