{"type":"FeatureCollection","features":[{"type":"Feature","properties":{"kdkec":"1403100","nmkec":"GAUNG","kddesa":"1403100002","nmdesa":"SIMPANG GAUNG","idsubsls":"1403100002001100","kdsubsls":"00"},"geometry":{"type":"Polygon","coordinates":[[[103.112161,-0.079131],[103.113137,-0.079127],[103.113537,-0.094912],[103.111972,-0.094967],[103.111209,-0.09416],[103.111212,-0.093893],[103.111403,-0.093694],[103.111199,-0.093148],[103.110705,-0.092853],[103.110867,-0.09195],[103.110412,-0.091161],[103.11062,-0.090598],[103.110388,-0.090314],[103.110369,-0.089928],[103.110542,-0.089575],[103.110641,-0.088492],[103.111422,-0.087516],[103.111662,-0.086531],[103.112161,-0.079131]]]}}]}