{"type":"FeatureCollection","features":[{"type":"Feature","properties":{"kdkec":"1403100","nmkec":"GAUNG","kddesa":"1403100002","nmdesa":"SIMPANG GAUNG","idsubsls":"1403100002004100","kdsubsls":"00"},"geometry":{"type":"Polygon","coordinates":[[[103.105284,-0.115374],[103.104991,-0.117046],[103.105187,-0.117153],[103.105043,-0.118168],[103.103631,-0.1202],[103.100729,-0.121187],[103.099187,-0.121188],[103.097301,-0.120498],[103.093186,-0.116184],[103.091206,-0.114618],[103.092788,-0.113661],[103.092825,-0.109313],[103.092946,-0.108747],[103.093948,-0.107791],[103.095711,-0.106677],[103.09769,-0.108987],[103.099181,-0.1055],[103.102404,-0.105414],[103.10379,-0.109912],[103.105001,-0.1129],[103.105284,-0.115374]]]}}]}