{"type":"FeatureCollection","features":[{"type":"Feature","properties":{"kdkec":"1403100","nmkec":"GAUNG","kddesa":"1403100002","nmdesa":"SIMPANG GAUNG","idsubsls":"1403100002002800","kdsubsls":"00"},"geometry":{"type":"Polygon","coordinates":[[[103.065965,-0.079627],[103.066415,-0.067822],[103.066304,-0.060327],[103.06517,-0.054685],[103.062653,-0.048629],[103.058476,-0.039499],[103.058501,-0.036903],[103.071722,-0.037124],[103.071117,-0.05631],[103.07183,-0.064071],[103.07472,-0.072504],[103.074914,-0.091481],[103.073064,-0.092023],[103.07129,-0.091976],[103.06988,-0.091656],[103.069512,-0.091347],[103.068778,-0.089365],[103.069253,-0.087517],[103.070218,-0.085854],[103.071465,-0.084503],[103.071658,-0.082617],[103.070924,-0.080982],[103.069712,-0.079763],[103.068496,-0.079395],[103.065965,-0.079627]]]}}]}