{"type":"FeatureCollection","features":[{"type":"Feature","properties":{"kdkec":"1403071","nmkec":"KEMPAS"},"geometry":{"type":"MultiPolygon","coordinates":[[[[102.831068,-0.529119],[102.833554,-0.529413],[102.838026,-0.530903],[102.839894,-0.532021],[102.841143,-0.533101],[102.842955,-0.535528],[102.845284,-0.536707],[102.847058,-0.537826],[102.85064,-0.540555],[102.853744,-0.541761],[102.856859,-0.54211],[102.858735,-0.541826],[102.861039,-0.540751],[102.863639,-0.546666],[102.86095,-0.54054],[102.861893,-0.540008],[102.863616,-0.538387],[102.86543,-0.536246],[102.866219,-0.535736],[102.870439,-0.534104],[102.873581,-0.532419],[102.874581,-0.531795],[102.876724,-0.530062],[102.887068,-0.56079],[102.876885,-0.530037],[102.879934,-0.527407],[102.88376,-0.525117],[102.886576,-0.524164],[102.887995,-0.524033],[102.88914,-0.52422],[102.889989,-0.524691],[102.891952,-0.525287],[102.892904,-0.525392],[102.895974,-0.524734],[102.898193,-0.524769],[102.901572,-0.52448],[102.902703,-0.524212],[102.902964,-0.524299],[102.903917,-0.523894],[102.904944,-0.52372],[102.909206,-0.521548],[102.914655,-0.517161],[102.916189,-0.516123],[102.918468,-0.515419],[102.920183,-0.515211],[102.922803,-0.51459],[102.923241,-0.514318],[102.924189,-0.514222],[102.931053,-0.509802],[102.933602,-0.50782],[102.933672,-0.507593],[102.93491,-0.506777],[102.935535,-0.505868],[102.93788,-0.50362],[102.941654,-0.499613],[102.943693,-0.498103],[102.946131,-0.495524],[102.948321,-0.492088],[102.948796,-0.491049],[102.951097,-0.492959],[102.951418,-0.49552],[102.951204,-0.501494],[102.962702,-0.521571],[102.965485,-0.525603],[102.971635,-0.535581],[102.958986,-0.54223],[102.954646,-0.534013],[102.957103,-0.538667],[102.958981,-0.542244],[102.949759,-0.546931],[102.952503,-0.551534],[102.952982,-0.552721],[102.951608,-0.553473],[102.94976,-0.554333],[102.950749,-0.555979],[102.953839,-0.5541],[102.955406,-0.556612],[102.95391,-0.55421],[102.956883,-0.552306],[102.956965,-0.55246],[102.95652,-0.551603],[102.956377,-0.551384],[102.956758,-0.551194],[102.958314,-0.55401],[102.955629,-0.555431],[102.956536,-0.557054],[102.955891,-0.557389],[102.956013,-0.557585],[102.951975,-0.55971],[102.961391,-0.576631],[102.965272,-0.584272],[102.976364,-0.605274],[102.965315,-0.608653],[102.961451,-0.595891],[102.967054,-0.614568],[102.973224,-0.626258],[102.924587,-0.653399],[102.916345,-0.634462],[102.915903,-0.630229],[102.913102,-0.62478],[102.915957,-0.623423],[102.904242,-0.62895],[102.890842,-0.630308],[102.879007,-0.630743],[102.871987,-0.632709],[102.862152,-0.621509],[102.876323,-0.637658],[102.861116,-0.64661],[102.857735,-0.661835],[102.854205,-0.664316],[102.851652,-0.655735],[102.853669,-0.650435],[102.851977,-0.643274],[102.850121,-0.633919],[102.848911,-0.632639],[102.847962,-0.633204],[102.844794,-0.631602],[102.81899,-0.595573],[102.820853,-0.593067],[102.816745,-0.590894],[102.783642,-0.577127],[102.813316,-0.52729],[102.814494,-0.527692],[102.822933,-0.529183],[102.831068,-0.529119]],[[102.947462,-0.543677],[102.946363,-0.544274],[102.957103,-0.538667],[102.947462,-0.543677]],[[102.946363,-0.544274],[102.942954,-0.546125],[102.946364,-0.544276],[102.951608,-0.553473],[102.946363,-0.544274]],[[102.949196,-0.557374],[102.949763,-0.557035],[102.949168,-0.557323],[102.942954,-0.546125],[102.949196,-0.557374]],[[102.960186,-0.577451],[102.960236,-0.577535],[102.961391,-0.576631],[102.960186,-0.577451]],[[102.963936,-0.584919],[102.96397,-0.584978],[102.946959,-0.594847],[102.943796,-0.596394],[102.946714,-0.595006],[102.965272,-0.584272],[102.963936,-0.584919]],[[102.952285,-0.580184],[102.951073,-0.578001],[102.957138,-0.588942],[102.952285,-0.580184]],[[102.893412,-0.609262],[102.890633,-0.6108],[102.865142,-0.6249],[102.893412,-0.609262]],[[102.819223,-0.581511],[102.831778,-0.554888],[102.815117,-0.590217],[102.819223,-0.581511]],[[102.809581,-0.540221],[102.809581,-0.540221],[102.806618,-0.538548],[102.809581,-0.540221]],[[102.863877,-0.549148],[102.864641,-0.548944],[102.868322,-0.54774],[102.863877,-0.549148],[102.863877,-0.549148]],[[102.834325,-0.546707],[102.841601,-0.533729],[102.839219,-0.537795],[102.834325,-0.546707]],[[102.851188,-0.544056],[102.852709,-0.541399],[102.848182,-0.54923],[102.851178,-0.54405],[102.851188,-0.544056]],[[102.828224,-0.543076],[102.804409,-0.585763],[102.828771,-0.542148],[102.828224,-0.543076]],[[102.824296,-0.540709],[102.8281,-0.543002],[102.828224,-0.543076],[102.824296,-0.540709]],[[102.824296,-0.540709],[102.824294,-0.540711],[102.813864,-0.558451],[102.824296,-0.540709]],[[102.830143,-0.544229],[102.832106,-0.545391],[102.830148,-0.544221],[102.835291,-0.53566],[102.830143,-0.544229]],[[102.837257,-0.536729],[102.837257,-0.536729],[102.832106,-0.545391],[102.837257,-0.536729]],[[102.844346,-0.55128],[102.8501,-0.541503],[102.85074,-0.541865],[102.8501,-0.541501],[102.85064,-0.540555],[102.844346,-0.55128]],[[102.853923,-0.546274],[102.853923,-0.545679],[102.85391,-0.544831],[102.853923,-0.546274]],[[102.889544,-0.575521],[102.898637,-0.570312],[102.892503,-0.573826],[102.879264,-0.58097],[102.889544,-0.575521]],[[102.920472,-0.557804],[102.899806,-0.569642],[102.911807,-0.562768],[102.920472,-0.557804]],[[102.925112,-0.58614],[102.920962,-0.578715],[102.911807,-0.562768],[102.925112,-0.58614]],[[102.921087,-0.53749],[102.927277,-0.553906],[102.927248,-0.553922],[102.927281,-0.553904],[102.921087,-0.53749]],[[102.919619,-0.523274],[102.919413,-0.522127],[102.921087,-0.53749],[102.919619,-0.523274]],[[102.919163,-0.522234],[102.91869,-0.52118],[102.919183,-0.522279],[102.919413,-0.522127],[102.919163,-0.522234]],[[102.942007,-0.561676],[102.935338,-0.549288],[102.941731,-0.561168],[102.942007,-0.561676]],[[102.94834,-0.573069],[102.948527,-0.572963],[102.94619,-0.574282],[102.94834,-0.573069]],[[102.925606,-0.554863],[102.938551,-0.578475],[102.938629,-0.578576],[102.925606,-0.554863]],[[102.938052,-0.578761],[102.937617,-0.579012],[102.938551,-0.578475],[102.938052,-0.578761]],[[102.927406,-0.560321],[102.928716,-0.562689],[102.938052,-0.578761],[102.927406,-0.560321]],[[102.88295,-0.588065],[102.881168,-0.584686],[102.882229,-0.586727],[102.849618,-0.603418],[102.882258,-0.586781],[102.88295,-0.588065]],[[102.857513,-0.6117],[102.849619,-0.603419],[102.857511,-0.611702],[102.887025,-0.595936],[102.857513,-0.6117]],[[102.88532,-0.592593],[102.884727,-0.59146],[102.887025,-0.595936],[102.88532,-0.592593]],[[102.905896,-0.59756],[102.914617,-0.612798],[102.914617,-0.612798],[102.910453,-0.605508],[102.905896,-0.59756]],[[102.912285,-0.593957],[102.910217,-0.59505],[102.905896,-0.59756],[102.912285,-0.593957]],[[102.924586,-0.607661],[102.924592,-0.607658],[102.925001,-0.607421],[102.924586,-0.607661]],[[102.927624,-0.601063],[102.929755,-0.604668],[102.929755,-0.604668],[102.925506,-0.597479],[102.927624,-0.601063]],[[102.936977,-0.600484],[102.936944,-0.603203],[102.936978,-0.600484],[102.936977,-0.600484]],[[102.889273,-0.599719],[102.891634,-0.598619],[102.888932,-0.599869],[102.889273,-0.599719]],[[102.891063,-0.604436],[102.890313,-0.602726],[102.888932,-0.599869],[102.891063,-0.604436]],[[102.892494,-0.604067],[102.893992,-0.603255],[102.891196,-0.604722],[102.892494,-0.604067]],[[102.887824,-0.607421],[102.887273,-0.606395],[102.887824,-0.607421],[102.887824,-0.607421]],[[102.891495,-0.605361],[102.887824,-0.607421],[102.888413,-0.607095],[102.891495,-0.605361]],[[102.849177,-0.63248],[102.851383,-0.631298],[102.850465,-0.631714],[102.849177,-0.63248]],[[102.853839,-0.630776],[102.855174,-0.629478],[102.855166,-0.629467],[102.853839,-0.630776]],[[102.855568,-0.62907],[102.857352,-0.627501],[102.855634,-0.629005],[102.855568,-0.62907]],[[102.860318,-0.623562],[102.860275,-0.62361],[102.857352,-0.627501],[102.860318,-0.623562]],[[102.884848,-0.601897],[102.884848,-0.601897],[102.859645,-0.614419],[102.884848,-0.601897]],[[102.888029,-0.598008],[102.884368,-0.599643],[102.883786,-0.599926],[102.888029,-0.598008],[102.888029,-0.598008]],[[102.898702,-0.619497],[102.895865,-0.614172],[102.895378,-0.613257],[102.898702,-0.619497]],[[102.899067,-0.620182],[102.901071,-0.623847],[102.898702,-0.619497],[102.899067,-0.620182]],[[102.943005,-0.613849],[102.94262,-0.629961],[102.943008,-0.613887],[102.942899,-0.602978],[102.943005,-0.613849]],[[102.966206,-0.625714],[102.96595,-0.625226],[102.966524,-0.626336],[102.966206,-0.625714]],[[102.966931,-0.624707],[102.967653,-0.624326],[102.96595,-0.625226],[102.966931,-0.624707]],[[102.968251,-0.625392],[102.967512,-0.625796],[102.966524,-0.626336],[102.968251,-0.625392]],[[102.940798,-0.57113],[102.943541,-0.569643],[102.938572,-0.572255],[102.940798,-0.57113]],[[102.929963,-0.583747],[102.925155,-0.586491],[102.91968,-0.589704],[102.928121,-0.584808],[102.929963,-0.583747]],[[102.924298,-0.598106],[102.924298,-0.598106],[102.91968,-0.589704],[102.924298,-0.598106]],[[102.932925,-0.593209],[102.931603,-0.590837],[102.929396,-0.586874],[102.928121,-0.584808],[102.932925,-0.593209]],[[102.936727,-0.587879],[102.94151,-0.585118],[102.931603,-0.590837],[102.936727,-0.587879]],[[102.9395,-0.58148],[102.937522,-0.582453],[102.929396,-0.586874],[102.9395,-0.58148]],[[102.940837,-0.583715],[102.940003,-0.58232],[102.941495,-0.585087],[102.940837,-0.583715]],[[102.93495,-0.579256],[102.936158,-0.578669],[102.936851,-0.578301],[102.93495,-0.579256]],[[102.877844,-0.565158],[102.87302,-0.548262],[102.873628,-0.550439],[102.877844,-0.565158]],[[102.876991,-0.576293],[102.876991,-0.576293],[102.851288,-0.588258],[102.876991,-0.576293]],[[102.867125,-0.551651],[102.866967,-0.551753],[102.866522,-0.552042],[102.867125,-0.551651]],[[102.872876,-0.557176],[102.871096,-0.551752],[102.870595,-0.550526],[102.872876,-0.557176]],[[102.95162,-0.569835],[102.956152,-0.56723],[102.947706,-0.57193],[102.95162,-0.569835]],[[102.944967,-0.567002],[102.945111,-0.567261],[102.947706,-0.57193],[102.944967,-0.567002]],[[102.897193,-0.551373],[102.909416,-0.546609],[102.903397,-0.548904],[102.897193,-0.551373]],[[102.924355,-0.521029],[102.924649,-0.52434],[102.924785,-0.525571],[102.924355,-0.521029]],[[102.934415,-0.50717],[102.935878,-0.510249],[102.93728,-0.512998],[102.934415,-0.50717]],[[102.96696,-0.538025],[102.963217,-0.532055],[102.962786,-0.531404],[102.96696,-0.538025]],[[102.932714,-0.513154],[102.933924,-0.512359],[102.933632,-0.51255],[102.932714,-0.513154]],[[102.936089,-0.512819],[102.934556,-0.513417],[102.936105,-0.512851],[102.936089,-0.512819]],[[102.933325,-0.511354],[102.934379,-0.510694],[102.934627,-0.510487],[102.933325,-0.511354]],[[102.937317,-0.519947],[102.93602,-0.516405],[102.937348,-0.52006],[102.937317,-0.519947]],[[102.940206,-0.51895],[102.940206,-0.51895],[102.937317,-0.519947],[102.940206,-0.51895]],[[102.960932,-0.528463],[102.954337,-0.531585],[102.953818,-0.531831],[102.960932,-0.528463]],[[102.960932,-0.528463],[102.950547,-0.510653],[102.960932,-0.528463],[102.960932,-0.528463]],[[102.944008,-0.532135],[102.952397,-0.528232],[102.946717,-0.530875],[102.944008,-0.532135]],[[102.944022,-0.534894],[102.942493,-0.535982],[102.945116,-0.534116],[102.944022,-0.534894]],[[102.940674,-0.528213],[102.943306,-0.533479],[102.944022,-0.534894],[102.940674,-0.528213]]],[[[102.744743,-0.575997],[102.740702,-0.575663],[102.740889,-0.574143],[102.740806,-0.568664],[102.740139,-0.562956],[102.739598,-0.560957],[102.739275,-0.558904],[102.717989,-0.550186],[102.687293,-0.539423],[102.690398,-0.484618],[102.690245,-0.4792],[102.690643,-0.473379],[102.691088,-0.469715],[102.692155,-0.469606],[102.692777,-0.469775],[102.694415,-0.471041],[102.696218,-0.474532],[102.697266,-0.475687],[102.70203,-0.478714],[102.703911,-0.479243],[102.705917,-0.47945],[102.707505,-0.479262],[102.709335,-0.478545],[102.711096,-0.477038],[102.7126,-0.47301],[102.71438,-0.470831],[102.714963,-0.470339],[102.718178,-0.468621],[102.719267,-0.467501],[102.720311,-0.465567],[102.720897,-0.462437],[102.720963,-0.460817],[102.720741,-0.459598],[102.719897,-0.457181],[102.718239,-0.454664],[102.717411,-0.452684],[102.717564,-0.451871],[102.719559,-0.449631],[102.721032,-0.448533],[102.722375,-0.447919],[102.724109,-0.447674],[102.726441,-0.447689],[102.727531,-0.447858],[102.72987,-0.449469],[102.732104,-0.450559],[102.734015,-0.451276],[102.737475,-0.452093],[102.741519,-0.452116],[102.747196,-0.45006],[102.749498,-0.449439],[102.750628,-0.449759],[102.751984,-0.450927],[102.754532,-0.454817],[102.756005,-0.459406],[102.757257,-0.462616],[102.759665,-0.467255],[102.764813,-0.47334],[102.767107,-0.476347],[102.767522,-0.477322],[102.767606,-0.478826],[102.766639,-0.484296],[102.766685,-0.486414],[102.767306,-0.490985],[102.768921,-0.494871],[102.768524,-0.495097],[102.76895,-0.494932],[102.77086,-0.496955],[102.772701,-0.498399],[102.774889,-0.499426],[102.777765,-0.50024],[102.78131,-0.500747],[102.784977,-0.501084],[102.787985,-0.501023],[102.791024,-0.501652],[102.795474,-0.50354],[102.799909,-0.505826],[102.802502,-0.50753],[102.803076,-0.508501],[102.803315,-0.50977],[102.803868,-0.510768],[102.804789,-0.513453],[102.805111,-0.515632],[102.805044,-0.51763],[102.806707,-0.521479],[102.808917,-0.524579],[102.810574,-0.526205],[102.813316,-0.52729],[102.783642,-0.577127],[102.75575,-0.56567],[102.751071,-0.566508],[102.747946,-0.566894],[102.74529,-0.566987],[102.745222,-0.57232],[102.744743,-0.575997]],[[102.720085,-0.523909],[102.721216,-0.509718],[102.717989,-0.550186],[102.720085,-0.523909]],[[102.734224,-0.460552],[102.73421,-0.458532],[102.734015,-0.451276],[102.734224,-0.460552]],[[102.733754,-0.46078],[102.733397,-0.461074],[102.73427,-0.460579],[102.734224,-0.460552],[102.733754,-0.46078]],[[102.731874,-0.462267],[102.732477,-0.461852],[102.733397,-0.461074],[102.731874,-0.462267]],[[102.767551,-0.525035],[102.766999,-0.525015],[102.767836,-0.525152],[102.767551,-0.525035]],[[102.772788,-0.525041],[102.771477,-0.527075],[102.771462,-0.527135],[102.772788,-0.525041]],[[102.800295,-0.515633],[102.800276,-0.51576],[102.800438,-0.515578],[102.800295,-0.515633]],[[102.801374,-0.515217],[102.800864,-0.515414],[102.801102,-0.515364],[102.801374,-0.515217]],[[102.802344,-0.514843],[102.802144,-0.51492],[102.802584,-0.514958],[102.802344,-0.514843]],[[102.786684,-0.524368],[102.783505,-0.529795],[102.784583,-0.527955],[102.786684,-0.524368]],[[102.80273,-0.515028],[102.80273,-0.515028],[102.793185,-0.531029],[102.793728,-0.530128],[102.80273,-0.515028]],[[102.770945,-0.53339],[102.771025,-0.534696],[102.770991,-0.533533],[102.770945,-0.53339]],[[102.772594,-0.548535],[102.773217,-0.547418],[102.772485,-0.548651],[102.771233,-0.549982],[102.772594,-0.548535]],[[102.772069,-0.558407],[102.767993,-0.556861],[102.772069,-0.558407],[102.769596,-0.562795],[102.772069,-0.558407]],[[102.73984,-0.542423],[102.739458,-0.557037],[102.739682,-0.548667],[102.73984,-0.542423]],[[102.764403,-0.564393],[102.764602,-0.564122],[102.764856,-0.56365],[102.764403,-0.564393]],[[102.765401,-0.562637],[102.765689,-0.562101],[102.765905,-0.561416],[102.765401,-0.562637]],[[102.761113,-0.558239],[102.755705,-0.557733],[102.75819,-0.558019],[102.761113,-0.558239]],[[102.740108,-0.532179],[102.739978,-0.537148],[102.740108,-0.532179],[102.740108,-0.532179]],[[102.76676,-0.534025],[102.76774,-0.528929],[102.766998,-0.5327],[102.76676,-0.534025]],[[102.800798,-0.535867],[102.808199,-0.523571],[102.801396,-0.534843],[102.800798,-0.535867]],[[102.793804,-0.531413],[102.791633,-0.535291],[102.775395,-0.564294],[102.793804,-0.531413]],[[102.788599,-0.538711],[102.784704,-0.536392],[102.780946,-0.534164],[102.784735,-0.536415],[102.788599,-0.538711]],[[102.739286,-0.461784],[102.738232,-0.463516],[102.738451,-0.463156],[102.739286,-0.461784]],[[102.7334,-0.459522],[102.729988,-0.459529],[102.731766,-0.459568],[102.7334,-0.459522]],[[102.735513,-0.466178],[102.734894,-0.467139],[102.736628,-0.464517],[102.736046,-0.465383],[102.735513,-0.466178]],[[102.73735,-0.464967],[102.736626,-0.464516],[102.736628,-0.464517],[102.73735,-0.464967]],[[102.729351,-0.46473],[102.734399,-0.467887],[102.734399,-0.467887],[102.732027,-0.466398],[102.729351,-0.46473]],[[102.727086,-0.462567],[102.72698,-0.462565],[102.729351,-0.46473],[102.727086,-0.462567]],[[102.731419,-0.471761],[102.727661,-0.477214],[102.72632,-0.478913],[102.72765,-0.47723],[102.731419,-0.471761]],[[102.736017,-0.461598],[102.736014,-0.461596],[102.736009,-0.461593],[102.736017,-0.461598]],[[102.770341,-0.516374],[102.770316,-0.526929],[102.7704,-0.497605],[102.770365,-0.505722],[102.770341,-0.516374]],[[102.767609,-0.505795],[102.755041,-0.505728],[102.766078,-0.505871],[102.770365,-0.505722],[102.767609,-0.505795]],[[102.750591,-0.505671],[102.74626,-0.505615],[102.755041,-0.505728],[102.750591,-0.505671]],[[102.76576,-0.495496],[102.766114,-0.495182],[102.750591,-0.505671],[102.76576,-0.495496]],[[102.767213,-0.49444],[102.768375,-0.493755],[102.767795,-0.494047],[102.767213,-0.49444]],[[102.788395,-0.50247],[102.788076,-0.504577],[102.788076,-0.504577],[102.788395,-0.50247]],[[102.769382,-0.496445],[102.769122,-0.496002],[102.769339,-0.496481],[102.769382,-0.496445]]],[[[102.720248,-0.440293],[102.722986,-0.440328],[102.723082,-0.443899],[102.722217,-0.443826],[102.720725,-0.444052],[102.720073,-0.442339],[102.720333,-0.4415],[102.720248,-0.440293]]],[[[102.801963,-0.501908],[102.803469,-0.499989],[102.804294,-0.498326],[102.804018,-0.496398],[102.805537,-0.484492],[102.802389,-0.47314],[102.797801,-0.458892],[102.789209,-0.430242],[102.762892,-0.431124],[102.762047,-0.455492],[102.763618,-0.455679],[102.763282,-0.459483],[102.761851,-0.461565],[102.760094,-0.45992],[102.758485,-0.457871],[102.756774,-0.453448],[102.755924,-0.452523],[102.755691,-0.451863],[102.754216,-0.449816],[102.752363,-0.448199],[102.749908,-0.447468],[102.746541,-0.44748],[102.745458,-0.447093],[102.743509,-0.447405],[102.741964,-0.447397],[102.737561,-0.4478],[102.735747,-0.448417],[102.733538,-0.448527],[102.732197,-0.448278],[102.729826,-0.446962],[102.728067,-0.445626],[102.726869,-0.445025],[102.723082,-0.443899],[102.722986,-0.440191],[102.722986,-0.440328],[102.719801,-0.440265],[102.719825,-0.438028],[102.722997,-0.438282],[102.720477,-0.438054],[102.720536,-0.437711],[102.720281,-0.43716],[102.717313,-0.434648],[102.716854,-0.244722],[102.76102,-0.244679],[102.797711,-0.429937],[102.761017,-0.244663],[102.782287,-0.244716],[102.819505,-0.447904],[102.826775,-0.48253],[102.828044,-0.495869],[102.82516,-0.515515],[102.824826,-0.519422],[102.824632,-0.525603],[102.820095,-0.525893],[102.818105,-0.525729],[102.811425,-0.52282],[102.809982,-0.521683],[102.809315,-0.520513],[102.80891,-0.519125],[102.809042,-0.515509],[102.808866,-0.512204],[102.808276,-0.510148],[102.806811,-0.507459],[102.804863,-0.504878],[102.801963,-0.501908]],[[102.733707,-0.442071],[102.733711,-0.441635],[102.733538,-0.448527],[102.733707,-0.442071]],[[102.809369,-0.487109],[102.808561,-0.497026],[102.808562,-0.497026],[102.809369,-0.487109]],[[102.80828,-0.501692],[102.809307,-0.49701],[102.808143,-0.502308],[102.80828,-0.501692]],[[102.80989,-0.508647],[102.809533,-0.507332],[102.80989,-0.508647],[102.80989,-0.508647]],[[102.817886,-0.489183],[102.814044,-0.501857],[102.813266,-0.504482],[102.817886,-0.489183]],[[102.724472,-0.436396],[102.722144,-0.436267],[102.726266,-0.436431],[102.724472,-0.436396]]],[[[102.95933,-0.555839],[102.956514,-0.550706],[102.957529,-0.550173],[102.960397,-0.555168],[102.95933,-0.555839]]],[[[102.956883,-0.552306],[102.956275,-0.552635],[102.955769,-0.551742],[102.956377,-0.551384],[102.956883,-0.552306]]]]}}]}