{"type":"FeatureCollection","features":[{"type":"Feature","properties":{"kdkec":"1403051","nmkec":"CONCONG"},"geometry":{"type":"MultiPolygon","coordinates":[[[[103.503482,-0.361674],[103.500506,-0.362229],[103.498691,-0.363238],[103.495866,-0.363742],[103.494101,-0.365053],[103.485678,-0.367827],[103.479122,-0.370198],[103.477306,-0.370551],[103.476045,-0.371358],[103.474633,-0.371358],[103.46848,-0.373173],[103.465101,-0.373274],[103.463134,-0.37282],[103.461167,-0.371509],[103.459402,-0.369945],[103.457384,-0.367474],[103.455771,-0.366011],[103.453854,-0.365003],[103.451181,-0.360262],[103.45108,-0.358648],[103.45219,-0.355975],[103.454258,-0.350125],[103.456023,-0.345888],[103.462378,-0.333985],[103.462731,-0.332523],[103.463891,-0.329951],[103.464873,-0.324665],[103.46573,-0.32244],[103.468984,-0.310685],[103.470296,-0.306852],[103.474784,-0.298025],[103.48051,-0.288549],[103.491932,-0.274271],[103.500707,-0.261049],[103.526682,-0.228274],[103.531348,-0.223034],[103.539088,-0.218049],[103.547848,-0.216131],[103.551278,-0.216562],[103.556407,-0.216103],[103.564975,-0.21835],[103.584812,-0.219422],[103.590516,-0.2202],[103.591156,-0.220531],[103.615517,-0.222924],[103.628576,-0.22452],[103.638445,-0.225167],[103.643675,-0.227162],[103.644691,-0.231755],[103.643197,-0.233781],[103.64369,-0.234175],[103.644043,-0.235184],[103.641121,-0.236304],[103.642291,-0.235864],[103.642589,-0.236637],[103.64462,-0.235755],[103.655287,-0.24635],[103.682442,-0.258466],[103.686445,-0.257727],[103.690184,-0.258652],[103.691115,-0.260855],[103.704478,-0.254877],[103.715707,-0.262115],[103.72647,-0.274108],[103.736076,-0.281709],[103.757357,-0.297652],[103.777707,-0.323816],[103.667281,-0.306736],[103.652145,-0.30411],[103.61915,-0.30175],[103.59291,-0.302404],[103.563575,-0.306867],[103.525307,-0.3261],[103.516047,-0.330948],[103.492291,-0.345782],[103.4936,-0.34721],[103.494433,-0.347805],[103.496337,-0.348638],[103.500859,-0.348995],[103.501692,-0.349233],[103.503001,-0.351375],[103.503954,-0.352327],[103.505501,-0.352803],[103.508119,-0.352803],[103.51395,-0.357563],[103.516687,-0.360419],[103.516456,-0.361575],[103.512459,-0.360212],[103.510593,-0.360161],[103.506205,-0.360615],[103.503482,-0.361674]],[[103.509186,-0.272442],[103.517876,-0.279661],[103.509186,-0.272442],[103.509186,-0.272442]],[[103.472009,-0.322493],[103.476549,-0.315341],[103.472349,-0.32187],[103.472009,-0.322493]],[[103.506212,-0.31243],[103.504699,-0.313984],[103.50552,-0.313155],[103.506212,-0.31243]],[[103.503792,-0.315787],[103.503334,-0.315082],[103.504175,-0.316411],[103.503792,-0.315787]],[[103.465703,-0.325561],[103.465703,-0.325561],[103.465383,-0.325379],[103.465703,-0.325561]],[[103.468804,-0.32563],[103.468304,-0.324325],[103.468295,-0.324304],[103.468804,-0.32563]],[[103.47093,-0.324194],[103.47106,-0.323989],[103.470591,-0.324423],[103.47093,-0.324194]],[[103.465687,-0.326485],[103.465508,-0.326015],[103.465687,-0.326485],[103.465687,-0.326485]],[[103.506472,-0.2884],[103.507609,-0.286855],[103.505608,-0.289574],[103.506472,-0.2884]],[[103.507071,-0.314039],[103.508529,-0.314115],[103.506988,-0.314018],[103.507071,-0.314039]],[[103.533596,-0.290749],[103.532924,-0.292291],[103.532624,-0.293018],[103.533596,-0.290749]],[[103.635666,-0.240649],[103.634966,-0.239919],[103.635201,-0.239587],[103.634891,-0.239927],[103.635666,-0.240649]],[[103.638724,-0.23905],[103.638724,-0.23905],[103.638243,-0.238511],[103.638724,-0.23905]],[[103.645092,-0.236225],[103.642985,-0.237191],[103.643195,-0.237704],[103.643027,-0.237275],[103.645092,-0.236225]],[[103.642016,-0.236383],[103.641631,-0.236544],[103.641528,-0.236609],[103.642016,-0.236383]],[[103.640965,-0.238245],[103.639185,-0.239594],[103.640965,-0.238245],[103.640965,-0.238245]],[[103.638423,-0.240363],[103.637552,-0.241317],[103.639185,-0.239594],[103.638423,-0.240363]],[[103.637311,-0.241049],[103.636426,-0.241836],[103.634994,-0.243143],[103.637311,-0.241049]],[[103.640843,-0.237454],[103.64075,-0.237411],[103.640578,-0.237579],[103.640843,-0.237454]],[[103.640922,-0.238159],[103.640853,-0.238023],[103.640578,-0.237579],[103.640922,-0.238159]],[[103.647784,-0.274355],[103.656851,-0.288818],[103.659707,-0.293179],[103.647784,-0.274355]],[[103.662517,-0.268932],[103.653633,-0.275451],[103.656777,-0.273223],[103.662517,-0.268932]],[[103.593942,-0.278235],[103.593786,-0.279825],[103.593927,-0.278741],[103.593942,-0.278235]],[[103.591583,-0.27582],[103.592296,-0.271431],[103.591543,-0.276065],[103.591583,-0.27582]],[[103.596689,-0.271152],[103.597528,-0.267945],[103.596931,-0.270027],[103.596689,-0.271152]],[[103.595721,-0.27127],[103.596148,-0.269903],[103.595448,-0.272109],[103.595721,-0.27127]],[[103.593925,-0.27612],[103.593925,-0.27612],[103.594078,-0.275318],[103.593925,-0.27612]],[[103.594771,-0.273604],[103.594732,-0.273101],[103.594725,-0.274236],[103.594771,-0.273604]],[[103.636787,-0.238619],[103.63733,-0.239212],[103.636821,-0.238587],[103.636787,-0.238619]],[[103.526128,-0.26976],[103.527745,-0.269004],[103.528293,-0.26874],[103.526128,-0.26976]],[[103.527982,-0.269505],[103.527982,-0.269505],[103.527745,-0.269004],[103.527982,-0.269505]],[[103.527837,-0.270299],[103.528258,-0.270136],[103.528726,-0.269915],[103.527837,-0.270299]],[[103.528961,-0.275414],[103.531351,-0.274272],[103.530286,-0.274763],[103.528961,-0.275414]],[[103.530666,-0.272889],[103.530334,-0.272217],[103.531351,-0.274272],[103.530666,-0.272889]],[[103.526369,-0.271931],[103.525847,-0.272285],[103.527102,-0.271582],[103.526369,-0.271931]],[[103.526007,-0.271266],[103.526007,-0.271266],[103.524569,-0.272037],[103.526007,-0.271266]],[[103.527591,-0.269717],[103.527654,-0.269683],[103.526898,-0.27002],[103.527591,-0.269717]],[[103.529318,-0.270632],[103.530841,-0.270102],[103.531831,-0.269688],[103.528664,-0.270841],[103.529318,-0.270632]],[[103.531846,-0.272392],[103.531512,-0.271674],[103.531846,-0.272392],[103.531846,-0.272392]],[[103.533267,-0.271792],[103.535488,-0.270564],[103.532204,-0.27224],[103.533267,-0.271792]],[[103.533352,-0.269022],[103.535108,-0.267707],[103.536161,-0.266856],[103.533352,-0.269022]],[[103.548339,-0.257855],[103.54591,-0.258703],[103.544437,-0.259387],[103.548339,-0.257855]],[[103.549207,-0.257686],[103.549795,-0.257486],[103.548339,-0.257855],[103.549207,-0.257686]],[[103.558225,-0.251641],[103.558628,-0.251425],[103.559794,-0.250521],[103.558225,-0.251641]],[[103.558241,-0.253281],[103.55861,-0.253683],[103.557497,-0.25208],[103.558241,-0.253281]],[[103.554631,-0.251807],[103.55527,-0.253324],[103.556027,-0.254802],[103.554631,-0.251807]],[[103.557351,-0.253978],[103.556374,-0.254586],[103.55738,-0.254021],[103.557586,-0.254357],[103.556658,-0.252777],[103.557351,-0.253978]],[[103.554969,-0.25594],[103.555626,-0.255649],[103.556429,-0.25512],[103.554969,-0.25594]],[[103.543707,-0.254949],[103.553898,-0.250233],[103.553898,-0.250233],[103.543707,-0.254949]],[[103.55622,-0.252018],[103.557319,-0.251485],[103.557888,-0.251114],[103.55622,-0.252018]],[[103.555928,-0.251976],[103.554124,-0.248977],[103.555522,-0.251431],[103.555928,-0.251976]],[[103.553466,-0.249306],[103.549417,-0.24189],[103.553466,-0.249306],[103.553466,-0.249306]],[[103.562131,-0.251002],[103.561598,-0.251425],[103.562263,-0.250908],[103.562131,-0.251002]],[[103.562309,-0.250875],[103.562309,-0.250875],[103.564561,-0.253841],[103.562309,-0.250875]],[[103.565425,-0.248656],[103.564914,-0.24902],[103.568559,-0.247092],[103.565425,-0.248656]],[[103.601268,-0.230648],[103.600499,-0.230758],[103.602697,-0.230562],[103.601268,-0.230648]],[[103.638386,-0.237395],[103.638842,-0.238028],[103.638267,-0.237182],[103.638375,-0.237364],[103.636789,-0.238549],[103.638386,-0.237395]],[[103.636735,-0.238491],[103.636791,-0.23855],[103.636789,-0.238549],[103.636735,-0.238491]],[[103.638251,-0.23541],[103.639759,-0.234431],[103.640083,-0.234117],[103.638251,-0.23541]],[[103.638841,-0.235028],[103.63974,-0.23635],[103.638569,-0.237257],[103.639771,-0.236327],[103.638841,-0.235028]],[[103.634715,-0.236448],[103.637045,-0.234752],[103.637574,-0.23434],[103.634715,-0.236448]],[[103.635643,-0.237831],[103.635643,-0.237831],[103.634715,-0.236448],[103.635643,-0.237831]],[[103.633565,-0.239331],[103.633565,-0.239331],[103.634152,-0.240024],[103.633565,-0.239331]],[[103.634663,-0.239944],[103.634449,-0.240132],[103.634719,-0.240007],[103.634663,-0.239944]]],[[[103.642672,-0.236597],[103.642291,-0.235864],[103.644043,-0.235184],[103.64462,-0.235755],[103.642672,-0.236597]]]]}}]}