{"type":"FeatureCollection","features":[{"type":"Feature","properties":{"kdkec":"1403070","nmkec":"TEMPULING"},"geometry":{"type":"MultiPolygon","coordinates":[[[[102.870506,-0.529493],[102.865833,-0.532063],[102.8617,-0.534573],[102.85997,-0.535981],[102.85762,-0.537378],[102.854541,-0.53882],[102.852827,-0.537536],[102.846563,-0.530853],[102.844207,-0.529295],[102.841852,-0.528047],[102.837834,-0.526436],[102.833356,-0.525301],[102.831025,-0.525158],[102.824632,-0.525603],[102.824826,-0.519422],[102.82516,-0.515515],[102.828044,-0.495869],[102.827848,-0.493809],[102.826775,-0.48253],[102.819505,-0.447904],[102.782287,-0.244716],[102.80409,-0.244571],[102.825407,-0.258006],[102.870231,-0.28765],[102.883641,-0.296355],[102.896109,-0.30418],[102.935234,-0.329904],[102.947156,-0.362184],[102.96239,-0.387166],[102.962648,-0.389559],[102.9671,-0.389362],[102.967567,-0.391879],[102.967912,-0.396665],[102.98122,-0.396578],[102.986161,-0.397673],[102.98839,-0.397956],[102.989697,-0.397299],[102.993231,-0.394891],[102.995788,-0.39339],[102.996529,-0.396056],[102.99746,-0.398088],[103.001904,-0.405135],[103.003969,-0.40757],[103.013593,-0.400377],[103.016362,-0.398],[103.020534,-0.403274],[103.022946,-0.401591],[103.02405,-0.400237],[103.021038,-0.396958],[103.026553,-0.391798],[103.028773,-0.3858],[103.027979,-0.384391],[103.033576,-0.374565],[103.036023,-0.373974],[103.038615,-0.372828],[103.039479,-0.382054],[103.045764,-0.397635],[103.05846,-0.413319],[103.059003,-0.413777],[103.052353,-0.418839],[103.046255,-0.422801],[103.04086,-0.425754],[103.03564,-0.427274],[103.029997,-0.429272],[103.021663,-0.432806],[103.016768,-0.435487],[103.013889,-0.437937],[103.002578,-0.451282],[102.999343,-0.45376],[102.995885,-0.455842],[102.992471,-0.458134],[102.990165,-0.459812],[102.987401,-0.462162],[102.973033,-0.476714],[102.972079,-0.477028],[102.969322,-0.476801],[102.962537,-0.474955],[102.959858,-0.474482],[102.957466,-0.474663],[102.954217,-0.475657],[102.951055,-0.477686],[102.948829,-0.479955],[102.947852,-0.481559],[102.946426,-0.484755],[102.945633,-0.487118],[102.945061,-0.489712],[102.943948,-0.491698],[102.93971,-0.496048],[102.935988,-0.499537],[102.931144,-0.50523],[102.929645,-0.506519],[102.921214,-0.509476],[102.912995,-0.513574],[102.909968,-0.514726],[102.904482,-0.518692],[102.902924,-0.520594],[102.899759,-0.520668],[102.894078,-0.519569],[102.891378,-0.519367],[102.889165,-0.519456],[102.886338,-0.519861],[102.883867,-0.520581],[102.881649,-0.521707],[102.878751,-0.523866],[102.876966,-0.525595],[102.874319,-0.527594],[102.870506,-0.529493]],[[102.858837,-0.508606],[102.863861,-0.525719],[102.865833,-0.532063],[102.858837,-0.508606]],[[102.832609,-0.493752],[102.835276,-0.493704],[102.827848,-0.493809],[102.832609,-0.493752]],[[102.921524,-0.409182],[102.917325,-0.396654],[102.883641,-0.296355],[102.921524,-0.409182]],[[103.011417,-0.413289],[103.02063,-0.430839],[103.021663,-0.432806],[103.011417,-0.413289]],[[102.920325,-0.506093],[102.920604,-0.507311],[102.921214,-0.509476],[102.920325,-0.506093]],[[102.91193,-0.510813],[102.909695,-0.503284],[102.911625,-0.510022],[102.912995,-0.513574],[102.91193,-0.510813]],[[102.918129,-0.508519],[102.918191,-0.508786],[102.918129,-0.508519],[102.91193,-0.510813],[102.918129,-0.508519]],[[102.912224,-0.498981],[102.912296,-0.498827],[102.909695,-0.503284],[102.912224,-0.498981]],[[102.886614,-0.443387],[102.90542,-0.415921],[102.890897,-0.437102],[102.886614,-0.443387]],[[102.908052,-0.418732],[102.899456,-0.409269],[102.90542,-0.415921],[102.908052,-0.418732]],[[102.871081,-0.506025],[102.847412,-0.5066],[102.863567,-0.506248],[102.871081,-0.506025]],[[102.898338,-0.501706],[102.892586,-0.501623],[102.890879,-0.501638],[102.898338,-0.501706]],[[102.899052,-0.512866],[102.898442,-0.503337],[102.898338,-0.501706],[102.899052,-0.512866]],[[102.876176,-0.507321],[102.884192,-0.506274],[102.884192,-0.506274],[102.871632,-0.507777],[102.876176,-0.507321]],[[102.874585,-0.500509],[102.874478,-0.488567],[102.874585,-0.500509],[102.874585,-0.500509]],[[102.902226,-0.505439],[102.906316,-0.517335],[102.904291,-0.511395],[102.902226,-0.505439]],[[102.865096,-0.435477],[102.866281,-0.451346],[102.865561,-0.441622],[102.865096,-0.435477]],[[102.866522,-0.466146],[102.86652,-0.465157],[102.866281,-0.451346],[102.866522,-0.466146]],[[102.872548,-0.442065],[102.877622,-0.442038],[102.873245,-0.44205],[102.865561,-0.441622],[102.872548,-0.442065]],[[102.908019,-0.470977],[102.907856,-0.466021],[102.908017,-0.471589],[102.907965,-0.48328],[102.908019,-0.470977]],[[102.908738,-0.483726],[102.909843,-0.483948],[102.909082,-0.483795],[102.907965,-0.48328],[102.908738,-0.483726]],[[102.911075,-0.47913],[102.911507,-0.478072],[102.909082,-0.483795],[102.911075,-0.47913]],[[102.913901,-0.493378],[102.913018,-0.491264],[102.912933,-0.491138],[102.913901,-0.493545],[102.913901,-0.494434],[102.913901,-0.493378]],[[102.858891,-0.467505],[102.859173,-0.481279],[102.85895,-0.468066],[102.8574,-0.428057],[102.858891,-0.467505]],[[102.890014,-0.451581],[102.889765,-0.471134],[102.889847,-0.47418],[102.889865,-0.474602],[102.889778,-0.471585],[102.890014,-0.451581]],[[102.888786,-0.474183],[102.886831,-0.474187],[102.88492,-0.4742],[102.889847,-0.47418],[102.888786,-0.474183]],[[102.891419,-0.479066],[102.890595,-0.479263],[102.892107,-0.479064],[102.891419,-0.479066]],[[102.86981,-0.472764],[102.868384,-0.473866],[102.870999,-0.471845],[102.86981,-0.472764]],[[102.879093,-0.470895],[102.884756,-0.473925],[102.881854,-0.472353],[102.879093,-0.470895]],[[102.875569,-0.468168],[102.875619,-0.470415],[102.875412,-0.459607],[102.875511,-0.465007],[102.875569,-0.468168]],[[102.903649,-0.485656],[102.902258,-0.485593],[102.902393,-0.485599],[102.903649,-0.485656]],[[102.841742,-0.466783],[102.841742,-0.46673],[102.840979,-0.484519],[102.841742,-0.466783]],[[102.841804,-0.460351],[102.841868,-0.453702],[102.841785,-0.459309],[102.841804,-0.460351]],[[102.842115,-0.42818],[102.842122,-0.427502],[102.84211,-0.426743],[102.842115,-0.42818]],[[102.857872,-0.467776],[102.85474,-0.466882],[102.85439,-0.46684],[102.856715,-0.467515],[102.857872,-0.467776]],[[102.843197,-0.493855],[102.841279,-0.493854],[102.841591,-0.493862],[102.843197,-0.493855]],[[102.848188,-0.525413],[102.848188,-0.525413],[102.84716,-0.527136],[102.848188,-0.525413]],[[102.845891,-0.526376],[102.84782,-0.527557],[102.84716,-0.527136],[102.845891,-0.526376]],[[102.851372,-0.528574],[102.850826,-0.528285],[102.850826,-0.528285],[102.851372,-0.528574]],[[102.84942,-0.532384],[102.84928,-0.532247],[102.849456,-0.532516],[102.849543,-0.532401],[102.84942,-0.532384]],[[102.850387,-0.532942],[102.849773,-0.532527],[102.849967,-0.53268],[102.850387,-0.532942]],[[102.848104,-0.53069],[102.848828,-0.531279],[102.848828,-0.531279],[102.848104,-0.53069]],[[102.849205,-0.530736],[102.849791,-0.529874],[102.850014,-0.529514],[102.849205,-0.530736]],[[102.859246,-0.526919],[102.855058,-0.527685],[102.857808,-0.527183],[102.859246,-0.526919]],[[102.855122,-0.529858],[102.855122,-0.529858],[102.853633,-0.530709],[102.855122,-0.529858]],[[102.919257,-0.508169],[102.919842,-0.50966],[102.91914,-0.507755],[102.919257,-0.508169]],[[102.948214,-0.452444],[102.951709,-0.449789],[102.951709,-0.449789],[102.948421,-0.452213],[102.948214,-0.452444]],[[102.964438,-0.473783],[102.964483,-0.472415],[102.964363,-0.475418],[102.964438,-0.473783]],[[103.000904,-0.425827],[103.003479,-0.424159],[103.002163,-0.424985],[103.000904,-0.425827]],[[103.000633,-0.446428],[103.001649,-0.445775],[103.000275,-0.446591],[103.000633,-0.446428]],[[102.993016,-0.443909],[102.994106,-0.443163],[102.99765,-0.440698],[102.993016,-0.443909]],[[102.978497,-0.427722],[102.993491,-0.444559],[102.993016,-0.443909],[102.978497,-0.427722]],[[102.996204,-0.446975],[102.996868,-0.448084],[102.994106,-0.443163],[102.996204,-0.446975]],[[102.997317,-0.450929],[102.997682,-0.45069],[102.998822,-0.449744],[102.998676,-0.449865],[102.997317,-0.450929]],[[102.996371,-0.451278],[102.996822,-0.450984],[102.996371,-0.451278],[102.996371,-0.451278]],[[102.996148,-0.451225],[102.996229,-0.451175],[102.995964,-0.45096],[102.996148,-0.451225]],[[102.994425,-0.449849],[102.993644,-0.448925],[102.995765,-0.45154],[102.99557,-0.451206],[102.994425,-0.449849]],[[102.995922,-0.451809],[102.995922,-0.451809],[102.995362,-0.452175],[102.995922,-0.451809]],[[102.96337,-0.396695],[102.963745,-0.40397],[102.963584,-0.400855],[102.96337,-0.396695]],[[102.998823,-0.449744],[102.999321,-0.450386],[102.999124,-0.450122],[102.998823,-0.449744]],[[103.000858,-0.451629],[103.001955,-0.450693],[103.001953,-0.450685],[103.000858,-0.451629]],[[102.99869,-0.453361],[102.998163,-0.453748],[102.998163,-0.453748],[102.99869,-0.453361]],[[102.99933,-0.452516],[102.998986,-0.452822],[102.999352,-0.452553],[102.999719,-0.452897],[102.99933,-0.452516]],[[103.001894,-0.44663],[103.002171,-0.447015],[103.002482,-0.446684],[103.002127,-0.446955],[103.001894,-0.44663]],[[103.002759,-0.446539],[103.003444,-0.445951],[103.002725,-0.446499],[103.002759,-0.446539]],[[103.001889,-0.450324],[103.000664,-0.448961],[103.001917,-0.45048],[103.001889,-0.450324]],[[102.955366,-0.473945],[102.955436,-0.470907],[102.955354,-0.474444],[102.955503,-0.475197],[102.955366,-0.473945]],[[102.94671,-0.454126],[102.94671,-0.454126],[102.938568,-0.445644],[102.94671,-0.454126]],[[102.920367,-0.419024],[102.92993,-0.433011],[102.938568,-0.445644],[102.920367,-0.419024]],[[102.937949,-0.452158],[102.923993,-0.438004],[102.937949,-0.452158],[102.937949,-0.452158]],[[102.905612,-0.42771],[102.905012,-0.428531],[102.900273,-0.435579],[102.901763,-0.433363],[102.905612,-0.42771]],[[102.938993,-0.474222],[102.943838,-0.478234],[102.926341,-0.463293],[102.938993,-0.474222]],[[102.958754,-0.473572],[102.959152,-0.473528],[102.958869,-0.473551],[102.958754,-0.473572]],[[102.953353,-0.464545],[102.945199,-0.455925],[102.939808,-0.450253],[102.953353,-0.464545]]],[[[102.770198,-0.479907],[102.769766,-0.477279],[102.768097,-0.472978],[102.76706,-0.469024],[102.766131,-0.467571],[102.765718,-0.46662],[102.763304,-0.463284],[102.761851,-0.461565],[102.763282,-0.459483],[102.763618,-0.455679],[102.762047,-0.455492],[102.762892,-0.431124],[102.789209,-0.430242],[102.797761,-0.458759],[102.802909,-0.475016],[102.805537,-0.484492],[102.804018,-0.496398],[102.804294,-0.498326],[102.803469,-0.499989],[102.801963,-0.501908],[102.79818,-0.499477],[102.796642,-0.49889],[102.793236,-0.498041],[102.786977,-0.49768],[102.782575,-0.498227],[102.781275,-0.498107],[102.779822,-0.497713],[102.77887,-0.497045],[102.776381,-0.493699],[102.773715,-0.49105],[102.771792,-0.489684],[102.770449,-0.488472],[102.76999,-0.487641],[102.769881,-0.485347],[102.770198,-0.479907]],[[102.76764,-0.460706],[102.765412,-0.46201],[102.763304,-0.463284],[102.76764,-0.460706]],[[102.770061,-0.458011],[102.763461,-0.457457],[102.765025,-0.457595],[102.770061,-0.458011]],[[102.770055,-0.458063],[102.770191,-0.458006],[102.770449,-0.458039],[102.770116,-0.457962],[102.770055,-0.458063]],[[102.782853,-0.468622],[102.788892,-0.476386],[102.791628,-0.479811],[102.782853,-0.468622],[102.782853,-0.468622]],[[102.785667,-0.482345],[102.784114,-0.482988],[102.784595,-0.482801],[102.785667,-0.482345]],[[102.765318,-0.460337],[102.764918,-0.459502],[102.76491,-0.459637],[102.765318,-0.460337]],[[102.76827,-0.462438],[102.768444,-0.461509],[102.768367,-0.461701],[102.76827,-0.462438]],[[102.765681,-0.464419],[102.765701,-0.464489],[102.765894,-0.464263],[102.765681,-0.464419]],[[102.768616,-0.461087],[102.768789,-0.460842],[102.768719,-0.460833],[102.768616,-0.461087]],[[102.770114,-0.455324],[102.770182,-0.456166],[102.769778,-0.456806],[102.770153,-0.456354],[102.770239,-0.455796],[102.770114,-0.455324]]],[[[102.948796,-0.491049],[102.952262,-0.483342],[102.953299,-0.4819],[102.955818,-0.481998],[102.966308,-0.481251],[102.972692,-0.480099],[102.977268,-0.478019],[102.982808,-0.472973],[102.986896,-0.468689],[102.992259,-0.464619],[102.99808,-0.46068],[103.006781,-0.452737],[103.016807,-0.44204],[103.019653,-0.439865],[103.02356,-0.438208],[103.033269,-0.43448],[103.049316,-0.428553],[103.058802,-0.424076],[103.063955,-0.42007],[103.068027,-0.428896],[103.068053,-0.443968],[103.066315,-0.462894],[103.066287,-0.46625],[103.036058,-0.477543],[102.979536,-0.515831],[102.965485,-0.525603],[102.962702,-0.521571],[102.951204,-0.501494],[102.951418,-0.49552],[102.951097,-0.492959],[102.948796,-0.491049]],[[103.053242,-0.4471],[103.055604,-0.445755],[103.055604,-0.445755],[103.053242,-0.4471]],[[103.038169,-0.433884],[103.038799,-0.436032],[103.038835,-0.43607],[103.038169,-0.433884]],[[103.041333,-0.44538],[103.04202,-0.447164],[103.041874,-0.446656],[103.041333,-0.44538]],[[103.043001,-0.451936],[103.042779,-0.451991],[103.043002,-0.451941],[103.043001,-0.451936]]],[[[102.98271,-0.466916],[102.98271,-0.466916],[102.98271,-0.466916],[102.98271,-0.466916]]]]}}]}