{"type":"FeatureCollection","features":[{"type":"Feature","properties":{"kdkec":"1403010","nmkec":"KERITANG"},"geometry":{"type":"Polygon","coordinates":[[[102.879853,-0.826479],[102.879343,-0.825799],[102.874509,-0.823087],[102.864017,-0.823087],[102.86196,-0.823301],[102.862305,-0.821664],[102.862033,-0.818712],[102.853532,-0.818968],[102.85349,-0.823139],[102.851167,-0.82238],[102.846613,-0.821586],[102.847025,-0.813329],[102.844834,-0.81309],[102.840206,-0.812123],[102.836989,-0.81188],[102.816429,-0.806801],[102.81142,-0.805122],[102.813079,-0.79281],[102.805282,-0.78638],[102.789905,-0.777642],[102.802857,-0.75859],[102.794965,-0.756583],[102.775043,-0.769214],[102.737403,-0.747874],[102.736341,-0.750466],[102.734809,-0.752235],[102.727382,-0.754239],[102.723963,-0.757657],[102.713706,-0.764261],[102.712409,-0.768621],[102.709816,-0.772865],[102.705454,-0.775695],[102.704063,-0.777137],[102.693047,-0.781476],[102.688099,-0.780564],[102.68145,-0.780871],[102.678354,-0.781476],[102.674186,-0.780603],[102.674449,-0.778163],[102.676711,-0.777789],[102.67509,-0.772207],[102.674054,-0.770661],[102.673677,-0.7697],[102.671799,-0.767768],[102.673008,-0.766116],[102.661129,-0.757489],[102.65924,-0.759369],[102.645713,-0.749068],[102.648464,-0.743933],[102.638714,-0.736797],[102.638669,-0.732589],[102.639042,-0.722046],[102.641136,-0.710065],[102.642758,-0.698574],[102.64546,-0.689522],[102.656983,-0.678891],[102.667131,-0.672088],[102.66768,-0.656687],[102.666025,-0.637244],[102.663935,-0.619751],[102.663744,-0.614986],[102.662018,-0.603367],[102.663545,-0.591483],[102.667159,-0.591555],[102.666771,-0.58225],[102.669307,-0.582325],[102.669387,-0.576613],[102.651831,-0.576369],[102.651685,-0.557106],[102.677302,-0.557124],[102.680564,-0.563664],[102.675624,-0.553727],[102.687293,-0.539423],[102.717989,-0.550186],[102.739275,-0.558904],[102.739598,-0.560957],[102.740139,-0.562956],[102.740598,-0.566164],[102.740848,-0.570039],[102.740889,-0.574143],[102.740702,-0.575663],[102.744743,-0.575997],[102.745222,-0.57232],[102.74529,-0.566987],[102.749548,-0.566696],[102.75575,-0.56567],[102.816427,-0.590762],[102.820853,-0.593067],[102.81899,-0.595573],[102.844794,-0.631602],[102.847962,-0.633204],[102.848901,-0.632629],[102.850121,-0.633919],[102.851977,-0.643274],[102.853669,-0.650435],[102.851652,-0.655735],[102.854205,-0.664316],[102.854097,-0.664392],[102.857735,-0.661835],[102.861116,-0.64661],[102.876323,-0.637658],[102.871987,-0.632709],[102.879007,-0.630743],[102.890842,-0.630308],[102.90454,-0.628871],[102.913102,-0.62478],[102.915903,-0.630229],[102.916345,-0.634462],[102.933815,-0.674601],[102.924587,-0.653399],[102.973224,-0.626258],[102.967054,-0.614568],[102.965315,-0.608653],[102.994665,-0.599678],[103.013008,-0.592769],[103.016652,-0.591285],[103.020179,-0.589453],[103.023867,-0.588425],[103.02638,-0.586808],[103.032326,-0.586127],[103.041001,-0.586686],[103.044656,-0.587684],[103.042786,-0.602888],[103.048199,-0.613628],[103.050494,-0.626378],[103.051137,-0.666875],[103.051514,-0.669974],[103.048396,-0.672302],[103.045292,-0.675249],[103.042772,-0.678382],[103.04252,-0.682056],[103.041144,-0.682176],[103.035083,-0.684462],[103.030782,-0.686509],[103.026369,-0.688847],[103.020327,-0.691733],[103.019017,-0.692409],[103.017476,-0.693151],[103.01651,-0.693614],[103.016129,-0.693798],[102.998687,-0.70047],[102.990816,-0.704918],[102.988744,-0.705457],[102.986634,-0.705403],[102.982326,-0.704047],[102.979634,-0.703613],[102.975921,-0.703587],[102.964967,-0.70543],[102.962326,-0.706115],[102.958208,-0.707888],[102.956332,-0.709811],[102.954734,-0.712066],[102.952945,-0.714139],[102.951065,-0.714942],[102.946095,-0.716153],[102.942366,-0.717612],[102.939935,-0.719349],[102.938145,-0.721085],[102.937616,-0.722398],[102.93729,-0.722822],[102.934993,-0.729367],[102.932721,-0.732977],[102.930117,-0.73839],[102.930511,-0.739229],[102.931488,-0.739673],[102.932749,-0.735298],[102.933817,-0.733374],[102.935393,-0.731264],[102.93626,-0.729587],[102.938813,-0.723142],[102.940301,-0.721274],[102.940919,-0.720678],[102.944142,-0.718704],[102.947434,-0.71735],[102.952679,-0.715942],[102.954255,-0.715154],[102.955804,-0.713819],[102.957464,-0.711574],[102.958682,-0.709173],[102.960017,-0.708435],[102.962884,-0.7073],[102.965854,-0.707036],[102.976357,-0.705514],[102.980329,-0.705403],[102.983561,-0.706579],[102.985315,-0.706892],[102.988691,-0.70714],[102.993295,-0.705506],[102.998976,-0.70209],[103.004677,-0.700211],[103.013605,-0.696901],[103.021441,-0.693351],[103.030998,-0.6886],[103.033602,-0.68711],[103.036317,-0.686001],[103.037171,-0.689933],[103.03787,-0.694295],[103.038347,-0.698894],[103.038347,-0.70474],[103.037555,-0.716422],[103.037672,-0.733671],[103.038687,-0.752755],[103.039025,-0.752763],[103.0384,-0.766877],[103.03483,-0.765148],[103.033987,-0.765134],[103.02969,-0.75531],[103.021628,-0.755168],[103.012235,-0.755348],[103.008723,-0.758052],[103.003615,-0.762933],[102.997249,-0.771675],[102.980074,-0.796671],[102.979837,-0.79999],[102.979427,-0.802697],[102.974549,-0.810246],[102.968763,-0.816602],[102.964829,-0.816879],[102.961872,-0.820631],[102.948825,-0.840007],[102.940164,-0.851314],[102.935053,-0.857809],[102.934105,-0.858773],[102.928056,-0.867498],[102.918497,-0.877531],[102.917052,-0.875725],[102.916834,-0.875766],[102.879853,-0.826479]],[[102.847308,-0.793807],[102.847347,-0.787362],[102.847025,-0.813329],[102.847308,-0.793807]],[[102.847658,-0.785326],[102.849292,-0.774582],[102.847347,-0.787362],[102.847658,-0.785326]],[[102.969455,-0.661817],[102.975461,-0.675311],[102.957806,-0.634918],[102.969455,-0.661817]],[[103.032395,-0.605245],[103.032405,-0.607901],[103.032326,-0.586127],[103.032395,-0.605245]],[[103.016973,-0.691925],[103.017302,-0.692751],[103.017476,-0.693151],[103.016973,-0.691925]],[[103.017834,-0.691605],[103.018706,-0.691275],[103.016829,-0.691975],[103.016973,-0.691925],[103.017834,-0.691605]],[[102.935723,-0.718437],[102.935636,-0.718286],[102.937616,-0.722398],[102.935723,-0.718437]],[[102.942468,-0.72336],[102.942139,-0.723037],[102.940301,-0.721274],[102.942468,-0.72336]],[[102.942649,-0.722429],[102.94277,-0.722545],[102.940919,-0.720678],[102.942649,-0.722429]],[[102.944485,-0.719692],[102.944701,-0.719999],[102.944142,-0.718704],[102.944485,-0.719692]],[[102.95664,-0.81204],[102.954418,-0.808297],[102.950565,-0.802052],[102.949717,-0.800671],[102.961872,-0.820631],[102.95664,-0.81204]],[[102.955742,-0.797077],[102.955742,-0.797077],[102.950565,-0.802052],[102.955742,-0.797077]],[[102.669708,-0.608082],[102.66813,-0.60545],[102.667964,-0.605341],[102.669708,-0.608082]],[[102.692459,-0.642934],[102.695089,-0.636691],[102.692629,-0.642465],[102.692459,-0.642934]],[[102.707782,-0.653167],[102.706603,-0.650874],[102.706582,-0.650876],[102.707782,-0.653167]],[[102.71508,-0.656662],[102.715254,-0.656659],[102.715021,-0.656649],[102.71508,-0.656662]],[[102.716854,-0.656629],[102.720215,-0.656111],[102.716381,-0.656638],[102.716854,-0.656629]],[[102.719379,-0.658992],[102.720247,-0.659052],[102.720246,-0.659027],[102.719379,-0.658992]],[[102.719077,-0.667144],[102.718898,-0.670901],[102.71871,-0.680338],[102.719128,-0.666981],[102.719077,-0.667144]],[[102.717822,-0.739718],[102.717822,-0.739718],[102.71991,-0.72486],[102.717822,-0.739718]],[[102.720445,-0.750872],[102.721748,-0.749144],[102.730273,-0.736092],[102.726105,-0.742437],[102.720445,-0.750872]],[[102.727363,-0.621518],[102.73758,-0.634432],[102.73758,-0.634432],[102.727363,-0.621518]],[[102.875515,-0.744619],[102.875515,-0.744619],[102.877307,-0.73974],[102.875515,-0.744619]],[[102.881025,-0.746011],[102.881092,-0.74601],[102.877407,-0.745443],[102.881025,-0.746011]],[[102.892298,-0.746524],[102.892298,-0.746524],[102.888913,-0.745944],[102.892298,-0.746524]],[[102.899839,-0.74813],[102.899839,-0.74813],[102.896417,-0.747945],[102.899839,-0.74813]],[[102.902905,-0.747923],[102.9045,-0.747509],[102.902661,-0.747939],[102.902905,-0.747923]],[[102.911363,-0.752808],[102.910946,-0.749787],[102.910255,-0.746164],[102.910254,-0.746164],[102.911363,-0.752808]],[[102.883524,-0.793916],[102.883524,-0.793916],[102.88632,-0.791742],[102.883524,-0.793916]],[[102.757397,-0.653702],[102.752456,-0.654164],[102.755052,-0.653949],[102.757397,-0.653702]],[[102.887132,-0.751815],[102.88781,-0.745958],[102.887158,-0.751168],[102.887132,-0.751815]],[[102.909265,-0.753055],[102.911363,-0.752808],[102.909265,-0.753055],[102.909265,-0.753055]],[[102.761394,-0.676795],[102.756439,-0.69544],[102.759553,-0.683722],[102.761394,-0.676795]],[[102.776396,-0.663097],[102.774437,-0.677277],[102.774959,-0.673498],[102.776396,-0.663097]],[[102.797087,-0.676893],[102.783385,-0.674693],[102.774959,-0.673498],[102.797087,-0.676893]],[[102.786449,-0.662476],[102.796164,-0.662044],[102.786449,-0.662476],[102.783385,-0.674693],[102.786449,-0.662476]],[[102.794678,-0.68746],[102.794538,-0.685776],[102.794535,-0.685783],[102.794678,-0.68746]],[[102.812526,-0.699971],[102.809209,-0.698564],[102.812762,-0.70011],[102.812526,-0.699971]],[[102.815885,-0.702724],[102.814683,-0.701247],[102.81642,-0.703664],[102.815885,-0.702724]],[[102.820927,-0.706552],[102.819491,-0.705945],[102.822028,-0.707018],[102.820927,-0.706552]],[[102.809392,-0.740111],[102.817237,-0.729097],[102.806864,-0.743661],[102.809392,-0.740111]],[[102.832009,-0.717154],[102.812092,-0.741076],[102.814061,-0.738711],[102.832009,-0.717154]],[[102.831192,-0.730644],[102.831518,-0.728628],[102.828171,-0.749275],[102.828537,-0.747015],[102.831192,-0.730644]],[[102.833568,-0.724381],[102.834089,-0.7233],[102.831518,-0.728628],[102.833568,-0.724381]],[[102.858466,-0.727534],[102.856802,-0.729627],[102.8568,-0.729631],[102.858466,-0.727534]],[[102.800031,-0.743646],[102.802371,-0.743331],[102.802412,-0.743234],[102.800031,-0.743646]],[[102.797441,-0.752766],[102.803044,-0.755005],[102.808204,-0.75486],[102.803069,-0.754995],[102.797441,-0.752766]],[[102.905898,-0.749851],[102.905544,-0.747265],[102.905552,-0.747433],[102.905898,-0.749851]],[[102.897611,-0.767239],[102.8977,-0.750872],[102.897694,-0.751563],[102.897611,-0.767239]],[[102.890309,-0.752151],[102.889982,-0.774282],[102.890337,-0.751844],[102.890309,-0.752151]],[[102.901595,-0.751417],[102.903336,-0.751693],[102.903336,-0.751693],[102.901595,-0.751417]],[[102.902696,-0.767211],[102.903413,-0.777329],[102.901595,-0.751417],[102.902696,-0.767211]],[[102.905598,-0.749877],[102.906176,-0.753918],[102.905598,-0.749877],[102.905598,-0.749877]],[[102.810691,-0.756292],[102.813854,-0.758584],[102.81706,-0.760699],[102.810691,-0.756292]],[[102.82704,-0.764873],[102.828827,-0.765609],[102.830727,-0.766369],[102.82704,-0.764873]],[[102.833139,-0.767492],[102.833389,-0.767243],[102.833119,-0.767512],[102.833215,-0.767988],[102.833139,-0.767492]],[[102.836732,-0.76554],[102.836473,-0.765125],[102.836436,-0.765112],[102.836732,-0.76554]],[[102.836434,-0.765112],[102.836434,-0.765112],[102.836307,-0.786132],[102.836434,-0.765112]],[[102.813943,-0.77616],[102.813529,-0.77695],[102.813009,-0.778273],[102.813943,-0.77616]],[[102.821669,-0.768111],[102.821714,-0.768063],[102.820812,-0.768582],[102.821669,-0.768111]],[[102.809374,-0.761497],[102.811188,-0.760318],[102.805464,-0.76404],[102.809374,-0.761497]],[[102.852764,-0.782433],[102.852863,-0.793873],[102.852926,-0.800335],[102.852764,-0.782433]],[[102.850961,-0.755396],[102.850511,-0.755472],[102.848942,-0.755492],[102.849912,-0.755571],[102.850961,-0.755396]],[[102.868128,-0.748995],[102.870965,-0.750672],[102.87226,-0.751303],[102.868128,-0.748995]],[[102.8678,-0.758886],[102.866709,-0.760563],[102.866721,-0.760558],[102.8678,-0.758886]],[[102.86607,-0.760844],[102.86607,-0.760844],[102.868819,-0.764712],[102.86607,-0.760844]],[[102.849141,-0.749295],[102.849141,-0.749295],[102.847797,-0.748242],[102.849141,-0.749295]],[[102.869811,-0.763264],[102.871109,-0.764768],[102.869989,-0.763376],[102.868938,-0.76247],[102.869811,-0.763264]],[[102.782607,-0.722578],[102.782588,-0.72254],[102.781099,-0.723002],[102.782607,-0.722578]],[[102.776497,-0.723644],[102.767865,-0.719393],[102.76228,-0.716717],[102.77653,-0.723681],[102.781099,-0.723002],[102.776497,-0.723644]],[[102.78907,-0.734643],[102.785605,-0.728697],[102.785687,-0.728868],[102.78907,-0.734643]],[[102.693825,-0.698968],[102.693825,-0.698968],[102.696945,-0.699078],[102.693825,-0.698968]],[[102.717822,-0.739718],[102.698813,-0.732739],[102.717549,-0.739628],[102.717822,-0.739718]],[[102.679843,-0.702445],[102.676689,-0.70534],[102.675237,-0.706673],[102.679843,-0.702445]],[[102.670413,-0.717426],[102.668336,-0.713904],[102.673262,-0.722258],[102.670413,-0.717426]],[[102.686152,-0.74889],[102.683875,-0.747197],[102.675382,-0.740882],[102.686152,-0.74889]],[[102.67313,-0.743643],[102.67313,-0.743643],[102.675382,-0.740882],[102.67313,-0.743643]],[[102.662843,-0.711174],[102.67035,-0.734872],[102.67313,-0.743643],[102.662843,-0.711174]],[[102.651772,-0.711331],[102.652519,-0.711352],[102.653521,-0.71132],[102.651772,-0.711331]],[[102.663961,-0.707226],[102.664594,-0.706383],[102.664353,-0.706703],[102.663961,-0.707226]],[[102.683843,-0.776491],[102.68017,-0.77447],[102.685964,-0.762601],[102.68016,-0.774461],[102.678262,-0.773202],[102.679302,-0.773997],[102.683843,-0.776491]],[[102.830216,-0.70603],[102.831361,-0.706122],[102.833939,-0.706092],[102.830216,-0.70603]],[[102.826381,-0.693143],[102.835324,-0.671154],[102.830577,-0.682482],[102.826381,-0.693143]],[[102.849597,-0.712642],[102.848028,-0.710082],[102.847723,-0.709584],[102.849597,-0.712642]],[[102.859255,-0.723501],[102.859237,-0.723282],[102.859431,-0.725625],[102.859255,-0.723501]],[[102.860802,-0.722873],[102.860172,-0.72303],[102.859237,-0.723282],[102.860802,-0.722873]],[[102.860734,-0.722657],[102.860725,-0.722659],[102.860106,-0.721313],[102.860802,-0.722873],[102.860734,-0.722657]],[[102.839622,-0.707531],[102.839686,-0.707537],[102.840571,-0.704299],[102.839622,-0.707531]],[[102.842895,-0.707892],[102.843338,-0.707964],[102.842895,-0.707892],[102.842895,-0.707892]],[[102.845995,-0.708397],[102.844078,-0.712332],[102.846015,-0.7084],[102.845995,-0.708397]],[[102.865855,-0.725695],[102.865455,-0.725885],[102.871981,-0.722781],[102.865855,-0.725695]],[[102.862374,-0.721991],[102.861796,-0.722167],[102.864605,-0.721346],[102.862374,-0.721991]],[[102.859804,-0.721899],[102.859621,-0.721559],[102.859469,-0.721296],[102.85973,-0.721939],[102.859804,-0.721899]],[[102.86109,-0.718811],[102.860935,-0.718622],[102.861872,-0.720749],[102.86109,-0.718811]],[[102.860641,-0.671113],[102.861379,-0.663732],[102.862484,-0.650816],[102.860641,-0.671113]],[[102.806103,-0.651142],[102.801642,-0.649652],[102.80164,-0.649656],[102.806103,-0.651142]],[[102.81638,-0.647573],[102.807038,-0.652082],[102.81638,-0.647573],[102.81638,-0.647573]],[[102.823669,-0.639011],[102.823329,-0.639793],[102.823769,-0.638893],[102.823669,-0.639011]],[[102.823847,-0.638801],[102.823833,-0.638818],[102.823923,-0.638788],[102.823847,-0.638801]],[[102.824233,-0.638685],[102.825236,-0.639649],[102.823933,-0.638221],[102.824233,-0.638685]],[[102.802829,-0.666922],[102.814872,-0.670123],[102.814872,-0.670123],[102.802829,-0.666922]],[[102.798029,-0.690169],[102.799458,-0.68853],[102.798878,-0.689196],[102.798029,-0.690169]],[[102.814872,-0.670123],[102.827838,-0.654411],[102.817224,-0.667265],[102.814872,-0.670123]],[[102.821873,-0.651065],[102.821802,-0.651075],[102.827838,-0.654411],[102.821873,-0.651065]],[[102.802487,-0.685132],[102.811889,-0.673738],[102.809493,-0.676642],[102.802487,-0.685132]],[[102.799577,-0.68246],[102.802041,-0.684764],[102.800254,-0.685783],[102.802042,-0.684764],[102.802487,-0.685132],[102.799577,-0.68246]],[[102.798404,-0.686854],[102.79771,-0.68732],[102.798158,-0.687115],[102.798404,-0.686854]],[[102.836677,-0.657468],[102.836677,-0.657468],[102.834898,-0.656748],[102.836677,-0.657468]],[[102.830999,-0.672311],[102.830352,-0.673299],[102.831695,-0.671281],[102.830999,-0.672311]],[[102.831185,-0.673276],[102.829582,-0.676405],[102.834102,-0.66772],[102.834097,-0.667727],[102.831185,-0.673276]],[[102.823982,-0.643595],[102.823873,-0.643938],[102.823139,-0.646494],[102.823982,-0.643595]],[[102.751381,-0.600469],[102.750893,-0.599969],[102.752597,-0.602158],[102.751381,-0.600469]],[[102.754811,-0.603618],[102.757455,-0.605462],[102.755885,-0.604326],[102.754811,-0.603618]],[[102.758446,-0.606725],[102.75829,-0.606385],[102.757455,-0.605462],[102.758446,-0.606725]],[[102.754347,-0.628176],[102.753792,-0.629126],[102.753718,-0.629316],[102.754347,-0.628176]],[[102.753217,-0.63225],[102.752705,-0.633812],[102.752688,-0.634043],[102.753217,-0.63225]],[[102.752637,-0.634764],[102.75258,-0.635554],[102.752607,-0.637416],[102.752637,-0.634764]],[[102.755668,-0.639596],[102.75605,-0.640244],[102.756036,-0.640147],[102.755668,-0.639596]],[[102.757511,-0.641427],[102.757593,-0.641015],[102.757502,-0.640364],[102.757511,-0.641427]],[[102.759527,-0.641997],[102.759682,-0.642029],[102.757593,-0.641015],[102.759527,-0.641997]],[[102.759847,-0.642063],[102.760367,-0.642168],[102.759877,-0.641987],[102.759847,-0.642063]],[[102.76167,-0.64149],[102.764949,-0.633169],[102.760825,-0.643497],[102.76167,-0.64149]],[[102.762,-0.643446],[102.762286,-0.642845],[102.76266,-0.641794],[102.762,-0.643446]],[[102.766564,-0.643017],[102.768057,-0.64365],[102.766564,-0.643017],[102.766564,-0.643017]],[[102.762546,-0.646401],[102.760542,-0.65444],[102.757483,-0.664494],[102.760357,-0.655196],[102.762546,-0.646401]],[[102.745727,-0.706449],[102.749421,-0.694083],[102.748176,-0.698082],[102.745727,-0.706449]],[[102.738645,-0.60591],[102.730022,-0.604256],[102.747033,-0.607682],[102.738645,-0.60591]],[[102.739584,-0.58591],[102.739519,-0.58814],[102.739707,-0.582612],[102.739584,-0.58591]],[[102.74009,-0.589743],[102.740113,-0.589807],[102.740328,-0.590108],[102.74009,-0.589743]],[[102.740963,-0.590996],[102.743133,-0.592869],[102.740779,-0.59074],[102.740963,-0.590996]],[[102.748284,-0.598203],[102.748757,-0.598488],[102.747655,-0.597584],[102.748284,-0.598203]],[[102.750437,-0.599502],[102.750333,-0.599395],[102.749411,-0.598883],[102.750437,-0.599502]],[[102.764299,-0.64545],[102.765062,-0.645922],[102.763542,-0.644977],[102.764299,-0.64545]],[[102.776197,-0.606279],[102.776252,-0.594084],[102.776207,-0.604014],[102.776197,-0.606279]],[[102.775585,-0.60938],[102.775428,-0.61018],[102.776197,-0.606279],[102.775585,-0.60938]],[[102.758929,-0.637492],[102.758124,-0.639919],[102.758876,-0.637879],[102.759426,-0.633828],[102.758929,-0.637492]],[[102.763822,-0.625868],[102.762294,-0.627766],[102.767884,-0.62127],[102.763822,-0.625868]],[[102.779899,-0.644622],[102.781271,-0.64476],[102.779362,-0.644568],[102.779899,-0.644622]],[[102.788797,-0.651448],[102.789052,-0.649363],[102.78948,-0.645871],[102.788797,-0.651448]],[[102.797856,-0.648558],[102.796397,-0.647825],[102.797856,-0.648558],[102.797856,-0.648558]],[[102.80141,-0.646395],[102.799587,-0.649064],[102.801946,-0.645625],[102.80141,-0.646395]],[[102.777841,-0.611419],[102.774689,-0.623896],[102.773492,-0.628635],[102.777841,-0.611419]],[[102.813143,-0.631834],[102.815157,-0.627897],[102.821931,-0.613989],[102.813143,-0.631834]],[[102.704247,-0.659297],[102.703738,-0.658698],[102.703881,-0.658898],[102.704247,-0.659297]],[[102.703171,-0.659284],[102.702573,-0.659671],[102.703881,-0.658898],[102.703171,-0.659284]],[[102.704898,-0.659443],[102.702999,-0.66093],[102.704431,-0.659809],[102.704898,-0.659443]],[[102.700693,-0.660851],[102.700825,-0.661238],[102.702624,-0.660503],[102.700852,-0.661226],[102.700693,-0.660851]],[[102.698966,-0.662546],[102.698172,-0.663475],[102.699044,-0.662546],[102.698966,-0.662546]],[[102.694139,-0.67114],[102.694764,-0.668599],[102.693482,-0.673505],[102.694139,-0.67114]],[[102.707786,-0.656651],[102.708106,-0.657216],[102.707226,-0.700519],[102.708109,-0.65707],[102.707786,-0.656651]],[[102.705757,-0.658805],[102.705476,-0.657281],[102.705614,-0.658219],[102.705757,-0.658805]],[[102.70648,-0.658316],[102.70646,-0.658288],[102.705757,-0.658805],[102.70648,-0.658316]],[[102.722571,-0.655611],[102.722571,-0.655611],[102.722665,-0.659687],[102.722571,-0.655611]],[[102.701102,-0.590863],[102.695775,-0.589701],[102.698557,-0.590327],[102.701102,-0.590863]],[[102.706678,-0.591856],[102.708216,-0.592093],[102.709913,-0.592354],[102.706678,-0.591856],[102.706678,-0.591856]],[[102.726081,-0.654532],[102.728287,-0.653404],[102.726788,-0.654119],[102.726081,-0.654532]],[[102.716899,-0.611879],[102.713815,-0.611963],[102.713815,-0.611963],[102.716899,-0.611879]],[[102.689166,-0.617001],[102.691453,-0.613784],[102.694308,-0.609769],[102.689166,-0.617001]],[[102.918281,-0.745016],[102.919674,-0.744278],[102.91993,-0.744143],[102.920707,-0.743574],[102.918229,-0.745043],[102.918394,-0.745567],[102.918281,-0.745016]],[[102.920664,-0.746357],[102.920414,-0.745647],[102.919674,-0.744278],[102.920664,-0.746357]],[[102.925339,-0.739334],[102.921787,-0.742784],[102.922167,-0.742506],[102.925339,-0.739334]],[[102.92664,-0.735398],[102.927357,-0.739236],[102.9274,-0.739236],[102.92664,-0.735398]],[[102.951567,-0.778377],[102.952323,-0.778255],[102.952914,-0.778023],[102.951567,-0.778377]],[[102.953383,-0.777839],[102.953677,-0.777724],[102.955618,-0.776385],[102.953383,-0.777839]],[[102.952845,-0.766462],[102.956553,-0.765322],[102.955061,-0.765681],[102.952845,-0.766462]],[[102.962631,-0.767249],[102.963295,-0.76643],[102.96281,-0.766983],[102.962631,-0.767249]],[[102.93366,-0.791844],[102.932584,-0.787608],[102.932649,-0.787917],[102.93366,-0.791844]],[[102.960678,-0.803233],[102.960678,-0.803233],[102.958618,-0.805118],[102.960678,-0.803233]],[[102.921733,-0.744681],[102.92088,-0.74351],[102.922024,-0.745248],[102.921733,-0.744681]],[[102.92627,-0.742525],[102.925134,-0.739539],[102.925794,-0.741474],[102.92627,-0.742525]],[[102.924886,-0.741905],[102.925128,-0.741799],[102.925794,-0.741474],[102.924886,-0.741905]],[[102.931687,-0.744062],[102.933049,-0.740514],[102.932099,-0.74275],[102.931687,-0.744062]],[[102.928192,-0.744211],[102.928745,-0.744189],[102.931687,-0.744062],[102.928192,-0.744211]],[[102.92877,-0.749032],[102.92877,-0.74877],[102.928745,-0.744189],[102.92877,-0.749032]],[[102.942423,-0.748507],[102.952525,-0.752775],[102.942423,-0.748507],[102.942423,-0.748507]],[[102.927127,-0.743771],[102.926336,-0.743843],[102.927454,-0.743743],[102.927127,-0.743771]],[[102.927786,-0.743715],[102.928449,-0.743658],[102.928147,-0.743684],[102.927786,-0.743715]],[[102.928205,-0.752364],[102.928284,-0.750552],[102.928802,-0.750591],[102.928265,-0.750551],[102.928205,-0.752364]],[[102.932548,-0.764239],[102.931765,-0.767916],[102.932547,-0.764414],[102.932579,-0.758763],[102.932548,-0.764239]],[[102.935198,-0.776894],[102.932887,-0.770965],[102.93171,-0.768172],[102.935198,-0.776894]],[[102.927588,-0.771909],[102.927177,-0.775893],[102.927192,-0.782313],[102.927179,-0.775985],[102.927588,-0.771909]],[[102.924038,-0.743506],[102.924188,-0.744039],[102.924138,-0.74367],[102.924038,-0.743506]],[[102.924153,-0.744055],[102.92559,-0.743916],[102.924188,-0.744039],[102.924153,-0.744055]],[[102.923698,-0.744655],[102.924222,-0.746267],[102.924221,-0.746128],[102.923698,-0.744655]],[[102.915692,-0.748295],[102.91588,-0.749165],[102.916018,-0.749804],[102.915692,-0.748295]],[[102.913581,-0.75029],[102.915601,-0.749312],[102.91588,-0.749165],[102.913581,-0.75029]],[[102.913849,-0.750857],[102.916018,-0.749804],[102.913849,-0.750857],[102.913849,-0.750857]],[[102.922321,-0.748864],[102.919229,-0.74964],[102.916237,-0.750569],[102.921206,-0.749148],[102.922321,-0.748864]],[[102.920582,-0.74712],[102.922293,-0.746851],[102.922293,-0.746851],[102.92091,-0.747057],[102.920582,-0.74712]],[[102.922279,-0.745896],[102.922221,-0.74575],[102.922288,-0.746496],[102.922279,-0.745896]],[[102.927858,-0.748951],[102.926241,-0.748816],[102.924237,-0.748815],[102.927858,-0.748951]],[[102.924285,-0.742587],[102.924661,-0.743437],[102.924562,-0.743214],[102.924285,-0.742587]],[[102.925531,-0.74559],[102.926286,-0.745606],[102.926286,-0.745606],[102.925531,-0.74559]],[[102.929364,-0.742475],[102.928621,-0.742534],[102.930231,-0.742455],[102.929364,-0.742475]],[[102.92747,-0.74127],[102.92747,-0.74127],[102.926982,-0.741389],[102.92747,-0.74127]],[[102.926674,-0.742134],[102.92691,-0.742112],[102.926899,-0.742011],[102.926442,-0.742156],[102.926674,-0.742134]],[[102.928126,-0.741185],[102.928151,-0.741524],[102.928185,-0.741519],[102.928126,-0.741185]],[[102.928766,-0.741025],[102.92812,-0.741103],[102.92812,-0.741103],[102.928766,-0.741025]],[[102.934163,-0.745795],[102.932128,-0.745186],[102.932549,-0.745312],[102.934163,-0.745795]],[[102.942411,-0.747118],[102.942421,-0.748309],[102.942473,-0.746014],[102.942411,-0.747118]],[[102.967073,-0.749801],[102.957727,-0.750134],[102.964732,-0.74994],[102.967073,-0.749801]],[[102.947467,-0.742411],[102.9438,-0.74397],[102.951255,-0.741013],[102.947467,-0.742411]],[[102.957263,-0.724937],[102.954098,-0.727019],[102.957263,-0.724937],[102.957263,-0.724937]],[[102.960075,-0.735018],[102.962186,-0.736921],[102.964411,-0.738928],[102.960075,-0.735018]],[[102.958884,-0.738136],[102.957226,-0.738778],[102.962186,-0.736921],[102.958884,-0.738136]],[[102.94791,-0.719791],[102.94769,-0.719876],[102.945762,-0.720985],[102.94791,-0.719791]],[[102.950227,-0.722497],[102.948685,-0.720568],[102.94791,-0.719791],[102.950227,-0.722497]],[[102.944985,-0.720402],[102.945039,-0.720479],[102.945762,-0.720985],[102.944985,-0.720402]],[[102.939792,-0.727156],[102.945004,-0.731133],[102.948517,-0.733813],[102.939792,-0.727156]],[[102.955489,-0.739428],[102.953022,-0.736797],[102.955489,-0.739428],[102.955489,-0.739428]],[[102.944185,-0.720843],[102.944185,-0.720843],[102.944584,-0.720607],[102.944185,-0.720843]],[[102.973937,-0.748616],[102.976295,-0.750927],[102.972351,-0.747061],[102.973937,-0.748616]],[[102.985436,-0.744403],[102.983974,-0.745316],[102.981825,-0.746657],[102.985436,-0.744403]],[[102.9629,-0.753278],[102.963244,-0.752923],[102.961867,-0.753945],[102.9629,-0.753278]],[[102.96785,-0.736279],[102.978138,-0.749342],[102.968479,-0.736953],[102.96785,-0.736279]],[[102.98415,-0.738722],[102.978285,-0.731077],[102.98415,-0.738722],[102.98415,-0.738722]],[[102.978513,-0.724317],[102.982958,-0.727196],[102.982958,-0.727196],[102.978513,-0.724317]],[[103.027494,-0.755271],[103.027524,-0.707318],[103.027493,-0.73432],[103.027494,-0.755271]],[[103.005684,-0.760939],[103.002626,-0.745288],[102.998671,-0.725258],[103.005684,-0.760939]],[[103.007436,-0.708118],[103.007284,-0.70824],[103.010609,-0.705644],[103.007436,-0.708118]],[[102.989705,-0.727349],[102.987959,-0.719431],[102.987923,-0.719284],[102.989705,-0.727349]],[[102.989594,-0.713617],[102.990345,-0.717565],[102.994643,-0.746609],[102.990459,-0.718165],[102.989594,-0.713617]],[[103.009333,-0.714053],[103.009333,-0.714053],[103.008143,-0.714406],[103.009333,-0.714053]],[[103.016555,-0.697487],[103.016722,-0.696483],[103.016724,-0.696441],[103.016555,-0.697487]],[[103.016627,-0.698225],[103.017846,-0.697844],[103.016697,-0.698198],[103.016555,-0.697487],[103.016627,-0.698225]],[[103.028903,-0.692651],[103.028889,-0.692715],[103.028905,-0.693391],[103.028903,-0.692651]],[[103.031696,-0.691101],[103.02982,-0.691504],[103.029125,-0.691686],[103.031696,-0.691101]],[[103.023941,-0.695184],[103.024418,-0.695975],[103.023616,-0.694705],[103.023941,-0.695184]],[[102.940988,-0.669188],[102.959033,-0.664524],[102.959033,-0.664523],[102.940988,-0.669188]],[[102.923828,-0.668313],[102.927128,-0.680303],[102.928121,-0.68388],[102.923828,-0.668313]],[[102.899584,-0.688201],[102.904601,-0.687669],[102.899584,-0.688201],[102.899584,-0.688201]],[[102.906049,-0.693826],[102.912018,-0.69474],[102.918399,-0.695606],[102.906049,-0.693826]],[[102.905505,-0.716164],[102.904801,-0.707971],[102.905993,-0.721847],[102.905505,-0.716164]],[[102.885901,-0.728554],[102.885901,-0.728554],[102.885579,-0.718915],[102.885901,-0.728554]],[[102.91837,-0.73708],[102.920734,-0.735411],[102.920734,-0.735411],[102.91837,-0.73708]],[[102.96252,-0.706033],[102.962529,-0.706063],[102.96252,-0.706033],[102.96252,-0.706033]],[[102.959492,-0.707271],[102.959496,-0.707279],[102.959492,-0.707271],[102.959492,-0.707271]],[[102.936673,-0.717769],[102.941837,-0.715258],[102.940173,-0.71597],[102.936673,-0.717769]],[[102.933283,-0.713974],[102.933893,-0.715255],[102.934322,-0.715976],[102.934322,-0.715976],[102.933283,-0.713974]],[[102.938615,-0.71354],[102.937454,-0.711245],[102.937454,-0.711245],[102.938615,-0.71354]],[[102.925673,-0.696253],[102.928844,-0.704666],[102.926907,-0.699526],[102.925673,-0.696253]],[[102.96838,-0.691776],[102.967943,-0.687571],[102.967918,-0.687363],[102.96838,-0.691776]],[[102.9674,-0.683134],[102.965418,-0.679276],[102.961658,-0.672336],[102.9674,-0.683134]],[[102.957487,-0.702137],[102.957487,-0.702137],[102.954815,-0.694113],[102.957487,-0.702137]],[[102.958821,-0.705826],[102.958821,-0.705826],[102.95845,-0.70503],[102.958821,-0.705826]],[[102.932841,-0.651801],[102.933371,-0.651483],[102.931212,-0.652686],[102.931212,-0.652686],[102.932841,-0.651801]],[[102.933253,-0.651278],[102.933283,-0.65133],[102.933371,-0.651483],[102.933253,-0.651278]],[[102.906314,-0.633178],[102.908352,-0.63724],[102.908039,-0.636617],[102.906314,-0.633178]],[[102.914863,-0.651633],[102.905183,-0.652269],[102.914555,-0.651723],[102.914863,-0.651633]],[[102.917579,-0.659071],[102.9187,-0.662371],[102.917379,-0.658326],[102.917579,-0.659071]],[[102.898763,-0.662826],[102.918343,-0.662451],[102.9187,-0.662371],[102.898763,-0.662826]],[[102.919465,-0.666293],[102.918861,-0.664123],[102.918343,-0.662451],[102.919465,-0.666293]],[[102.904317,-0.630528],[102.905169,-0.632231],[102.90573,-0.633335],[102.904317,-0.630528]],[[103.0324,-0.606597],[103.027406,-0.609371],[103.030259,-0.607792],[103.0324,-0.606597]],[[103.025297,-0.609298],[103.028563,-0.609421],[103.027406,-0.609371],[103.025297,-0.609298]],[[103.028419,-0.615967],[103.028613,-0.610148],[103.028563,-0.609421],[103.028419,-0.615967]],[[103.017953,-0.629075],[103.022236,-0.629735],[103.017685,-0.628995],[103.017953,-0.629075]],[[103.014408,-0.669495],[103.014408,-0.67233],[103.014431,-0.67259],[103.014408,-0.669495]],[[103.016156,-0.687088],[103.016445,-0.688575],[103.016677,-0.689408],[103.016156,-0.687088]],[[103.01496,-0.689942],[103.016423,-0.689489],[103.016677,-0.689408],[103.01496,-0.689942]],[[103.014643,-0.689116],[103.014209,-0.687188],[103.01464,-0.689193],[103.01496,-0.689942],[103.014643,-0.689116]],[[103.016623,-0.690168],[103.016782,-0.690686],[103.016423,-0.689489],[103.016623,-0.690168]],[[103.015605,-0.690502],[103.01527,-0.690677],[103.01527,-0.690677],[103.015605,-0.690502]],[[102.986587,-0.695039],[102.982843,-0.680471],[102.988616,-0.702933],[102.986587,-0.695039]],[[102.977976,-0.669183],[102.978815,-0.671276],[102.982843,-0.680471],[102.977976,-0.669183]],[[103.000774,-0.6908],[103.008162,-0.688067],[102.99692,-0.692225],[103.000774,-0.6908]],[[103.012697,-0.690612],[103.012703,-0.690629],[103.008732,-0.674491],[103.012697,-0.690612]],[[102.97969,-0.667992],[102.977819,-0.668791],[102.977819,-0.668791],[102.97969,-0.667992]],[[103.014748,-0.628126],[103.005586,-0.628202],[103.010267,-0.62824],[103.014748,-0.628126]],[[103.012389,-0.677096],[103.011838,-0.674859],[103.011853,-0.675171],[103.012389,-0.677096]],[[103.00409,-0.676647],[103.004449,-0.678656],[103.004094,-0.676235],[103.00409,-0.676647]],[[102.995303,-0.619043],[102.995803,-0.618764],[102.998819,-0.617063],[102.995303,-0.619043]],[[103.000476,-0.619674],[103.001799,-0.621745],[102.998819,-0.617063],[103.000476,-0.619674]]]}}]}