{"type":"FeatureCollection","features":[{"type":"Feature","properties":{"kdkec":"1403110","nmkec":"MANDAH"},"geometry":{"type":"MultiPolygon","coordinates":[[[[103.503723,-0.106412],[103.503071,-0.10749],[103.50396,-0.110364],[103.504566,-0.113612],[103.503345,-0.119049],[103.503443,-0.119423],[103.503316,-0.119789],[103.502605,-0.120011],[103.497736,-0.119976],[103.494846,-0.119744],[103.492043,-0.118687],[103.482693,-0.11397],[103.479792,-0.111407],[103.474285,-0.108731],[103.473257,-0.107661],[103.472919,-0.106788],[103.473356,-0.105943],[103.475643,-0.105221],[103.480105,-0.104545],[103.483197,-0.102395],[103.48656,-0.099194],[103.488479,-0.096235],[103.489953,-0.090751],[103.491728,-0.08868],[103.499169,-0.086021],[103.501507,-0.086127],[103.503475,-0.086517],[103.505293,-0.088321],[103.507878,-0.091973],[103.510721,-0.093957],[103.513259,-0.094496],[103.515237,-0.097449],[103.518557,-0.103456],[103.518485,-0.104037],[103.517915,-0.104477],[103.514646,-0.105469],[103.51271,-0.106234],[103.507381,-0.105731],[103.504656,-0.105996],[103.503723,-0.106412]]],[[[103.49867,-0.083706],[103.489825,-0.085902],[103.488172,-0.08241],[103.486705,-0.080593],[103.483364,-0.078979],[103.481248,-0.077587],[103.480915,-0.075802],[103.483174,-0.071236],[103.483544,-0.06747],[103.482557,-0.063148],[103.481322,-0.059382],[103.479346,-0.055801],[103.476259,-0.054073],[103.47379,-0.053949],[103.471876,-0.05506],[103.467493,-0.058394],[103.465757,-0.058841],[103.464583,-0.058263],[103.464119,-0.057001],[103.466196,-0.052961],[103.466375,-0.049221],[103.465614,-0.047669],[103.463186,-0.046007],[103.464556,-0.045052],[103.465775,-0.043926],[103.475086,-0.049813],[103.481384,-0.055925],[103.485767,-0.061543],[103.491138,-0.065124],[103.498572,-0.070685],[103.49895,-0.072042],[103.49895,-0.077855],[103.499275,-0.078154],[103.499287,-0.078521],[103.502065,-0.081669],[103.505029,-0.083213],[103.506412,-0.083011],[103.511474,-0.082911],[103.519316,-0.078449],[103.522532,-0.077864],[103.526411,-0.078625],[103.528414,-0.081268],[103.528222,-0.082518],[103.524127,-0.086786],[103.522555,-0.087373],[103.516941,-0.091176],[103.51333,-0.092208],[103.507992,-0.086546],[103.503732,-0.083953],[103.49867,-0.083706]]],[[[103.50917,-0.079917],[103.505544,-0.08048],[103.503376,-0.078504],[103.503013,-0.074417],[103.502451,-0.071229],[103.500763,-0.068479],[103.485536,-0.057688],[103.480319,-0.051176],[103.466705,-0.04237],[103.461972,-0.045556],[103.462454,-0.045952],[103.462307,-0.047035],[103.465147,-0.049813],[103.464769,-0.051869],[103.46442,-0.052218],[103.463879,-0.053572],[103.462801,-0.054814],[103.462554,-0.056727],[103.463295,-0.058333],[103.466073,-0.060555],[103.468769,-0.060008],[103.471074,-0.058541],[103.472637,-0.05676],[103.473287,-0.056604],[103.475308,-0.055498],[103.477618,-0.05648],[103.480386,-0.062832],[103.481692,-0.069198],[103.479408,-0.074322],[103.479099,-0.076668],[103.479408,-0.078088],[103.481497,-0.079883],[103.486014,-0.08241],[103.487372,-0.085929],[103.487804,-0.088831],[103.487063,-0.093337],[103.482755,-0.09962],[103.479936,-0.101739],[103.472085,-0.103787],[103.470891,-0.107371],[103.473109,-0.111126],[103.47296,-0.111774],[103.469297,-0.112067],[103.461228,-0.110759],[103.452801,-0.102331],[103.444327,-0.088514],[103.441001,-0.087042],[103.437457,-0.086715],[103.435821,-0.085788],[103.434676,-0.081372],[103.423799,-0.074543],[103.418947,-0.072035],[103.416384,-0.068437],[103.411805,-0.065547],[103.408031,-0.063542],[103.398092,-0.054738],[103.393679,-0.05202],[103.387835,-0.049741],[103.386023,-0.045358],[103.385644,-0.042553],[103.383707,-0.041539],[103.381383,-0.041275],[103.378964,-0.040389],[103.377502,-0.039407],[103.375468,-0.036495],[103.374403,-0.034574],[103.372319,-0.033736],[103.370424,-0.033779],[103.367792,-0.034191],[103.3657,-0.033443],[103.365516,-0.031196],[103.365636,-0.027819],[103.363287,-0.026938],[103.359097,-0.026477],[103.355935,-0.024681],[103.353899,-0.021711],[103.351449,-0.019926],[103.348862,-0.019567],[103.346263,-0.018998],[103.344305,-0.018231],[103.343269,-0.017507],[103.342101,-0.015291],[103.339873,-0.01356],[103.335627,-0.012141],[103.331675,-0.009464],[103.328095,-0.006448],[103.326369,-0.006068],[103.325531,-0.006512],[103.323986,-0.006667],[103.322494,-0.006134],[103.321788,-0.004865],[103.321614,-0.003535],[103.322429,-0.001038],[103.322195,0.000154],[103.320297,0.00186],[103.318273,0.003028],[103.317416,0.002903],[103.315428,0.002118],[103.314308,0.00234],[103.313164,0.003172],[103.311434,0.005418],[103.309894,0.008053],[103.309182,0.00849],[103.308373,0.008538],[103.3079,0.008226],[103.30723,0.006196],[103.306834,0.005819],[103.306206,0.005699],[103.305619,0.006202],[103.305283,0.007268],[103.305247,0.008089],[103.304223,0.009676],[103.303415,0.010394],[103.30263,0.010556],[103.300199,0.009436],[103.298995,0.009436],[103.298396,0.009789],[103.29845,0.010424],[103.299756,0.011712],[103.299687,0.013094],[103.297505,0.013681],[103.296103,0.0134],[103.295067,0.013718],[103.289155,0.017989],[103.285979,0.02006],[103.284406,0.021408],[103.283957,0.024554],[103.28171,0.025453],[103.279912,0.026801],[103.278004,0.029768],[103.277259,0.029938],[103.274979,0.033957],[103.273599,0.034737],[103.27324,0.035816],[103.272827,0.036311],[103.2688,0.038906],[103.267487,0.040409],[103.266157,0.041317],[103.263717,0.0441],[103.261582,0.045833],[103.248128,0.055142],[103.242031,0.055977],[103.233188,0.055622],[103.244197,0.077012],[103.255385,0.071858],[103.256207,0.072506],[103.262716,0.075614],[103.263284,0.07589],[103.256242,0.072523],[103.260156,0.078786],[103.266612,0.093566],[103.282863,0.129884],[103.293179,0.126816],[103.293114,0.12526],[103.301639,0.122896],[103.314661,0.1198],[103.319897,0.118801],[103.334476,0.114427],[103.341253,0.112122],[103.343863,0.11082],[103.344419,0.100438],[103.350793,0.100152],[103.355245,0.099617],[103.356761,0.104476],[103.368852,0.103541],[103.368582,0.100035],[103.369237,0.107508],[103.373106,0.107031],[103.394207,0.111017],[103.394213,0.09875],[103.399805,0.098497],[103.400163,0.088021],[103.399372,0.111162],[103.407442,0.110651],[103.40752,0.103492],[103.419334,0.103421],[103.419337,0.102711],[103.431149,0.102874],[103.432003,0.109278],[103.435682,0.109079],[103.442866,0.111916],[103.447861,0.113199],[103.452491,0.118122],[103.459452,0.106073],[103.459391,0.106188],[103.465281,0.110474],[103.466256,0.110743],[103.467035,0.108155],[103.465779,0.10769],[103.467424,0.098506],[103.47783,0.104372],[103.478042,0.100828],[103.478866,0.09721],[103.47899,0.095614],[103.490775,0.096899],[103.516071,0.100202],[103.538166,0.091156],[103.553055,0.085498],[103.551861,0.094839],[103.554228,0.095111],[103.554408,0.093301],[103.556332,0.084253],[103.560541,0.082653],[103.562578,0.06462],[103.568462,0.065308],[103.67659,0.080285],[103.679796,0.066866],[103.685686,0.0683],[103.689749,0.05928],[103.70841,0.060437],[103.706739,0.060334],[103.730782,0.061777],[103.748647,0.063054],[103.752695,0.063977],[103.758529,0.065617],[103.759767,0.061303],[103.761414,0.050955],[103.762991,0.044955],[103.769798,0.041615],[103.77508,0.042314],[103.781432,0.039944],[103.788466,0.038332],[103.794811,0.037627],[103.795884,0.037971],[103.802232,0.026584],[103.811119,0.006902],[103.814063,-0.002367],[103.81453,-0.006908],[103.814232,-0.007243],[103.813477,-0.009644],[103.811623,-0.012206],[103.808352,-0.013188],[103.803609,-0.011879],[103.793359,-0.010789],[103.77794,-0.009692],[103.777906,-0.010217],[103.765729,-0.010459],[103.763018,-0.010643],[103.76133,-0.01103],[103.755065,-0.013162],[103.752735,-0.013306],[103.741906,-0.017119],[103.736588,-0.017415],[103.727102,-0.019268],[103.715363,-0.02247],[103.70926,-0.023241],[103.705096,-0.024011],[103.695242,-0.024256],[103.693067,-0.024915],[103.690945,-0.025229],[103.686943,-0.027991],[103.681351,-0.027542],[103.677197,-0.028228],[103.67363,-0.025921],[103.667036,-0.021],[103.650534,-0.016059],[103.639428,-0.014126],[103.632981,-0.016128],[103.629914,-0.016585],[103.624115,-0.012921],[103.618729,-0.009182],[103.614574,-0.006608],[103.6118,-0.008139],[103.604228,-0.014089],[103.599225,-0.017199],[103.596521,-0.017739],[103.588679,-0.021255],[103.58399,-0.0245],[103.583006,-0.026967],[103.579403,-0.030135],[103.577046,-0.032451],[103.574356,-0.034054],[103.571914,-0.034103],[103.572812,-0.035257],[103.575927,-0.036767],[103.578649,-0.034922],[103.581619,-0.032368],[103.585888,-0.030895],[103.588949,-0.03126],[103.5926,-0.032342],[103.595575,-0.035722],[103.596656,-0.039373],[103.596656,-0.042753],[103.593286,-0.049884],[103.587811,-0.054772],[103.584496,-0.059594],[103.582085,-0.061603],[103.578971,-0.063211],[103.574359,-0.062908],[103.571738,-0.059996],[103.56551,-0.055375],[103.56119,-0.054772],[103.560989,-0.057284],[103.564706,-0.059594],[103.568322,-0.067129],[103.56804,-0.068079],[103.567045,-0.068849],[103.563665,-0.070742],[103.548116,-0.072635],[103.542675,-0.074534],[103.541999,-0.074606],[103.534372,-0.079802],[103.531921,-0.079172],[103.530331,-0.077322],[103.525948,-0.075779],[103.522249,-0.075265],[103.521002,-0.073992],[103.520211,-0.075046],[103.518358,-0.075355],[103.514357,-0.076855],[103.50917,-0.079917]],[[103.492595,-0.040027],[103.490719,-0.041709],[103.480319,-0.051176],[103.492595,-0.040027]],[[103.369255,-0.018311],[103.367713,-0.007533],[103.369221,-0.018378],[103.365362,-0.027702],[103.369255,-0.018311]],[[103.369304,-0.008573],[103.3507,0.003591],[103.367713,-0.007533],[103.369304,-0.008573]],[[103.349115,0.001869],[103.342044,-0.005816],[103.3507,0.003591],[103.349115,0.001869]],[[103.344453,0.004631],[103.34553,0.006224],[103.333844,-0.010931],[103.344453,0.004631]],[[103.289476,0.01857],[103.289719,0.019011],[103.290367,0.020192],[103.289155,0.017989],[103.289476,0.01857]],[[103.291324,0.019635],[103.291345,0.019672],[103.290367,0.020192],[103.291324,0.019635]],[[103.273051,0.036672],[103.27339,0.037224],[103.272827,0.036311],[103.273051,0.036672]],[[103.449585,0.098711],[103.449585,0.098711],[103.459452,0.106073],[103.449585,0.098711]],[[103.715441,0.015328],[103.717678,-0.000245],[103.715445,0.015306],[103.706739,0.060334],[103.715441,0.015328]],[[103.762484,0.028021],[103.762289,0.028739],[103.752695,0.063977],[103.762484,0.028021]],[[103.773045,0.025977],[103.77404,0.019307],[103.773295,0.024769],[103.769798,0.041615],[103.773045,0.025977]],[[103.444142,0.062951],[103.446382,0.058537],[103.44414,0.062956],[103.439749,0.065746],[103.444142,0.062951]],[[103.459291,0.04905],[103.461821,0.047674],[103.458397,0.049621],[103.459291,0.04905]],[[103.46295,0.041058],[103.46295,0.041058],[103.461608,0.042098],[103.46295,0.041058]],[[103.483056,0.028399],[103.487034,0.031917],[103.48663,0.031645],[103.483056,0.028399]],[[103.483978,0.027597],[103.492134,0.021417],[103.483769,0.027778],[103.483978,0.027597]],[[103.489008,0.019185],[103.494232,0.022891],[103.492134,0.021417],[103.489008,0.019185]],[[103.476869,0.018626],[103.47782,0.017865],[103.47782,0.017865],[103.476869,0.018626]],[[103.51048,-0.002903],[103.504623,0.002752],[103.508456,-0.001006],[103.51048,-0.002903]],[[103.501395,0.005624],[103.503338,0.003886],[103.504623,0.002752],[103.501395,0.005624]],[[103.485762,-0.008375],[103.490114,-0.003817],[103.485762,-0.008375],[103.485762,-0.008375]],[[103.500785,-0.042565],[103.498327,-0.045667],[103.496001,-0.048603],[103.500785,-0.042565]],[[103.408597,-0.009657],[103.406011,-0.012252],[103.408631,-0.009633],[103.408597,-0.009657]],[[103.448833,-0.028932],[103.447441,-0.02791],[103.45096,-0.030503],[103.448833,-0.028932]],[[103.439603,0.014649],[103.432614,0.00386],[103.437948,0.012095],[103.439603,0.014649]],[[103.466071,-0.016596],[103.462698,-0.019083],[103.460954,-0.020383],[103.466071,-0.016596]],[[103.393153,-0.02166],[103.386152,-0.01764],[103.376284,-0.012331],[103.385733,-0.017419],[103.393153,-0.02166]],[[103.408209,-0.018668],[103.401946,-0.028117],[103.408209,-0.018668],[103.408209,-0.018668]],[[103.42307,-0.001955],[103.423206,-0.003226],[103.423373,-0.003714],[103.42307,-0.001955]],[[103.423597,-0.003782],[103.423616,-0.003777],[103.423373,-0.003714],[103.423597,-0.003782]],[[103.420074,-0.019284],[103.419853,-0.019195],[103.417876,-0.018405],[103.420074,-0.019284]],[[103.434793,-0.041029],[103.433037,-0.035103],[103.4347,-0.040716],[103.434793,-0.041029]],[[103.408868,-0.019723],[103.412823,-0.020162],[103.41179,-0.020048],[103.408868,-0.019723]],[[103.420916,-0.007765],[103.423374,-0.004709],[103.423342,-0.004739],[103.420916,-0.007765]],[[103.42054,-0.007467],[103.423175,-0.004554],[103.422256,-0.005488],[103.42054,-0.007467]],[[103.457426,-0.04565],[103.460369,-0.045461],[103.459843,-0.04543],[103.457426,-0.04565]],[[103.375022,-0.0247],[103.373261,-0.026836],[103.373564,-0.026472],[103.375022,-0.0247]],[[103.373897,-0.028028],[103.376119,-0.029269],[103.372823,-0.027367],[103.373897,-0.028028]],[[103.37214,-0.0317],[103.372621,-0.030742],[103.373897,-0.028028],[103.37214,-0.0317]],[[103.37053,-0.031238],[103.369768,-0.031072],[103.37053,-0.031238],[103.37053,-0.031238]],[[103.347668,0.019661],[103.357743,0.051591],[103.352844,0.036361],[103.347668,0.019661]],[[103.359464,0.050507],[103.356491,0.05238],[103.357743,0.051591],[103.359464,0.050507]],[[103.344443,0.042464],[103.34457,0.042349],[103.352844,0.036361],[103.344443,0.042464]],[[103.361571,0.048143],[103.363138,0.047249],[103.364639,0.046614],[103.361571,0.048143]],[[103.371589,0.041483],[103.371641,0.041457],[103.379108,0.050132],[103.371589,0.041483]],[[103.371325,0.040777],[103.371291,0.04067],[103.371641,0.041457],[103.371325,0.040777]],[[103.38208,0.0474],[103.38553,0.044228],[103.383177,0.046528],[103.38208,0.0474]],[[103.382085,0.036749],[103.382558,0.03535],[103.382085,0.036749],[103.382085,0.036749]],[[103.382649,0.033372],[103.383296,0.031067],[103.383296,0.031067],[103.382649,0.033372]],[[103.417876,0.047829],[103.417876,0.047829],[103.413515,0.052258],[103.417876,0.047829]],[[103.427449,0.029189],[103.427416,0.029222],[103.433972,0.02238],[103.427449,0.029189]],[[103.435318,0.020249],[103.433513,0.021807],[103.433513,0.021807],[103.435318,0.020249]],[[103.377067,0.040726],[103.379571,0.039336],[103.379044,0.039675],[103.377067,0.040726]],[[103.368834,0.036792],[103.368834,0.036792],[103.366046,0.033471],[103.368834,0.036792]],[[103.370602,0.040747],[103.370926,0.040565],[103.370269,0.039199],[103.370983,0.040641],[103.370602,0.040747]],[[103.371398,0.040195],[103.370852,0.038895],[103.371398,0.040195],[103.371398,0.040195]],[[103.412209,0.013572],[103.412769,0.013009],[103.412105,0.013677],[103.412209,0.013572]],[[103.410444,0.015349],[103.4089,0.013183],[103.40976,0.014304],[103.410444,0.015349]],[[103.411379,0.009879],[103.410815,0.010754],[103.410938,0.010541],[103.411379,0.009879]],[[103.413408,0.010114],[103.411317,0.012709],[103.412573,0.011085],[103.413408,0.010114]],[[103.426721,0.055191],[103.426026,0.056],[103.426721,0.055191],[103.426721,0.055191]],[[103.437786,0.047845],[103.438109,0.047509],[103.442104,0.044114],[103.437786,0.047845]],[[103.447751,0.04054],[103.448386,0.040147],[103.442104,0.044114],[103.447751,0.04054]],[[103.455575,0.03161],[103.454227,0.034306],[103.455793,0.03095],[103.455575,0.03161]],[[103.432726,0.050014],[103.433892,0.048317],[103.430963,0.052625],[103.432726,0.050014]],[[103.401104,0.065574],[103.401586,0.065058],[103.400688,0.066339],[103.401104,0.065574]],[[103.402808,0.069491],[103.402166,0.070405],[103.402371,0.069984],[103.402808,0.069491]],[[103.403685,0.068958],[103.403792,0.068927],[103.402808,0.069491],[103.403685,0.068958]],[[103.409085,0.066172],[103.409086,0.066172],[103.408087,0.06939],[103.408146,0.068886],[103.409085,0.066172]],[[103.417575,0.062659],[103.412742,0.064903],[103.4162,0.063279],[103.417575,0.062659]],[[103.422224,0.058423],[103.420687,0.060594],[103.422411,0.058152],[103.422224,0.058423]],[[103.407321,0.075954],[103.407948,0.070577],[103.40758,0.074577],[103.407321,0.075954]],[[103.484422,-0.00678],[103.478938,0.001059],[103.483027,-0.004863],[103.484422,-0.00678]],[[103.485279,-0.007808],[103.485279,-0.007808],[103.484422,-0.00678],[103.485279,-0.007808]],[[103.507649,-0.01589],[103.50637,-0.014703],[103.50509,-0.013514],[103.507649,-0.01589]],[[103.481232,-0.015381],[103.481203,-0.015427],[103.482049,-0.014272],[103.481232,-0.015381]],[[103.484757,-0.010645],[103.484757,-0.010645],[103.48762,-0.01307],[103.484757,-0.010645]],[[103.48625,-0.008949],[103.488879,-0.011578],[103.485836,-0.008463],[103.48625,-0.008949]],[[103.469453,0.016156],[103.473097,0.014088],[103.47114,0.015257],[103.469453,0.016156]],[[103.28754,0.082102],[103.284942,0.088445],[103.286219,0.085068],[103.28754,0.082102]],[[103.307422,0.066351],[103.313589,0.093243],[103.312907,0.090611],[103.307422,0.066351]],[[103.315034,0.092895],[103.319507,0.091876],[103.313589,0.093243],[103.315034,0.092895]],[[103.334245,0.033478],[103.337235,0.048951],[103.336789,0.046644],[103.334245,0.033478]],[[103.332428,0.034614],[103.331853,0.034326],[103.332398,0.034599],[103.334728,0.033176],[103.334245,0.033478],[103.332428,0.034614]],[[103.291571,0.092172],[103.29149,0.091885],[103.29212,0.094005],[103.29212,0.094005],[103.291571,0.092172]],[[103.370698,-0.009324],[103.372536,-0.006241],[103.372954,-0.005362],[103.370698,-0.009324]],[[103.290229,0.079737],[103.29108,0.079691],[103.290461,0.079735],[103.290229,0.079737]],[[103.29104,0.079078],[103.291055,0.079047],[103.29108,0.079691],[103.29104,0.079078]],[[103.286076,0.076147],[103.284825,0.075337],[103.29104,0.079078],[103.286076,0.076147]],[[103.290487,0.087978],[103.290545,0.088549],[103.290477,0.088309],[103.290487,0.087978]],[[103.31681,0.040862],[103.316901,0.040613],[103.317155,0.039924],[103.31681,0.040862]],[[103.301119,0.065056],[103.301259,0.064932],[103.301109,0.065103],[103.301119,0.065056]],[[103.302251,0.063683],[103.302755,0.063228],[103.302044,0.064037],[103.302251,0.063683]],[[103.303318,0.062097],[103.303378,0.062022],[103.302755,0.063228],[103.303318,0.062097]],[[103.307319,0.058729],[103.30721,0.058793],[103.307156,0.058787],[103.307319,0.058729]],[[103.308283,0.057926],[103.307884,0.058404],[103.307594,0.058571],[103.308283,0.057926]],[[103.31015,0.057564],[103.309536,0.058051],[103.310445,0.057396],[103.31015,0.057564]],[[103.311608,0.057055],[103.311179,0.057132],[103.31139,0.057001],[103.311608,0.057055]],[[103.312014,0.056981],[103.311841,0.057012],[103.312029,0.056868],[103.312014,0.056981]],[[103.312091,0.056411],[103.312051,0.05671],[103.311683,0.054912],[103.312091,0.056411]],[[103.296057,0.070386],[103.295983,0.070468],[103.296022,0.070406],[103.296057,0.070386]],[[103.296727,0.070096],[103.296385,0.070193],[103.297716,0.069412],[103.296727,0.070096]],[[103.298227,0.069059],[103.298129,0.069127],[103.298231,0.069],[103.298227,0.069059]],[[103.379387,0.005568],[103.375414,-0.001042],[103.375323,-0.001202],[103.379387,0.005568]],[[103.346141,0.028894],[103.34508,0.026784],[103.345437,0.027387],[103.346141,0.028894]],[[103.348472,0.034068],[103.347923,0.032713],[103.34827,0.033457],[103.348472,0.034068]],[[103.257214,0.048951],[103.253884,0.070673],[103.257054,0.049991],[103.257214,0.048951]],[[103.254082,0.07083],[103.25071,0.068279],[103.253884,0.070673],[103.254082,0.07083]],[[103.243805,0.061156],[103.249585,0.067119],[103.25071,0.068279],[103.243805,0.061156]],[[103.291403,0.016408],[103.292993,0.019106],[103.292198,0.017806],[103.291403,0.016408]],[[103.289942,0.017956],[103.290572,0.017531],[103.291675,0.016888],[103.289942,0.017956]],[[103.274238,0.037054],[103.274425,0.036963],[103.27443,0.036974],[103.274238,0.037054]],[[103.274817,0.035355],[103.27404,0.035766],[103.274524,0.035492],[103.274817,0.035355]],[[103.346954,0.056259],[103.346949,0.056198],[103.347083,0.056199],[103.346954,0.056259]],[[103.341961,0.059368],[103.341907,0.059398],[103.341276,0.057866],[103.341961,0.059368]],[[103.342586,0.059028],[103.342131,0.059276],[103.342864,0.058671],[103.342586,0.059028]],[[103.346647,0.056251],[103.346638,0.056195],[103.346829,0.056197],[103.346647,0.056251]],[[103.509347,0.033281],[103.504814,0.033084],[103.504814,0.033083],[103.509347,0.033281]],[[103.515882,0.029122],[103.5141,0.031895],[103.513506,0.032489],[103.514407,0.031417],[103.515882,0.029122]],[[103.510098,0.023941],[103.507134,0.0188],[103.514407,0.031417],[103.510098,0.023941]],[[103.521626,0.029122],[103.520239,0.026746],[103.51319,0.014544],[103.521626,0.029122]],[[103.515309,0.012642],[103.518075,0.010261],[103.51319,0.014544],[103.515309,0.012642]],[[103.534388,-0.013237],[103.537098,-0.012968],[103.531995,-0.013441],[103.534388,-0.013237]],[[103.529189,-0.006695],[103.529887,-0.008412],[103.531995,-0.013441],[103.529189,-0.006695]],[[103.538673,-0.024796],[103.538673,-0.024796],[103.542304,-0.026001],[103.538673,-0.024796]],[[103.503818,0.030402],[103.502588,0.029023],[103.501988,0.028141],[103.503818,0.030402]],[[103.499046,0.024396],[103.498582,0.023818],[103.498537,0.023721],[103.499046,0.024396]],[[103.498097,0.022767],[103.497987,0.02253],[103.497517,0.021419],[103.498097,0.022767]],[[103.496608,0.019299],[103.494964,0.015502],[103.494813,0.015115],[103.496608,0.019299]],[[103.49726,0.024981],[103.497614,0.02526],[103.496,0.024037],[103.49726,0.024981]],[[103.497594,0.024701],[103.49775,0.024909],[103.49759,0.024705],[103.497594,0.024701]],[[103.499746,0.027087],[103.497614,0.02526],[103.498452,0.025921],[103.499746,0.027087]],[[103.499008,0.025487],[103.498489,0.024921],[103.499053,0.025459],[103.498452,0.025921],[103.499008,0.025487]],[[103.499945,0.026309],[103.501232,0.028013],[103.501232,0.028013],[103.499945,0.026309]],[[103.491663,0.035037],[103.499279,0.027513],[103.499746,0.027087],[103.491663,0.035037]],[[103.497131,0.025844],[103.497614,0.02526],[103.497614,0.02526],[103.497131,0.025844]],[[103.501635,0.022633],[103.501349,0.022748],[103.503393,0.021888],[103.503223,0.021997],[103.501635,0.022633]],[[103.505168,0.02783],[103.502449,0.023935],[103.501635,0.022633],[103.505168,0.02783]],[[103.519012,0.001853],[103.520207,0.003289],[103.520207,0.003289],[103.519012,0.001853]],[[103.700517,0.0143],[103.700308,0.016328],[103.700516,0.014275],[103.700517,0.0143]],[[103.737326,0.010539],[103.737523,0.009329],[103.737983,0.008869],[103.737549,0.009303],[103.737326,0.010539]],[[103.739962,-0.003475],[103.739965,-0.003405],[103.739236,-0.001624],[103.739962,-0.003475]],[[103.737472,-0.004116],[103.742471,-0.016914],[103.740865,-0.012803],[103.739996,-0.010578],[103.737472,-0.004116]],[[103.745218,-0.011375],[103.74573,-0.011184],[103.740865,-0.012803],[103.745218,-0.011375]],[[103.737353,0.020113],[103.736267,0.019994],[103.737353,0.020113],[103.737353,0.020113]],[[103.737334,0.019853],[103.739678,0.01983],[103.741122,0.019826],[103.737334,0.019853],[103.737334,0.019853]],[[103.737215,0.019042],[103.73729,0.019397],[103.737316,0.019707],[103.737215,0.019042]],[[103.745435,-0.01053],[103.744772,-0.009137],[103.744841,-0.009357],[103.745435,-0.01053]],[[103.70524,0.014087],[103.706303,0.013227],[103.706303,0.013227],[103.70524,0.014087]],[[103.730938,0.017764],[103.730694,0.019078],[103.726084,0.040169],[103.730938,0.017764]],[[103.736902,0.019683],[103.737317,0.019711],[103.737317,0.019711],[103.736902,0.019683]],[[103.701905,0.013245],[103.70453,0.013117],[103.70095,0.013407],[103.701905,0.013245]],[[103.756784,0.018026],[103.756795,0.017844],[103.757548,0.015982],[103.756784,0.018026]],[[103.757553,0.015834],[103.757929,0.014913],[103.757548,0.015982],[103.757553,0.015834]],[[103.758432,0.006456],[103.775385,0.006425],[103.775385,0.006425],[103.758432,0.006456]],[[103.76704,0.029924],[103.764303,0.028773],[103.76704,0.029924],[103.76704,0.029924]],[[103.679281,0.008868],[103.685554,0.010528],[103.685785,0.010593],[103.679281,0.008868]],[[103.687863,0.009219],[103.689501,0.009899],[103.688624,0.009588],[103.687863,0.009219]],[[103.687997,0.01033],[103.6874,0.011605],[103.687705,0.010833],[103.687997,0.01033]],[[103.573351,0.038504],[103.576346,0.03754],[103.578963,0.037677],[103.576308,0.037552],[103.573351,0.038504]],[[103.580891,0.03754],[103.582682,0.037953],[103.584748,0.038779],[103.583234,0.038174],[103.580891,0.03754]],[[103.611909,0.014012],[103.611909,0.014012],[103.608163,0.015089],[103.611909,0.014012]],[[103.636057,0.012458],[103.636057,0.012458],[103.63642,0.01718],[103.636057,0.012458]],[[103.663647,0.078481],[103.665224,0.06152],[103.666091,0.052924],[103.663647,0.078481]],[[103.65816,0.003657],[103.657453,0.003519],[103.660983,0.003814],[103.65816,0.003657]],[[103.651986,0.035313],[103.651318,0.028855],[103.652302,0.038117],[103.651986,0.035313]],[[103.64603,0.040926],[103.64334,0.041112],[103.64334,0.041112],[103.64603,0.040926]],[[103.644301,0.025213],[103.645752,0.038329],[103.647865,0.057095],[103.64603,0.040926],[103.644301,0.025213]],[[103.665412,0.020885],[103.665828,0.022699],[103.667259,0.029838],[103.665412,0.020885]],[[103.6695,0.042401],[103.666283,0.043007],[103.666283,0.043007],[103.6695,0.042401]],[[103.668782,0.039204],[103.671078,0.049376],[103.6695,0.042401],[103.668782,0.039204]],[[103.636245,0.047972],[103.631528,0.04737],[103.627178,0.046767],[103.636245,0.047972]],[[103.624067,0.044628],[103.623729,0.042091],[103.623567,0.040873],[103.624067,0.044628]],[[103.624723,-0.011986],[103.627158,-0.010932],[103.628524,-0.010706],[103.627048,-0.010941],[103.624723,-0.011986]],[[103.62861,-0.012958],[103.628387,-0.013079],[103.629162,-0.012661],[103.62861,-0.012958]],[[103.629254,-0.012823],[103.629151,-0.012629],[103.629162,-0.012661],[103.629254,-0.012823]],[[103.611363,0.013439],[103.611865,0.013844],[103.611908,0.014007],[103.611363,0.013439]],[[103.612872,0.039869],[103.613513,0.049309],[103.61459,0.071676],[103.613533,0.050263],[103.612872,0.039869]],[[103.603378,0.040825],[103.605026,0.046468],[103.606437,0.052253],[103.60471,0.045386],[103.603378,0.040825]],[[103.598555,0.040271],[103.583883,0.06104],[103.582974,0.062239],[103.598555,0.040271]],[[103.616223,0.032525],[103.616251,0.032577],[103.615658,0.032826],[103.616223,0.032525]],[[103.443277,0.111106],[103.446797,0.104055],[103.448808,0.1002],[103.443277,0.111106]],[[103.479884,0.080337],[103.47959,0.064703],[103.47959,0.064703],[103.479884,0.080337]],[[103.483916,0.053055],[103.481742,0.053599],[103.484911,0.052807],[103.483916,0.053055]],[[103.4542,0.082848],[103.449001,0.078858],[103.44393,0.074968],[103.4542,0.082848]],[[103.463127,0.080491],[103.460162,0.083322],[103.455833,0.087329],[103.463127,0.080491]],[[103.458968,0.066075],[103.459372,0.065367],[103.459372,0.065367],[103.458968,0.066075]],[[103.469464,0.05756],[103.466889,0.060728],[103.467643,0.059712],[103.469464,0.05756]],[[103.47184,0.056371],[103.470256,0.056965],[103.471565,0.056475],[103.47184,0.056371]],[[103.462125,0.051857],[103.462647,0.051576],[103.462125,0.051857],[103.462125,0.051857]],[[103.446001,0.072661],[103.446001,0.072661],[103.44352,0.073997],[103.446001,0.072661]],[[103.452042,0.09391],[103.453573,0.09113],[103.451099,0.095809],[103.452042,0.09391]],[[103.464749,0.096998],[103.467424,0.098506],[103.453573,0.09113],[103.464749,0.096998]],[[103.502179,0.058821],[103.499582,0.05936],[103.513114,0.05655],[103.507645,0.057686],[103.502179,0.058821]],[[103.496384,0.07543],[103.497057,0.071627],[103.499582,0.05936],[103.496384,0.07543]],[[103.527517,0.057194],[103.527778,0.05723],[103.522535,0.056971],[103.527517,0.057194]],[[103.544635,0.059172],[103.540506,0.060431],[103.555174,0.055959],[103.544635,0.059172]],[[103.488079,0.052014],[103.489268,0.051024],[103.48808,0.052014],[103.488079,0.052014]]],[[[103.599062,-0.116462],[103.599267,-0.116672],[103.598954,-0.117728],[103.597733,-0.119378],[103.596154,-0.120348],[103.590557,-0.121346],[103.589672,-0.121236],[103.589567,-0.121061],[103.589589,-0.120553],[103.593504,-0.118969],[103.597938,-0.116652],[103.599062,-0.116462]]],[[[103.50495,-0.111271],[103.504133,-0.109441],[103.5037,-0.108005],[103.504002,-0.106969],[103.505075,-0.106426],[103.508187,-0.106348],[103.510543,-0.106742],[103.512449,-0.106808],[103.519141,-0.104396],[103.518215,-0.101593],[103.514226,-0.094795],[103.518676,-0.092664],[103.5233,-0.089685],[103.531169,-0.086303],[103.536437,-0.084293],[103.540243,-0.083142],[103.542844,-0.080417],[103.548251,-0.078043],[103.554592,-0.076999],[103.559488,-0.077277],[103.565318,-0.07691],[103.570417,-0.075892],[103.578132,-0.073176],[103.580566,-0.073987],[103.581874,-0.07897],[103.58524,-0.084079],[103.586786,-0.08548],[103.591518,-0.088454],[103.593682,-0.090347],[103.593276,-0.093322],[103.591518,-0.094945],[103.590977,-0.097243],[103.585386,-0.10199],[103.560149,-0.114956],[103.547845,-0.119553],[103.53162,-0.122933],[103.519045,-0.119959],[103.504415,-0.118752],[103.505233,-0.113453],[103.50495,-0.111271]]],[[[103.682464,-0.038943],[103.681742,-0.040966],[103.678708,-0.044288],[103.671196,-0.049344],[103.669896,-0.049633],[103.667007,-0.052522],[103.66205,-0.0529],[103.657448,-0.051669],[103.651581,-0.049243],[103.648165,-0.045607],[103.64615,-0.040472],[103.642658,-0.032288],[103.641185,-0.024215],[103.638698,-0.020646],[103.636298,-0.018035],[103.634804,-0.016949],[103.635815,-0.016099],[103.638544,-0.015215],[103.643605,-0.015974],[103.653717,-0.018141],[103.663974,-0.021175],[103.669896,-0.026809],[103.673797,-0.031431],[103.680008,-0.036198],[103.681164,-0.038076],[103.682464,-0.038943]]],[[[103.646494,-0.049055],[103.640462,-0.051413],[103.630887,-0.048609],[103.626768,-0.046819],[103.622369,-0.043671],[103.618185,-0.039401],[103.615818,-0.032295],[103.614087,-0.033513],[103.614055,-0.032759],[103.613327,-0.030656],[103.610049,-0.028607],[103.60827,-0.026354],[103.605467,-0.025448],[103.602383,-0.024693],[103.600385,-0.022227],[103.599846,-0.020903],[103.599444,-0.020733],[103.599242,-0.020245],[103.608106,-0.013916],[103.614181,-0.008478],[103.615284,-0.008339],[103.616963,-0.009229],[103.622232,-0.012949],[103.625493,-0.015052],[103.62991,-0.017266],[103.635507,-0.017946],[103.63749,-0.019946],[103.640916,-0.024828],[103.641686,-0.03049],[103.647686,-0.046347],[103.648083,-0.048766],[103.646494,-0.049055]]]]}}]}