{"type":"FeatureCollection","features":[{"type":"Feature","properties":{"kdkec":"1403100","nmkec":"GAUNG"},"geometry":{"type":"Polygon","coordinates":[[[103.098839,-0.14935],[103.093054,-0.151751],[103.08918,-0.152943],[103.088131,-0.114186],[103.089221,-0.157402],[103.080625,-0.157696],[103.08044,-0.155632],[103.066515,-0.159759],[103.044466,-0.166988],[103.015394,-0.175628],[102.877614,-0.218582],[102.80409,-0.244571],[102.782287,-0.244716],[102.716854,-0.244722],[102.716969,0.105364],[102.723427,0.106453],[102.73067,0.108324],[102.734388,0.110195],[102.738233,0.111743],[102.742004,0.112996],[102.74495,0.113701],[102.748317,0.114266],[102.781851,0.117148],[102.785955,0.118369],[102.794994,0.119762],[102.814122,0.126431],[102.835107,0.137864],[102.837961,0.140058],[102.844008,0.145404],[102.850149,0.14836],[102.8565,0.151709],[102.860456,0.154182],[102.87037,0.162122],[102.875841,0.167487],[102.884854,0.177531],[102.893951,0.183678],[103.008917,0.057005],[103.059644,0.056113],[103.20629,0.054709],[103.242031,0.055977],[103.248128,0.055142],[103.261184,0.046156],[103.263717,0.0441],[103.266157,0.041317],[103.267487,0.040409],[103.2688,0.038906],[103.272827,0.036311],[103.26318,0.031714],[103.27285,0.036296],[103.27324,0.035816],[103.273599,0.034737],[103.274979,0.033957],[103.277259,0.029938],[103.278004,0.029768],[103.279912,0.026801],[103.28171,0.025453],[103.283957,0.024554],[103.284406,0.021408],[103.285979,0.02006],[103.287336,0.019268],[103.295067,0.013718],[103.296103,0.0134],[103.297505,0.013681],[103.299687,0.013094],[103.299756,0.011712],[103.29845,0.010424],[103.298396,0.009789],[103.298995,0.009436],[103.300199,0.009436],[103.30263,0.010556],[103.303415,0.010394],[103.304223,0.009676],[103.305247,0.008089],[103.305283,0.007268],[103.305619,0.006202],[103.306206,0.005699],[103.306834,0.005819],[103.30723,0.006196],[103.3079,0.008226],[103.308373,0.008538],[103.309182,0.00849],[103.309894,0.008053],[103.311434,0.005418],[103.313164,0.003172],[103.314237,0.002391],[103.315428,0.002118],[103.317416,0.002903],[103.318273,0.003028],[103.320297,0.00186],[103.322195,0.000154],[103.322429,-0.001038],[103.321614,-0.003535],[103.321788,-0.004865],[103.322494,-0.006134],[103.323986,-0.006667],[103.325531,-0.006512],[103.326369,-0.006068],[103.327267,-0.00617],[103.328321,-0.006524],[103.331675,-0.009464],[103.335627,-0.012141],[103.339873,-0.01356],[103.342101,-0.015291],[103.343269,-0.017507],[103.344305,-0.018231],[103.346263,-0.018998],[103.348862,-0.019567],[103.351449,-0.019926],[103.353899,-0.021711],[103.355935,-0.024681],[103.359097,-0.026477],[103.363672,-0.02698],[103.365636,-0.027819],[103.365516,-0.031196],[103.366716,-0.045849],[103.3657,-0.033443],[103.367792,-0.034191],[103.370235,-0.033783],[103.372319,-0.033736],[103.374403,-0.034574],[103.376337,-0.037798],[103.377502,-0.039407],[103.378964,-0.040389],[103.381383,-0.041275],[103.383707,-0.041539],[103.385644,-0.042553],[103.386023,-0.045358],[103.387835,-0.049741],[103.393679,-0.05202],[103.398092,-0.054738],[103.407747,-0.063391],[103.40516,-0.068222],[103.403624,-0.073345],[103.405197,-0.119791],[103.405237,-0.129587],[103.402005,-0.133106],[103.401395,-0.139328],[103.405837,-0.140096],[103.40609,-0.150021],[103.407725,-0.15289],[103.409233,-0.155025],[103.409158,-0.157047],[103.407701,-0.158701],[103.404026,-0.157742],[103.4018,-0.157497],[103.399701,-0.158433],[103.388507,-0.152044],[103.374108,-0.141431],[103.369306,-0.135429],[103.365087,-0.13463],[103.359446,-0.136045],[103.352293,-0.135805],[103.346897,-0.135897],[103.342693,-0.137628],[103.327219,-0.137104],[103.319079,-0.136828],[103.302673,-0.132426],[103.293867,-0.126423],[103.277119,-0.117636],[103.271716,-0.114193],[103.266816,-0.113863],[103.264677,-0.114631],[103.263228,-0.115714],[103.258346,-0.117743],[103.249651,-0.120799],[103.245931,-0.124582],[103.23846,-0.129525],[103.232945,-0.130951],[103.222596,-0.132786],[103.216298,-0.132873],[103.205381,-0.131356],[103.199044,-0.128184],[103.190933,-0.126163],[103.188075,-0.12468],[103.180412,-0.122949],[103.173139,-0.122624],[103.169245,-0.123614],[103.164724,-0.125541],[103.157152,-0.13078],[103.150953,-0.134097],[103.144787,-0.134565],[103.142755,-0.134538],[103.133186,-0.133427],[103.124868,-0.138488],[103.120361,-0.140898],[103.098839,-0.14935]],[[103.091194,-0.118264],[103.091189,-0.119822],[103.093054,-0.151751],[103.091194,-0.118264]],[[103.060434,-0.126481],[103.06035,-0.126932],[103.059322,-0.162075],[103.060434,-0.126481]],[[103.125301,-0.026954],[103.128782,-0.037847],[103.125425,-0.027234],[103.08881,0.055831],[103.125301,-0.026954]],[[103.116876,-0.029323],[103.122523,-0.027735],[103.125301,-0.026954],[103.116876,-0.029323]],[[103.265032,0.002841],[103.274971,0.012284],[103.284406,0.021408],[103.265032,0.002841]],[[103.314077,0.001046],[103.314077,0.001046],[103.314237,0.002391],[103.314077,0.001046]],[[103.267267,-0.096593],[103.267267,-0.096593],[103.264677,-0.114631],[103.267267,-0.096593]],[[103.120175,-0.128819],[103.12017,-0.131139],[103.120361,-0.140898],[103.120175,-0.128819]],[[103.240193,0.017411],[103.23926,0.018068],[103.201485,0.041988],[103.240193,0.017411]],[[103.292195,-0.025113],[103.29873,-0.031648],[103.292195,-0.025113],[103.292195,-0.025113]],[[103.338915,-0.054015],[103.342256,-0.056521],[103.333966,-0.050303],[103.338915,-0.054015]],[[103.331363,-0.077979],[103.332028,-0.07604],[103.33381,-0.077142],[103.33204,-0.076008],[103.338915,-0.054015],[103.331363,-0.077979]],[[103.332765,-0.078939],[103.333631,-0.077608],[103.33956,-0.064493],[103.33381,-0.077142],[103.332765,-0.078939]],[[103.334818,-0.080659],[103.334091,-0.080017],[103.333465,-0.079459],[103.333268,-0.079283],[103.332765,-0.078939],[103.334818,-0.080659]],[[103.334303,-0.078539],[103.33606,-0.07646],[103.333465,-0.079459],[103.334303,-0.078539]],[[103.253836,-0.04345],[103.258592,-0.047602],[103.265049,-0.053239],[103.253836,-0.04345]],[[103.217803,-0.011993],[103.241854,-0.03299],[103.25065,-0.040669],[103.217803,-0.011993]],[[103.233032,-0.092427],[103.24186,-0.107136],[103.233032,-0.092427],[103.233032,-0.092427]],[[103.313692,-0.064969],[103.294612,-0.075766],[103.312202,-0.065813],[103.313692,-0.064969]],[[103.315899,-0.067751],[103.313279,-0.06436],[103.313692,-0.064969],[103.315899,-0.067751]],[[103.241268,-0.112411],[103.243274,-0.108495],[103.243274,-0.108495],[103.239867,-0.114951],[103.241268,-0.112411]],[[103.011601,-0.112398],[103.005938,-0.111832],[102.992472,-0.110906],[103.005931,-0.111832],[103.011601,-0.112398]],[[103.0522,-0.105078],[103.050851,-0.105078],[103.054812,-0.105253],[103.0522,-0.105078]],[[103.050674,-0.121501],[103.050723,-0.120948],[103.050851,-0.105078],[103.050674,-0.121501]],[[103.073705,-0.10623],[103.066893,-0.106574],[103.060137,-0.105608],[103.058338,-0.105488],[103.067176,-0.106614],[103.073705,-0.10623]],[[103.09769,-0.108987],[103.094057,-0.104694],[103.095711,-0.106677],[103.09769,-0.108987]],[[103.099181,-0.1055],[103.100113,-0.103322],[103.10114,-0.100889],[103.09769,-0.108987],[103.099181,-0.1055]],[[103.101699,-0.100873],[103.10101,-0.100853],[103.10114,-0.100889],[103.101699,-0.100873]],[[103.097301,-0.120498],[103.093186,-0.116184],[103.096172,-0.119362],[103.097301,-0.120498]],[[103.103631,-0.1202],[103.100729,-0.121187],[103.101518,-0.120975],[103.103631,-0.1202]],[[103.102068,-0.10423],[103.10379,-0.109912],[103.102065,-0.1042],[103.102068,-0.10423]],[[103.110661,-0.110086],[103.105427,-0.109951],[103.11095,-0.110085],[103.10379,-0.109912],[103.110661,-0.110086]],[[103.110155,-0.118148],[103.110094,-0.119114],[103.110661,-0.110086],[103.110155,-0.118148]],[[103.105895,-0.117133],[103.106593,-0.117345],[103.110155,-0.118148],[103.105895,-0.117133]],[[103.102487,-0.100851],[103.102022,-0.101732],[103.10191,-0.102341],[103.102487,-0.100851],[103.102487,-0.100851]],[[103.108387,-0.097345],[103.106536,-0.09824],[103.106434,-0.098306],[103.108928,-0.097145],[103.108387,-0.097345]],[[103.10966,-0.096874],[103.109371,-0.096981],[103.110052,-0.096792],[103.10966,-0.096874]],[[103.111791,-0.096427],[103.110936,-0.096606],[103.112819,-0.096339],[103.111791,-0.096427]],[[103.111922,-0.095369],[103.111805,-0.095649],[103.111791,-0.096427],[103.111922,-0.095369]],[[103.113559,-0.096275],[103.113373,-0.096291],[103.115494,-0.096386],[103.113559,-0.096275]],[[103.116952,-0.09647],[103.116783,-0.09646],[103.117624,-0.096609],[103.116952,-0.09647]],[[103.121532,-0.097824],[103.119297,-0.096954],[103.119264,-0.096947],[103.121952,-0.098074],[103.121532,-0.097824]],[[103.127382,-0.100752],[103.127382,-0.100752],[103.128641,-0.10143],[103.127382,-0.100752]],[[103.121952,-0.098074],[103.121863,-0.098685],[103.121292,-0.105376],[103.121952,-0.098074]],[[103.049951,-0.122233],[103.048065,-0.122314],[103.047766,-0.122426],[103.049951,-0.122233]],[[103.046726,-0.122813],[103.045938,-0.123107],[103.044162,-0.124516],[103.045724,-0.123279],[103.046726,-0.122813]],[[103.042961,-0.126546],[103.041933,-0.129653],[103.043273,-0.126019],[103.044162,-0.124516],[103.042961,-0.126546]],[[103.036448,-0.134831],[103.037809,-0.133917],[103.038898,-0.1331],[103.036448,-0.134831]],[[103.087443,-0.114089],[103.087032,-0.100315],[103.087373,-0.11306],[103.087443,-0.114089]],[[103.086144,-0.113229],[103.085605,-0.113366],[103.087373,-0.11306],[103.086144,-0.113229]],[[103.085633,-0.111058],[103.08582,-0.111908],[103.086144,-0.113229],[103.085633,-0.111058]],[[103.065228,-0.125581],[103.065224,-0.12558],[103.060723,-0.12494],[103.065228,-0.125581]],[[103.020197,-0.111787],[103.023015,-0.111606],[103.019484,-0.111817],[103.020197,-0.111787]],[[103.068732,-0.126309],[103.067226,-0.125936],[103.06715,-0.125922],[103.068958,-0.126387],[103.068732,-0.126309]],[[103.044726,-0.125078],[103.045381,-0.124175],[103.044777,-0.124987],[103.044726,-0.125078]],[[103.045978,-0.123723],[103.045978,-0.123723],[103.045381,-0.124175],[103.045978,-0.123723]],[[103.091194,-0.118264],[103.091194,-0.118264],[103.093603,-0.118956],[103.091194,-0.118264]],[[103.109191,-0.098513],[103.11224,-0.098278],[103.110981,-0.098296],[103.109191,-0.098513]],[[103.120868,-0.110348],[103.120445,-0.116689],[103.120267,-0.119365],[103.120868,-0.110348]],[[103.227489,-0.122517],[103.223227,-0.120895],[103.225598,-0.121797],[103.227489,-0.122517]],[[103.233168,-0.121425],[103.230719,-0.122148],[103.231475,-0.121925],[103.233168,-0.121425]],[[103.236265,-0.119346],[103.235113,-0.120117],[103.233168,-0.121425],[103.236265,-0.119346]],[[103.238951,-0.116223],[103.238507,-0.117134],[103.239117,-0.116066],[103.238951,-0.116223]],[[103.239117,-0.116066],[103.239117,-0.116066],[103.242334,-0.12064],[103.239117,-0.116066]],[[103.166239,-0.077893],[103.167103,-0.078044],[103.171305,-0.078779],[103.166239,-0.077893]],[[103.149601,-0.065758],[103.155174,-0.068883],[103.149882,-0.065839],[103.147838,-0.065251],[103.145501,-0.064957],[103.147299,-0.065183],[103.149601,-0.065758]],[[103.141996,-0.063487],[103.144999,-0.064746],[103.145501,-0.064957],[103.141996,-0.063487]],[[103.153871,-0.089924],[103.152693,-0.089973],[103.151668,-0.090042],[103.153871,-0.089924]],[[103.138785,-0.100177],[103.140018,-0.099262],[103.140603,-0.098827],[103.138785,-0.100177]],[[103.143559,-0.095086],[103.146249,-0.092371],[103.143953,-0.094588],[103.143559,-0.095086]],[[103.147692,-0.091641],[103.147265,-0.091835],[103.146249,-0.092371],[103.147692,-0.091641]],[[103.14469,-0.106173],[103.14279,-0.110954],[103.142424,-0.112201],[103.14469,-0.106173]],[[103.144811,-0.078719],[103.145687,-0.084097],[103.146098,-0.087222],[103.145385,-0.081669],[103.144811,-0.078719]],[[103.150574,-0.090329],[103.150574,-0.090329],[103.150174,-0.088591],[103.150574,-0.090329]],[[103.154041,-0.096208],[103.159647,-0.101383],[103.159647,-0.101383],[103.154041,-0.096208]],[[103.156288,-0.087949],[103.155743,-0.089641],[103.155529,-0.090352],[103.156288,-0.087949]],[[103.157968,-0.091231],[103.157009,-0.090864],[103.155144,-0.090252],[103.157968,-0.091231]],[[103.162452,-0.095331],[103.158371,-0.091583],[103.157968,-0.091231],[103.162452,-0.095331]],[[103.16073,-0.100513],[103.161911,-0.099563],[103.163974,-0.097538],[103.16073,-0.100513]],[[103.15233,-0.112543],[103.155418,-0.106168],[103.153557,-0.10993],[103.15233,-0.112543]],[[103.174565,-0.103672],[103.176046,-0.103366],[103.173679,-0.103747],[103.174565,-0.103672]],[[103.17797,-0.102665],[103.179583,-0.101765],[103.176046,-0.103366],[103.17797,-0.102665]],[[103.182011,-0.099737],[103.180928,-0.100642],[103.179583,-0.101765],[103.182011,-0.099737]],[[103.176992,-0.0991],[103.17699,-0.099095],[103.173209,-0.099898],[103.176992,-0.0991]],[[103.216831,-0.097812],[103.218435,-0.099753],[103.215418,-0.095933],[103.216831,-0.097812]],[[103.214117,-0.094324],[103.215239,-0.095705],[103.213866,-0.093967],[103.214117,-0.094324]],[[103.211071,-0.096294],[103.21054,-0.096687],[103.214117,-0.094324],[103.211071,-0.096294]],[[103.209787,-0.089197],[103.210646,-0.089889],[103.208463,-0.088086],[103.209787,-0.089197]],[[103.208485,-0.092138],[103.208485,-0.092138],[103.210646,-0.089889],[103.208485,-0.092138]],[[103.203962,-0.087769],[103.204261,-0.087956],[103.203962,-0.087769],[103.203962,-0.087769]],[[103.200601,-0.088917],[103.200828,-0.086564],[103.201043,-0.084323],[103.200601,-0.088917]],[[103.201977,-0.091367],[103.201896,-0.091329],[103.200741,-0.093645],[103.201977,-0.091367]],[[103.202589,-0.090463],[103.203356,-0.089522],[103.202529,-0.090434],[103.201977,-0.091367],[103.202589,-0.090463]],[[103.203098,-0.091951],[103.204043,-0.090708],[103.204159,-0.090379],[103.203098,-0.091951],[103.203098,-0.091951]],[[103.204851,-0.093164],[103.203832,-0.092333],[103.205193,-0.093443],[103.204851,-0.093164]],[[103.206068,-0.092522],[103.206348,-0.092275],[103.205837,-0.09268],[103.205193,-0.093443],[103.206068,-0.092522]],[[103.206444,-0.092806],[103.206803,-0.09294],[103.206068,-0.092522],[103.206444,-0.092806]],[[103.20757,-0.09147],[103.207597,-0.091445],[103.207437,-0.091321],[103.207437,-0.091322],[103.20757,-0.09147]],[[103.206617,-0.094744],[103.207924,-0.093281],[103.207411,-0.093799],[103.206617,-0.094744]],[[103.206515,-0.094651],[103.207249,-0.095408],[103.206617,-0.094744],[103.206515,-0.094651]],[[103.208548,-0.096789],[103.207925,-0.096119],[103.208802,-0.097134],[103.208548,-0.096789]],[[103.210282,-0.0956],[103.209448,-0.096129],[103.208548,-0.096789],[103.210282,-0.0956]],[[103.211631,-0.101237],[103.211631,-0.101237],[103.214068,-0.10588],[103.211631,-0.101237]],[[103.215393,-0.109177],[103.215393,-0.109177],[103.214068,-0.10588],[103.215393,-0.109177]],[[103.207304,-0.095466],[103.204375,-0.097373],[103.20624,-0.096267],[103.207304,-0.095466]],[[103.171784,-0.065482],[103.171784,-0.065482],[103.171784,-0.065482],[103.171784,-0.065482]],[[103.168699,-0.034907],[103.16892,-0.037471],[103.171784,-0.065482],[103.168699,-0.034907]],[[103.182905,-0.07072],[103.183442,-0.071728],[103.185019,-0.074021],[103.182905,-0.07072]],[[103.1871,-0.082476],[103.188287,-0.082395],[103.188468,-0.082286],[103.1871,-0.082476]],[[103.191291,-0.086578],[103.192983,-0.086526],[103.194953,-0.086404],[103.191291,-0.086578]],[[103.203279,-0.08709],[103.201999,-0.088888],[103.20165,-0.089543],[103.203279,-0.08709]],[[103.207614,-0.088633],[103.207357,-0.088507],[103.207528,-0.088619],[103.207614,-0.088633]],[[103.206932,-0.088298],[103.206873,-0.088269],[103.20658,-0.088456],[103.206932,-0.088298]],[[103.205156,-0.08923],[103.205204,-0.089149],[103.204702,-0.088701],[103.205156,-0.08923]],[[103.204839,-0.089769],[103.204305,-0.090163],[103.204195,-0.090326],[103.204839,-0.089769]],[[103.210498,-0.095765],[103.210346,-0.095559],[103.210346,-0.095559],[103.210498,-0.095765]],[[103.279578,-0.02573],[103.27691,-0.029545],[103.27938,-0.02612],[103.279578,-0.02573]],[[103.27568,-0.036794],[103.277479,-0.037701],[103.278987,-0.038378],[103.27568,-0.036794]],[[103.28047,-0.039477],[103.282573,-0.041235],[103.281296,-0.040089],[103.28047,-0.039477]],[[103.242992,-0.006252],[103.242992,-0.006252],[103.239504,-0.008979],[103.242992,-0.006252]],[[103.245287,-0.0109],[103.245701,-0.011215],[103.24418,-0.009554],[103.245287,-0.0109]],[[103.256202,-0.016076],[103.256623,-0.018023],[103.25674,-0.018521],[103.256202,-0.016076]],[[103.263616,-0.022665],[103.25986,-0.020037],[103.26425,-0.023244],[103.263616,-0.022665]],[[103.267662,-0.031752],[103.266236,-0.029284],[103.267034,-0.030815],[103.267662,-0.031752]],[[103.235143,0.001578],[103.235139,0.001581],[103.23598,0.000627],[103.235143,0.001578]],[[103.242992,-0.006252],[103.242886,-0.00612],[103.24254,-0.00595],[103.242992,-0.006252]],[[103.317711,-0.073652],[103.317763,-0.076425],[103.317729,-0.073338],[103.317711,-0.073652]],[[103.318829,-0.079142],[103.318131,-0.077781],[103.318492,-0.078695],[103.318829,-0.079142]],[[103.319425,-0.079932],[103.320119,-0.080373],[103.319184,-0.079612],[103.319425,-0.079932]],[[103.321177,-0.080541],[103.320362,-0.080411],[103.320119,-0.080373],[103.321177,-0.080541]],[[103.303078,-0.057014],[103.304821,-0.05772],[103.302686,-0.056779],[103.303078,-0.057014]],[[103.321792,-0.077394],[103.322643,-0.075353],[103.321328,-0.078373],[103.321792,-0.077394]],[[103.324873,-0.07],[103.325334,-0.067836],[103.324758,-0.070277],[103.324873,-0.07]],[[103.293766,-0.051564],[103.297301,-0.053385],[103.294124,-0.051683],[103.290768,-0.050495],[103.293766,-0.051564]],[[103.283838,-0.042701],[103.285363,-0.04516],[103.284032,-0.042925],[103.283838,-0.042701]],[[103.117645,-0.029107],[103.116891,-0.095048],[103.116896,-0.095019],[103.117645,-0.029107]],[[103.100883,-0.033321],[103.098888,-0.033791],[103.100883,-0.033327],[103.100883,-0.033321]],[[103.08753,-0.035881],[103.093851,-0.03479],[103.097129,-0.034195],[103.07958,-0.037254],[103.08753,-0.035881]],[[103.058501,-0.036903],[103.071722,-0.037124],[103.07958,-0.037254],[103.058501,-0.036903]],[[103.058318,-0.026189],[103.058476,-0.039499],[103.058501,-0.036903],[103.058318,-0.026189]],[[103.058058,-0.082543],[103.058073,-0.081207],[103.058476,-0.039499],[103.058058,-0.082543]],[[103.091663,-0.035168],[103.093262,-0.084404],[103.093285,-0.084281],[103.091663,-0.035168]],[[103.095276,-0.084892],[103.095271,-0.085348],[103.095284,-0.085239],[103.095276,-0.084892]],[[103.095264,-0.085401],[103.09507,-0.08564],[103.09525,-0.085516],[103.095264,-0.085401]],[[103.094123,-0.086552],[103.095956,-0.088499],[103.094493,-0.08682],[103.094123,-0.086552]],[[103.095717,-0.097848],[103.097082,-0.099213],[103.09762,-0.099751],[103.095717,-0.097848]],[[103.088795,-0.087016],[103.091093,-0.085979],[103.089142,-0.086857],[103.088795,-0.087016]],[[103.080552,-0.09169],[103.080173,-0.091388],[103.081145,-0.092163],[103.080552,-0.09169]],[[103.111935,-0.095266],[103.111935,-0.095266],[103.111317,-0.095355],[103.111935,-0.095266]],[[103.111972,-0.094967],[103.111919,-0.094912],[103.11195,-0.09514],[103.111972,-0.094967]],[[103.106013,-0.09681],[103.106013,-0.09681],[103.106032,-0.096803],[103.106013,-0.09681]],[[103.097367,-0.094059],[103.097575,-0.09443],[103.097321,-0.09356],[103.097367,-0.094059]],[[103.097939,-0.095082],[103.098852,-0.096717],[103.099233,-0.097201],[103.097939,-0.095082]],[[103.105924,-0.096569],[103.105466,-0.093586],[103.105792,-0.096208],[103.105924,-0.096569]],[[103.112161,-0.079131],[103.113128,-0.079128],[103.109388,-0.079142],[103.112161,-0.079131]],[[103.116891,-0.095052],[103.11547,-0.094843],[103.116891,-0.095052],[103.116891,-0.095052]],[[103.30507,-0.110644],[103.309511,-0.088479],[103.30507,-0.110644],[103.30507,-0.110644]],[[103.263459,-0.096412],[103.263699,-0.096393],[103.263699,-0.096393],[103.263459,-0.096412]],[[103.336484,-0.08227],[103.340358,-0.086669],[103.340081,-0.086284],[103.336484,-0.08227]],[[103.335365,-0.081143],[103.335064,-0.080877],[103.336484,-0.08227],[103.335365,-0.081143]],[[103.351079,-0.076653],[103.351084,-0.076674],[103.352965,-0.08312],[103.351079,-0.076653]],[[103.36701,-0.091642],[103.356659,-0.092468],[103.360163,-0.092193],[103.36701,-0.091642]],[[103.336934,-0.100994],[103.333803,-0.103624],[103.327243,-0.098678],[103.33516,-0.104692],[103.333807,-0.103621],[103.336934,-0.100994]],[[103.337001,-0.101081],[103.337121,-0.100962],[103.336934,-0.100994],[103.337001,-0.101081]],[[103.270508,-0.096775],[103.270508,-0.096775],[103.270508,-0.096775],[103.270508,-0.096775]],[[103.27061,-0.095407],[103.270609,-0.095083],[103.270508,-0.096775],[103.27061,-0.095407]],[[103.284714,-0.101694],[103.289938,-0.104938],[103.289938,-0.104938],[103.284714,-0.101694]],[[103.314915,-0.116681],[103.307651,-0.115124],[103.31566,-0.11684],[103.314915,-0.116681]],[[103.321754,-0.117228],[103.321754,-0.117228],[103.31566,-0.11684],[103.321754,-0.117228]],[[103.305153,-0.116432],[103.306096,-0.114263],[103.305551,-0.115289],[103.305153,-0.116432]],[[103.30287,-0.115291],[103.302795,-0.115455],[103.302533,-0.11628],[103.30287,-0.115291]],[[103.301177,-0.118717],[103.301419,-0.118332],[103.302533,-0.11628],[103.301177,-0.118717]],[[103.304899,-0.115156],[103.304722,-0.115554],[103.304952,-0.115076],[103.30416,-0.114795],[103.304899,-0.115156]],[[103.340534,-0.100935],[103.34206,-0.10237],[103.340692,-0.101084],[103.33981,-0.10025],[103.340534,-0.100935]],[[103.341407,-0.100368],[103.341399,-0.100374],[103.340692,-0.101084],[103.341407,-0.100368]],[[103.338339,-0.101758],[103.338938,-0.101199],[103.33981,-0.10025],[103.338339,-0.101758]],[[103.34472,-0.102102],[103.344549,-0.101838],[103.343118,-0.10063],[103.343118,-0.10063],[103.34472,-0.102102]],[[103.344477,-0.102377],[103.344191,-0.1027],[103.34472,-0.102102],[103.344477,-0.102377]],[[103.333213,-0.133307],[103.333636,-0.137321],[103.333347,-0.134297],[103.333213,-0.133307]],[[103.345811,-0.105833],[103.344294,-0.104193],[103.343585,-0.103516],[103.345811,-0.105833]],[[103.345624,-0.105955],[103.346733,-0.105256],[103.345811,-0.105833],[103.345624,-0.105955]],[[103.347498,-0.106793],[103.344723,-0.100967],[103.345704,-0.103246],[103.346733,-0.105256],[103.347498,-0.106793]],[[103.348393,-0.108122],[103.34927,-0.109144],[103.347498,-0.106793],[103.348393,-0.108122]],[[103.343239,-0.10301],[103.342775,-0.103577],[103.342019,-0.104422],[103.342423,-0.104012],[103.343239,-0.10301]],[[103.343649,-0.107295],[103.34256,-0.105626],[103.341822,-0.104622],[103.343649,-0.107295]],[[103.345624,-0.105955],[103.344671,-0.106572],[103.343649,-0.107295],[103.345624,-0.105955]],[[103.342041,-0.110146],[103.342041,-0.110146],[103.340468,-0.111406],[103.342041,-0.110146]],[[103.344556,-0.098927],[103.343714,-0.097865],[103.343714,-0.097865],[103.344556,-0.098927]],[[103.341989,-0.09604],[103.340035,-0.098033],[103.340474,-0.097586],[103.341989,-0.09604]],[[103.339592,-0.098489],[103.339592,-0.098489],[103.339999,-0.098935],[103.339592,-0.098489]],[[103.340137,-0.0991],[103.340574,-0.099481],[103.34044,-0.099336],[103.340137,-0.0991]],[[103.34023,-0.10023],[103.340844,-0.099773],[103.340693,-0.09961],[103.340732,-0.099742],[103.34023,-0.10023]],[[103.342077,-0.098903],[103.342251,-0.098731],[103.341908,-0.099058],[103.342077,-0.098903]],[[103.34186,-0.100048],[103.34166,-0.100189],[103.3417,-0.100232],[103.34186,-0.100048]],[[103.342357,-0.097262],[103.342715,-0.097916],[103.342773,-0.097865],[103.342357,-0.097262]],[[103.275156,-0.096722],[103.275599,-0.095479],[103.276622,-0.09261],[103.275156,-0.096722]],[[103.302889,-0.109957],[103.30425,-0.110385],[103.302068,-0.109661],[103.302889,-0.109957]],[[103.285029,-0.098986],[103.281894,-0.098065],[103.285492,-0.099323],[103.285029,-0.098986]],[[103.285215,-0.098626],[103.285115,-0.09882],[103.28854,-0.095584],[103.285215,-0.098626]],[[103.336124,-0.08045],[103.348986,-0.068325],[103.335956,-0.0806],[103.336124,-0.08045]],[[103.333688,-0.078644],[103.333648,-0.078792],[103.333735,-0.07868],[103.333688,-0.078644]],[[103.389667,-0.115699],[103.389648,-0.115151],[103.389866,-0.121362],[103.389667,-0.115699]],[[103.392419,-0.114458],[103.393314,-0.113971],[103.389667,-0.115699],[103.392419,-0.114458]],[[103.375382,-0.127881],[103.379124,-0.126425],[103.376161,-0.127518],[103.375382,-0.127881]],[[103.389571,-0.107551],[103.388635,-0.108044],[103.386913,-0.109024],[103.390415,-0.107121],[103.389571,-0.107551]],[[103.386912,-0.109024],[103.388858,-0.112591],[103.386913,-0.109024],[103.386912,-0.109024]],[[103.388978,-0.107237],[103.389313,-0.107066],[103.388983,-0.107233],[103.388978,-0.107237]],[[103.386744,-0.108813],[103.387895,-0.108096],[103.388413,-0.107635],[103.386744,-0.108813],[103.386744,-0.108813]],[[103.374856,-0.093167],[103.376417,-0.095209],[103.376417,-0.095209],[103.374856,-0.093167]],[[103.384738,-0.106424],[103.383581,-0.105043],[103.381806,-0.102726],[103.382619,-0.103901],[103.384738,-0.106424]],[[103.386351,-0.103727],[103.386855,-0.10336],[103.386855,-0.10336],[103.386351,-0.103727]],[[103.317499,0.000505],[103.315166,0.001021],[103.316199,0.000763],[103.317499,0.000505]],[[103.31511,0.00136],[103.31506,0.001282],[103.315166,0.001021],[103.31511,0.00136]],[[103.315006,0.001197],[103.314932,0.001082],[103.314993,0.001074],[103.315006,0.001197]],[[103.314169,0.001035],[103.314627,0.000981],[103.314634,0.001063],[103.314169,0.001035]],[[103.249553,-0.084414],[103.252453,-0.083199],[103.249155,-0.084581],[103.249553,-0.084414]],[[103.252694,-0.096095],[103.253398,-0.098385],[103.249553,-0.084414],[103.252694,-0.096095]],[[103.253148,-0.098495],[103.253398,-0.098385],[103.253398,-0.098385],[103.253148,-0.098495]],[[103.252314,-0.098861],[103.251534,-0.096813],[103.252314,-0.098861],[103.252314,-0.098861]],[[103.249498,-0.100286],[103.249953,-0.099896],[103.2495,-0.100285],[103.249498,-0.100286]],[[103.246787,-0.099149],[103.247502,-0.100076],[103.247544,-0.100041],[103.246787,-0.099149]],[[103.244454,-0.086549],[103.250095,-0.098025],[103.244454,-0.086549],[103.244454,-0.086549]],[[103.258196,-0.09703],[103.255386,-0.097675],[103.255386,-0.097675],[103.259597,-0.096709],[103.258196,-0.09703]]]}}]}