{"type":"FeatureCollection","features":[{"type":"Feature","properties":{"kdkec":"1403020","nmkec":"RETEH","kddesa":"1403020002","nmdesa":"PULAU KECIL","idsubsls":"1403020002002600","kdsubsls":"00"},"geometry":{"type":"Polygon","coordinates":[[[103.168531,-0.68588],[103.169599,-0.686053],[103.167844,-0.693233],[103.167768,-0.694994],[103.165392,-0.694736],[103.163569,-0.694267],[103.164266,-0.689448],[103.16656,-0.689992],[103.167148,-0.68985],[103.167576,-0.68875],[103.167608,-0.687952],[103.167416,-0.687644],[103.168531,-0.68588]]]}}]}