{"type":"FeatureCollection","features":[{"type":"Feature","properties":{"kdkec":"1403020","nmkec":"RETEH","kddesa":"1403020002","nmdesa":"PULAU KECIL","idsubsls":"1403020002001200","kdsubsls":"00"},"geometry":{"type":"Polygon","coordinates":[[[103.148483,-0.68609],[103.149953,-0.695301],[103.151166,-0.704189],[103.148554,-0.723964],[103.140041,-0.736409],[103.139075,-0.738745],[103.138417,-0.74166],[103.136342,-0.748951],[103.134668,-0.748808],[103.140916,-0.726347],[103.142024,-0.72387],[103.142658,-0.720875],[103.143075,-0.714936],[103.143432,-0.697736],[103.142153,-0.687797],[103.148483,-0.68609]]]}}]}