{"type":"FeatureCollection","features":[{"type":"Feature","properties":{"kdkec":"1403030","nmkec":"ENOK","kddesa":"1403030009","nmdesa":"RANTAU PANJANG","idsubsls":"1403030009000800","kdsubsls":"00"},"geometry":{"type":"Polygon","coordinates":[[[103.223116,-0.441023],[103.223371,-0.441578],[103.224167,-0.44247],[103.227531,-0.445484],[103.228519,-0.445316],[103.229062,-0.445593],[103.229339,-0.446135],[103.229412,-0.446786],[103.230972,-0.447773],[103.229337,-0.449179],[103.230275,-0.450964],[103.232453,-0.451751],[103.232788,-0.452161],[103.233089,-0.452786],[103.233089,-0.454015],[103.233732,-0.456225],[103.230759,-0.458351],[103.230054,-0.457017],[103.218562,-0.443671],[103.214563,-0.411119],[103.213743,-0.407904],[103.213756,-0.407088],[103.209169,-0.384197],[103.213884,-0.378881],[103.218848,-0.384535],[103.219412,-0.390492],[103.219388,-0.400323],[103.222272,-0.439738],[103.223116,-0.441023]]]}}]}