{"type":"FeatureCollection","features":[{"type":"Feature","properties":{"kdkec":"1403030","nmkec":"ENOK","kddesa":"1403030009","nmdesa":"RANTAU PANJANG","idsubsls":"1403030009000100","kdsubsls":"00"},"geometry":{"type":"Polygon","coordinates":[[[103.247628,-0.422575],[103.25024,-0.422573],[103.252038,-0.445329],[103.250849,-0.452315],[103.25217,-0.453864],[103.254098,-0.460177],[103.252696,-0.469268],[103.256341,-0.48157],[103.261214,-0.49333],[103.257471,-0.492554],[103.25375,-0.488717],[103.248635,-0.49004],[103.244194,-0.490595],[103.242525,-0.482899],[103.241655,-0.469857],[103.241446,-0.468517],[103.236602,-0.45561],[103.237589,-0.455652],[103.237669,-0.454275],[103.238115,-0.453515],[103.242506,-0.422558],[103.247628,-0.422575]]]}}]}