{"type":"FeatureCollection","features":[{"type":"Feature","properties":{"kdkec":"1403030","nmkec":"ENOK","kddesa":"1403030009","nmdesa":"RANTAU PANJANG","idsubsls":"1403030009000500","kdsubsls":"00"},"geometry":{"type":"Polygon","coordinates":[[[103.235496,-0.452481],[103.234187,-0.452916],[103.234339,-0.454484],[103.235218,-0.454488],[103.235125,-0.455827],[103.234464,-0.455959],[103.230872,-0.46257],[103.230012,-0.464747],[103.229556,-0.46748],[103.230062,-0.468721],[103.231632,-0.469227],[103.233277,-0.470065],[103.234948,-0.472445],[103.23893,-0.491253],[103.237994,-0.49137],[103.23611,-0.493476],[103.235888,-0.496579],[103.236775,-0.50068],[103.236757,-0.501137],[103.221968,-0.501223],[103.222586,-0.493697],[103.221921,-0.485939],[103.219926,-0.478623],[103.219483,-0.474411],[103.218153,-0.470089],[103.216269,-0.466698],[103.21588,-0.46538],[103.218254,-0.46321],[103.219369,-0.461582],[103.221748,-0.459576],[103.2236,-0.459013],[103.224702,-0.459177],[103.226578,-0.459974],[103.22904,-0.459763],[103.229931,-0.458943],[103.233732,-0.456225],[103.233089,-0.454015],[103.233089,-0.452786],[103.232788,-0.452161],[103.232453,-0.451751],[103.230275,-0.450964],[103.229337,-0.449179],[103.231754,-0.4471],[103.234137,-0.449477],[103.235496,-0.452481]]]}}]}