{"type":"FeatureCollection","features":[{"type":"Feature","properties":{"kdkec":"1403010","nmkec":"KERITANG","kddesa":"1403010017","nmdesa":"PETALONGAN","idsubsls":"1403010017000700","kdsubsls":"00"},"geometry":{"type":"Polygon","coordinates":[[[102.670413,-0.717426],[102.671798,-0.715336],[102.671932,-0.715395],[102.682812,-0.705694],[102.686649,-0.705884],[102.687715,-0.704179],[102.690139,-0.704938],[102.689283,-0.70627],[102.683243,-0.710767],[102.681062,-0.712646],[102.679198,-0.714751],[102.67661,-0.722299],[102.673262,-0.722258],[102.670413,-0.717426]]]}}]}