{"type":"FeatureCollection","features":[{"type":"Feature","properties":{"kdkec":"1403010","nmkec":"KERITANG","kddesa":"1403010017","nmdesa":"PETALONGAN","idsubsls":"1403010017000400","kdsubsls":"00"},"geometry":{"type":"Polygon","coordinates":[[[102.660216,-0.704647],[102.662972,-0.705695],[102.662862,-0.706037],[102.664353,-0.706703],[102.663961,-0.707226],[102.662584,-0.707529],[102.662565,-0.708251],[102.663045,-0.708682],[102.662433,-0.709813],[102.663042,-0.710212],[102.662871,-0.71047],[102.663079,-0.71107],[102.660914,-0.712028],[102.660785,-0.711695],[102.660553,-0.711779],[102.65999,-0.709926],[102.659977,-0.708481],[102.65427,-0.700896],[102.655559,-0.699178],[102.661111,-0.700868],[102.660526,-0.702787],[102.660698,-0.702817],[102.660216,-0.704647]]]}}]}