{"type":"FeatureCollection","features":[{"type":"Feature","properties":{"kdkec":"1403020","nmkec":"RETEH","kddesa":"1403020001","nmdesa":"SANGLAR","idsubsls":"1403020001000400","kdsubsls":"00"},"geometry":{"type":"Polygon","coordinates":[[[103.040862,-0.686013],[103.041869,-0.685999],[103.041878,-0.68419],[103.044807,-0.683768],[103.046873,-0.683736],[103.046855,-0.685145],[103.046029,-0.685147],[103.045439,-0.698399],[103.043145,-0.698383],[103.043129,-0.695464],[103.04147,-0.695542],[103.040862,-0.686013]]]}}]}