{"type":"FeatureCollection","features":[{"type":"Feature","properties":{"kdkec":"1403020","nmkec":"RETEH","kddesa":"1403020001","nmdesa":"SANGLAR","idsubsls":"1403020001003200","kdsubsls":"00"},"geometry":{"type":"Polygon","coordinates":[[[103.087333,-0.757565],[103.085033,-0.757073],[103.084135,-0.697676],[103.084277,-0.687387],[103.086645,-0.687343],[103.086361,-0.690031],[103.085806,-0.693094],[103.085797,-0.69403],[103.085932,-0.697018],[103.086479,-0.70122],[103.08757,-0.740392],[103.087333,-0.757565]]]}}]}