{"type":"FeatureCollection","features":[{"type":"Feature","properties":{"kdkec":"1403020","nmkec":"RETEH","kddesa":"1403020001","nmdesa":"SANGLAR","idsubsls":"1403020001004200","kdsubsls":"00"},"geometry":{"type":"Polygon","coordinates":[[[103.111977,-0.68705],[103.114116,-0.68733],[103.113595,-0.698003],[103.113295,-0.701148],[103.101597,-0.722555],[103.097814,-0.75757],[103.097034,-0.757709],[103.100214,-0.722244],[103.104273,-0.712934],[103.108316,-0.705104],[103.111186,-0.698005],[103.111977,-0.68705]]]}}]}