{"type":"FeatureCollection","features":[{"type":"Feature","properties":{"kdkec":"1403051","nmkec":"CONCONG","kddesa":"1403051002","nmdesa":"KAMPUNG BARU","idsubsls":"1403051002000900","kdsubsls":"00"},"geometry":{"type":"Polygon","coordinates":[[[103.606351,-0.236888],[103.600383,-0.23916],[103.599695,-0.240015],[103.587793,-0.24551],[103.583452,-0.248234],[103.580361,-0.251338],[103.578921,-0.25341],[103.577554,-0.253929],[103.576381,-0.253986],[103.575413,-0.253616],[103.574886,-0.253657],[103.572669,-0.252515],[103.574001,-0.251299],[103.578397,-0.244809],[103.589759,-0.234762],[103.596133,-0.23237],[103.598881,-0.231515],[103.600499,-0.230758],[103.602697,-0.230562],[103.60425,-0.230179],[103.606351,-0.236888]]]}}]}