{"type":"FeatureCollection","features":[{"type":"Feature","properties":{"kdkec":"1403110","nmkec":"MANDAH","kddesa":"1403110003","nmdesa":"BAKAU ACEH","idsubsls":"1403110003200200","kdsubsls":"00"},"geometry":{"type":"Polygon","coordinates":[[[103.431275,-0.005554],[103.4346,-0.010623],[103.43744,-0.016488],[103.438551,-0.021921],[103.439909,-0.02544],[103.441885,-0.026798],[103.444586,-0.027578],[103.447441,-0.02791],[103.45096,-0.030503],[103.453924,-0.034577],[103.457134,-0.038096],[103.466209,-0.041739],[103.466705,-0.04237],[103.461972,-0.045556],[103.459843,-0.04543],[103.457426,-0.04565],[103.455449,-0.047188],[103.452812,-0.047408],[103.444682,-0.040816],[103.442046,-0.040816],[103.43875,-0.042354],[103.434793,-0.041029],[103.433037,-0.035103],[103.431499,-0.033126],[103.427544,-0.033126],[103.425127,-0.030709],[103.423344,-0.023903],[103.420074,-0.019284],[103.419853,-0.019195],[103.426725,-0.007328],[103.428184,-0.005273],[103.430525,-0.006133],[103.431275,-0.005554]]]}}]}