{"type":"FeatureCollection","features":[{"type":"Feature","properties":{"kdkec":"1403110","nmkec":"MANDAH","kddesa":"1403110003","nmdesa":"BAKAU ACEH","idsubsls":"1403110003000600","kdsubsls":"00"},"geometry":{"type":"Polygon","coordinates":[[[103.423597,-0.003782],[103.423013,-0.004362],[103.422696,-0.004336],[103.422571,-0.003193],[103.420599,-0.003203],[103.419511,-0.002047],[103.422224,-0.002105],[103.42307,-0.001955],[103.423206,-0.003226],[103.423373,-0.003714],[103.423597,-0.003782]]]}}]}