{"type":"FeatureCollection","features":[{"type":"Feature","properties":{"kdkec":"1403110","nmkec":"MANDAH","kddesa":"1403110003","nmdesa":"BAKAU ACEH","idsubsls":"1403110003001700","kdsubsls":"00"},"geometry":{"type":"Polygon","coordinates":[[[103.4347,-0.040716],[103.428611,-0.049782],[103.417345,-0.042842],[103.41865,-0.040126],[103.418525,-0.039229],[103.417976,-0.037883],[103.417545,-0.034716],[103.417981,-0.026933],[103.423344,-0.023903],[103.425127,-0.030709],[103.427544,-0.033126],[103.431499,-0.033126],[103.433037,-0.035103],[103.4347,-0.040716]]]}}]}