{"type":"FeatureCollection","features":[{"type":"Feature","properties":{"kdkec":"1403071","nmkec":"KEMPAS","kddesa":"1403071005","nmdesa":"HARAPAN TANI","idsubsls":"1403071005002000","kdsubsls":"00"},"geometry":{"type":"Polygon","coordinates":[[[102.863219,-0.645372],[102.861116,-0.64661],[102.857735,-0.661835],[102.854205,-0.664316],[102.851652,-0.655735],[102.853669,-0.650435],[102.851977,-0.643274],[102.850121,-0.633919],[102.848901,-0.632629],[102.851383,-0.631298],[102.852165,-0.631232],[102.853515,-0.632675],[102.863219,-0.645372]]]}}]}