{"type":"FeatureCollection","features":[{"type":"Feature","properties":{"kdkec":"1403071","nmkec":"KEMPAS","kddesa":"1403071005","nmdesa":"HARAPAN TANI","idsubsls":"1403071005002300","kdsubsls":"00"},"geometry":{"type":"Polygon","coordinates":[[[102.816745,-0.590894],[102.815117,-0.590217],[102.819223,-0.581511],[102.832726,-0.586974],[102.847882,-0.601596],[102.857951,-0.612164],[102.859645,-0.614419],[102.854803,-0.618769],[102.860275,-0.62361],[102.857352,-0.627501],[102.855634,-0.629005],[102.8541,-0.627331],[102.853456,-0.627814],[102.820853,-0.593067],[102.816745,-0.590894]]]}}]}