{"type":"FeatureCollection","features":[{"type":"Feature","properties":{"kdkec":"1403071","nmkec":"KEMPAS","kddesa":"1403071005","nmdesa":"HARAPAN TANI","idsubsls":"1403071005000900","kdsubsls":"00"},"geometry":{"type":"Polygon","coordinates":[[[102.887273,-0.606395],[102.887824,-0.607421],[102.880368,-0.611549],[102.875419,-0.614067],[102.870598,-0.615915],[102.866802,-0.617885],[102.863729,-0.619744],[102.860275,-0.62361],[102.854803,-0.618769],[102.859645,-0.614419],[102.884854,-0.601895],[102.887273,-0.606395]]]}}]}