{"type":"FeatureCollection","features":[{"type":"Feature","properties":{"kdkec":"1403110","nmkec":"MANDAH","kddesa":"1403110003","nmdesa":"BAKAU ACEH","idsubsls":"1403110003001800","kdsubsls":"00"},"geometry":{"type":"Polygon","coordinates":[[[103.417545,-0.034716],[103.417976,-0.037883],[103.418525,-0.039229],[103.41865,-0.040126],[103.417345,-0.042842],[103.410719,-0.038628],[103.407139,-0.036554],[103.417876,-0.018405],[103.420074,-0.019284],[103.423344,-0.023903],[103.417981,-0.026933],[103.417545,-0.034716]]]}}]}