{"type":"FeatureCollection","features":[{"type":"Feature","properties":{"kdkec":"1403110","nmkec":"MANDAH","kddesa":"1403110003","nmdesa":"BAKAU ACEH","idsubsls":"1403110003000100","kdsubsls":"00"},"geometry":{"type":"Polygon","coordinates":[[[103.423597,-0.003782],[103.423933,-0.003692],[103.424148,-0.003978],[103.423342,-0.004739],[103.423175,-0.004554],[103.422256,-0.005488],[103.421987,-0.005232],[103.422267,-0.004978],[103.420599,-0.003203],[103.422571,-0.003193],[103.422696,-0.004336],[103.423013,-0.004362],[103.423597,-0.003782]]]}}]}