{"type":"FeatureCollection","features":[{"type":"Feature","properties":{"kdkec":"1403110","nmkec":"MANDAH","kddesa":"1403110003","nmdesa":"BAKAU ACEH","idsubsls":"1403110003001600","kdsubsls":"00"},"geometry":{"type":"Polygon","coordinates":[[[103.434676,-0.081372],[103.423799,-0.074543],[103.418947,-0.072035],[103.416384,-0.068437],[103.415646,-0.067971],[103.428611,-0.049782],[103.4347,-0.040716],[103.434793,-0.041029],[103.43875,-0.042354],[103.442046,-0.040816],[103.444682,-0.040816],[103.452812,-0.047408],[103.455449,-0.047188],[103.434676,-0.081372]]]}}]}