{"type":"FeatureCollection","features":[{"type":"Feature","properties":{"kdkec":"1403110","nmkec":"MANDAH","kddesa":"1403110003","nmdesa":"BAKAU ACEH","idsubsls":"1403110003000900","kdsubsls":"00"},"geometry":{"type":"Polygon","coordinates":[[[103.448719,-0.015014],[103.444308,-0.014912],[103.443062,-0.014442],[103.442265,-0.013625],[103.441285,-0.012134],[103.437241,-0.004578],[103.435666,-0.002167],[103.438753,0.000213],[103.443817,0.005905],[103.447559,0.006328],[103.453815,-0.000161],[103.449779,-0.002543],[103.453273,-0.010431],[103.453385,-0.012014],[103.454769,-0.014657],[103.45285,-0.01554],[103.448719,-0.015014]]]}}]}