{"type":"FeatureCollection","features":[{"type":"Feature","properties":{"kdkec":"1403110","nmkec":"MANDAH","kddesa":"1403110003","nmdesa":"BAKAU ACEH","idsubsls":"1403110003000500","kdsubsls":"00"},"geometry":{"type":"Polygon","coordinates":[[[103.420599,-0.003203],[103.422267,-0.004978],[103.421987,-0.005232],[103.422256,-0.005488],[103.42054,-0.007467],[103.417499,-0.012085],[103.41179,-0.020048],[103.408868,-0.019723],[103.406671,-0.016207],[103.406011,-0.012252],[103.408868,-0.009396],[103.419511,-0.002047],[103.420599,-0.003203]]]}}]}