{"type":"FeatureCollection","features":[{"type":"Feature","properties":{"kdkec":"1403110","nmkec":"MANDAH","kddesa":"1403110003","nmdesa":"BAKAU ACEH","idsubsls":"1403110003001000","kdsubsls":"00"},"geometry":{"type":"Polygon","coordinates":[[[103.449859,-0.027743],[103.450151,-0.027434],[103.450331,-0.026695],[103.4515,-0.025311],[103.452239,-0.024108],[103.458323,-0.019747],[103.457636,-0.018779],[103.455127,-0.020232],[103.45428,-0.019162],[103.454435,-0.019048],[103.45285,-0.01554],[103.458017,-0.013102],[103.462698,-0.019083],[103.460954,-0.020383],[103.47116,-0.029661],[103.479696,-0.033355],[103.47077,-0.04501],[103.466705,-0.04237],[103.466209,-0.041739],[103.457134,-0.038096],[103.453924,-0.034577],[103.45096,-0.030503],[103.448833,-0.028932],[103.449859,-0.027743]]]}}]}