{"type":"FeatureCollection","features":[{"type":"Feature","properties":{"kdkec":"1403011","nmkec":"KEMUNING","kddesa":"1403011009","nmdesa":"LIMAU MANIS","idsubsls":"1403011009000400","kdsubsls":"00"},"geometry":{"type":"Polygon","coordinates":[[[102.820053,-0.869016],[102.81994,-0.869159],[102.820167,-0.869711],[102.819746,-0.870069],[102.819593,-0.870501],[102.819724,-0.87132],[102.819149,-0.871388],[102.818807,-0.871123],[102.818649,-0.871323],[102.818291,-0.871331],[102.818292,-0.871776],[102.818137,-0.871971],[102.817529,-0.871695],[102.816761,-0.871798],[102.811265,-0.867714],[102.793284,-0.852422],[102.794945,-0.846184],[102.81519,-0.865479],[102.820053,-0.869016]]]}}]}