{"type":"FeatureCollection","features":[{"type":"Feature","properties":{"kdkec":"1403011","nmkec":"KEMUNING","kddesa":"1403011009","nmdesa":"LIMAU MANIS","idsubsls":"1403011009000100","kdsubsls":"00"},"geometry":{"type":"Polygon","coordinates":[[[102.778672,-0.864451],[102.791134,-0.856107],[102.791181,-0.85708],[102.794209,-0.864017],[102.80249,-0.869049],[102.812557,-0.878073],[102.812434,-0.878484],[102.81257,-0.878922],[102.812161,-0.879104],[102.812229,-0.879326],[102.813327,-0.879309],[102.813406,-0.879434],[102.812758,-0.879747],[102.812678,-0.880008],[102.812951,-0.88052],[102.812479,-0.880708],[102.812184,-0.881163],[102.811661,-0.881316],[102.81157,-0.881504],[102.811558,-0.882846],[102.812076,-0.883329],[102.812081,-0.883613],[102.811962,-0.883847],[102.811251,-0.884011],[102.811194,-0.88483],[102.810774,-0.884989],[102.811177,-0.885507],[102.811103,-0.885803],[102.810449,-0.886064],[102.810222,-0.887116],[102.809537,-0.887668],[102.778672,-0.864451]]]}}]}