{"type":"FeatureCollection","features":[{"type":"Feature","properties":{"kdkec":"1403011","nmkec":"KEMUNING","kddesa":"1403011009","nmdesa":"LIMAU MANIS","idsubsls":"1403011009000600","kdsubsls":"00"},"geometry":{"type":"Polygon","coordinates":[[[102.823094,-0.866265],[102.818679,-0.863638],[102.812629,-0.85825],[102.810597,-0.856835],[102.800046,-0.847443],[102.797351,-0.844523],[102.797668,-0.843635],[102.796921,-0.842924],[102.798622,-0.838502],[102.80667,-0.846713],[102.817178,-0.856578],[102.825327,-0.861594],[102.825224,-0.86198],[102.824844,-0.862415],[102.823722,-0.862738],[102.822929,-0.863986],[102.823094,-0.866265]]]}}]}