{"type":"FeatureCollection","features":[{"type":"Feature","properties":{"kdkec":"1403120","nmkec":"KATEMAN","kddesa":"1403120002","nmdesa":"KUALA SELAT","idsubsls":"1403120002000100","kdsubsls":"00"},"geometry":{"type":"Polygon","coordinates":[[[103.76388,0.185693],[103.764122,0.18456],[103.764804,0.183704],[103.765041,0.182609],[103.763208,0.182996],[103.762641,0.180028],[103.762241,0.172097],[103.763097,0.165024],[103.76023,0.165003],[103.76102,0.183769],[103.760498,0.18396],[103.760714,0.184863],[103.760855,0.184855],[103.760992,0.185734],[103.76388,0.185693]]]}}]}