{"type":"FeatureCollection","features":[{"type":"Feature","properties":{"kdkec":"1403120","nmkec":"KATEMAN","kddesa":"1403120002","nmdesa":"KUALA SELAT","idsubsls":"1403120002001400","kdsubsls":"00"},"geometry":{"type":"Polygon","coordinates":[[[103.742423,0.190268],[103.741493,0.189806],[103.741345,0.188836],[103.741177,0.188652],[103.739152,0.188919],[103.737196,0.18956],[103.73768,0.190352],[103.737933,0.226395],[103.74003,0.249574],[103.740596,0.247832],[103.742122,0.245978],[103.742613,0.244288],[103.744265,0.241344],[103.745366,0.238672],[103.748659,0.232199],[103.742423,0.190268]]]}}]}