{"type":"FeatureCollection","features":[{"type":"Feature","properties":{"kdkec":"1403122","nmkec":"TELUK BELENGKONG","kddesa":"1403122012","nmdesa":"GEMBARAN","idsubsls":"1403122012002000","kdsubsls":"00"},"geometry":{"type":"Polygon","coordinates":[[[103.364671,0.260264],[103.368274,0.259887],[103.36878,0.259468],[103.369027,0.258554],[103.371468,0.258586],[103.371646,0.255819],[103.373138,0.256368],[103.378479,0.240178],[103.381196,0.230661],[103.366989,0.225336],[103.363943,0.252604],[103.360856,0.252174],[103.359699,0.261333],[103.361224,0.260968],[103.363052,0.259957],[103.363574,0.259952],[103.364671,0.260264]]]}}]}