{"type":"FeatureCollection","features":[{"type":"Feature","properties":{"kdkec":"1403122","nmkec":"TELUK BELENGKONG","kddesa":"1403122012","nmdesa":"GEMBARAN","idsubsls":"1403122012002100","kdsubsls":"00"},"geometry":{"type":"Polygon","coordinates":[[[103.36878,0.259468],[103.368274,0.259887],[103.36509,0.260231],[103.363052,0.259957],[103.361224,0.260968],[103.359696,0.261334],[103.358642,0.262087],[103.358169,0.262173],[103.357566,0.261872],[103.356405,0.262883],[103.354834,0.263098],[103.353845,0.264002],[103.352167,0.264733],[103.349456,0.265464],[103.348169,0.266454],[103.349002,0.267828],[103.349612,0.269599],[103.349804,0.271288],[103.350913,0.275669],[103.351741,0.276978],[103.352809,0.279276],[103.353891,0.282669],[103.354172,0.284245],[103.355107,0.286916],[103.35683,0.29075],[103.358236,0.293138],[103.359007,0.293422],[103.360904,0.292914],[103.362427,0.291498],[103.364431,0.290617],[103.365392,0.29051],[103.367369,0.290804],[103.369348,0.291426],[103.371468,0.258586],[103.369027,0.258554],[103.36878,0.259468]]]}}]}