{"type":"FeatureCollection","features":[{"type":"Feature","properties":{"kdkec":"1403122","nmkec":"TELUK BELENGKONG","kddesa":"1403122012","nmdesa":"GEMBARAN","idsubsls":"1403122012001800","kdsubsls":"00"},"geometry":{"type":"Polygon","coordinates":[[[103.348169,0.266454],[103.349456,0.265464],[103.352167,0.264733],[103.353845,0.264002],[103.354913,0.263079],[103.358255,0.222284],[103.343801,0.217213],[103.343341,0.218347],[103.343839,0.233164],[103.342194,0.254332],[103.343098,0.255112],[103.344407,0.256661],[103.345049,0.25789],[103.346919,0.264435],[103.348169,0.266454]]]}}]}