{"type":"FeatureCollection","features":[{"type":"Feature","properties":{"kdkec":"1403051","nmkec":"CONCONG","kddesa":"1403051004","nmdesa":"CONCONG DALAM","idsubsls":"1403051004000800","kdsubsls":"00"},"geometry":{"type":"Polygon","coordinates":[[[103.509787,-0.314128],[103.510338,-0.314309],[103.511514,-0.31425],[103.512815,-0.314407],[103.517394,-0.313069],[103.518043,-0.313126],[103.519401,-0.312129],[103.519425,-0.316595],[103.504175,-0.316411],[103.503792,-0.315787],[103.504149,-0.3157],[103.504447,-0.31512],[103.505031,-0.315147],[103.50513,-0.314566],[103.505537,-0.314644],[103.505473,-0.315014],[103.505991,-0.315128],[103.507022,-0.314808],[103.509736,-0.314685],[103.509787,-0.314128]]]}}]}