{"type":"FeatureCollection","features":[{"type":"Feature","properties":{"kdkec":"1403051","nmkec":"CONCONG","kddesa":"1403051004","nmdesa":"CONCONG DALAM","idsubsls":"1403051004000200","kdsubsls":"00"},"geometry":{"type":"Polygon","coordinates":[[[103.4649,-0.325192],[103.465406,-0.325231],[103.465383,-0.325379],[103.465709,-0.325564],[103.465517,-0.325649],[103.465626,-0.325975],[103.465508,-0.326015],[103.465688,-0.326486],[103.464519,-0.32695],[103.464731,-0.325181],[103.4649,-0.325192]]]}}]}