{"type":"FeatureCollection","features":[{"type":"Feature","properties":{"kdkec":"1403100","nmkec":"GAUNG","kddesa":"1403100007","nmdesa":"LAHANG BARU","idsubsls":"1403100007001700","kdsubsls":"00"},"geometry":{"type":"Polygon","coordinates":[[[103.342693,-0.137628],[103.342377,-0.133467],[103.340882,-0.128952],[103.340507,-0.126318],[103.339945,-0.114842],[103.33901,-0.112773],[103.337349,-0.110264],[103.338093,-0.109077],[103.339393,-0.110579],[103.340468,-0.111406],[103.342042,-0.110146],[103.356167,-0.13208],[103.359446,-0.136045],[103.352293,-0.135805],[103.346897,-0.135897],[103.342693,-0.137628]]]}}]}