{"type":"FeatureCollection","features":[{"type":"Feature","properties":{"kdkec":"1403100","nmkec":"GAUNG","kddesa":"1403100007","nmdesa":"LAHANG BARU","idsubsls":"1403100007001600","kdsubsls":"00"},"geometry":{"type":"Polygon","coordinates":[[[103.360956,-0.118409],[103.361605,-0.135503],[103.359446,-0.136045],[103.356167,-0.13208],[103.341749,-0.109692],[103.344187,-0.108119],[103.343649,-0.107295],[103.345624,-0.105955],[103.347655,-0.108722],[103.348393,-0.108122],[103.34927,-0.109144],[103.351061,-0.110659],[103.356981,-0.114945],[103.360956,-0.118409]]]}}]}