{"type":"FeatureCollection","features":[{"type":"Feature","properties":{"kdkec":"1403010","nmkec":"KERITANG","kddesa":"1403010008","nmdesa":"KUALA KERITANG","idsubsls":"1403010008100100","kdsubsls":"00"},"geometry":{"type":"Polygon","coordinates":[[[102.841596,-0.744327],[102.847797,-0.748242],[102.850882,-0.750659],[102.853139,-0.753044],[102.852328,-0.754236],[102.850961,-0.755396],[102.850511,-0.755472],[102.849586,-0.754262],[102.84827,-0.753181],[102.844848,-0.750875],[102.840699,-0.748634],[102.833599,-0.743773],[102.836853,-0.741689],[102.841596,-0.744327]]]}}]}