{"type":"FeatureCollection","features":[{"type":"Feature","properties":{"kdkec":"1403010","nmkec":"KERITANG","kddesa":"1403010008","nmdesa":"KUALA KERITANG","idsubsls":"1403010008001200","kdsubsls":"00"},"geometry":{"type":"Polygon","coordinates":[[[102.82704,-0.764873],[102.828827,-0.765609],[102.828263,-0.7724],[102.828326,-0.77701],[102.827786,-0.784164],[102.827213,-0.795293],[102.8261,-0.80515],[102.82469,-0.808891],[102.816429,-0.806801],[102.817404,-0.803941],[102.818978,-0.796533],[102.820504,-0.787948],[102.820441,-0.784609],[102.820155,-0.78162],[102.819455,-0.778695],[102.818024,-0.775818],[102.816848,-0.774148],[102.815126,-0.772393],[102.815102,-0.771778],[102.815294,-0.770305],[102.816391,-0.770051],[102.818283,-0.769971],[102.821669,-0.768111],[102.822925,-0.76676],[102.823243,-0.766076],[102.82116,-0.764439],[102.82081,-0.763628],[102.821256,-0.763055],[102.822496,-0.762419],[102.822893,-0.762674],[102.823306,-0.763405],[102.82704,-0.764873]]]}}]}