{"type":"FeatureCollection","features":[{"type":"Feature","properties":{"kdkec":"1403010","nmkec":"KERITANG","kddesa":"1403010008","nmdesa":"KUALA KERITANG","idsubsls":"1403010008000400","kdsubsls":"00"},"geometry":{"type":"Polygon","coordinates":[[[102.809549,-0.745197],[102.806864,-0.743661],[102.809392,-0.740111],[102.811373,-0.740724],[102.816941,-0.743454],[102.822497,-0.752964],[102.825201,-0.756012],[102.828635,-0.758714],[102.83102,-0.761274],[102.832324,-0.763229],[102.83296,-0.767307],[102.833119,-0.767512],[102.832796,-0.767554],[102.830727,-0.766369],[102.82704,-0.764873],[102.826203,-0.762836],[102.8242,-0.760435],[102.818319,-0.755681],[102.812482,-0.747927],[102.809549,-0.745197]]]}}]}