{"type":"FeatureCollection","features":[{"type":"Feature","properties":{"kdkec":"1403010","nmkec":"KERITANG","kddesa":"1403010008","nmdesa":"KUALA KERITANG","idsubsls":"1403010008001600","kdsubsls":"00"},"geometry":{"type":"Polygon","coordinates":[[[102.848942,-0.755492],[102.849196,-0.758127],[102.849101,-0.763373],[102.849292,-0.774582],[102.847347,-0.787362],[102.847025,-0.813329],[102.844834,-0.81309],[102.840206,-0.812123],[102.841833,-0.800853],[102.840139,-0.800633],[102.841633,-0.790905],[102.842062,-0.772304],[102.842082,-0.762387],[102.842861,-0.761969],[102.84492,-0.761517],[102.846414,-0.760675],[102.846144,-0.759705],[102.844363,-0.757606],[102.844316,-0.757002],[102.845063,-0.755444],[102.84581,-0.75449],[102.848163,-0.754411],[102.848942,-0.755492]]]}}]}