{"type":"FeatureCollection","features":[{"type":"Feature","properties":{"kdkec":"1403010","nmkec":"KERITANG","kddesa":"1403010008","nmdesa":"KUALA KERITANG","idsubsls":"1403010008003400","kdsubsls":"00"},"geometry":{"type":"Polygon","coordinates":[[[102.856735,-0.734737],[102.857287,-0.73638],[102.855743,-0.737648],[102.854742,-0.738944],[102.854122,-0.74198],[102.853375,-0.744604],[102.849141,-0.749295],[102.847797,-0.748242],[102.841596,-0.744327],[102.852404,-0.735774],[102.856081,-0.733055],[102.856735,-0.734737]]]}}]}