{"type":"FeatureCollection","features":[{"type":"Feature","properties":{"kdkec":"1403010","nmkec":"KERITANG","kddesa":"1403010008","nmdesa":"KUALA KERITANG","idsubsls":"1403010008003300","kdsubsls":"00"},"geometry":{"type":"Polygon","coordinates":[[[102.859522,-0.738619],[102.85809,-0.740321],[102.855465,-0.746869],[102.851074,-0.750862],[102.849141,-0.749295],[102.853375,-0.744604],[102.854122,-0.74198],[102.854742,-0.738944],[102.855743,-0.737648],[102.857287,-0.73638],[102.858977,-0.738266],[102.859522,-0.738619]]]}}]}