{"type":"FeatureCollection","features":[{"type":"Feature","properties":{"kdkec":"1403010","nmkec":"KERITANG","kddesa":"1403010008","nmdesa":"KUALA KERITANG","idsubsls":"1403010008002000","kdsubsls":"00"},"geometry":{"type":"Polygon","coordinates":[[[102.866317,-0.76363],[102.867537,-0.768377],[102.869793,-0.784327],[102.871414,-0.798763],[102.872972,-0.809478],[102.873306,-0.823087],[102.866589,-0.823087],[102.86798,-0.804271],[102.864721,-0.773334],[102.863942,-0.764319],[102.864673,-0.761187],[102.865421,-0.761003],[102.866317,-0.76363]]]}}]}