{"type":"FeatureCollection","features":[{"type":"Feature","properties":{"kdkec":"1403010","nmkec":"KERITANG","kddesa":"1403010008","nmdesa":"KUALA KERITANG","idsubsls":"1403010008101300","kdsubsls":"00"},"geometry":{"type":"Polygon","coordinates":[[[102.833119,-0.767512],[102.833215,-0.767988],[102.832205,-0.777757],[102.832126,-0.788791],[102.832348,-0.792177],[102.832094,-0.799426],[102.831112,-0.810452],[102.82469,-0.808891],[102.8261,-0.80515],[102.827213,-0.795293],[102.827786,-0.784164],[102.828326,-0.77701],[102.828263,-0.7724],[102.828827,-0.765609],[102.830727,-0.766369],[102.832796,-0.767554],[102.833119,-0.767512]]]}}]}