{"type":"FeatureCollection","features":[{"type":"Feature","properties":{"kdkec":"1403020","nmkec":"RETEH","kddesa":"1403020003","nmdesa":"PULAU KIJANG"},"geometry":{"type":"Polygon","coordinates":[[[103.196498,-0.762382],[103.190701,-0.761166],[103.191191,-0.758818],[103.190371,-0.749703],[103.188911,-0.743173],[103.188948,-0.738883],[103.189265,-0.736229],[103.192069,-0.728541],[103.193467,-0.72167],[103.195119,-0.70726],[103.195615,-0.698236],[103.1956,-0.694393],[103.196261,-0.688815],[103.196895,-0.68881],[103.196262,-0.688815],[103.196296,-0.687969],[103.200149,-0.687469],[103.20225,-0.686968],[103.206119,-0.686064],[103.208874,-0.685603],[103.208902,-0.685836],[103.209613,-0.686629],[103.208429,-0.686749],[103.209616,-0.686696],[103.209427,-0.688125],[103.209572,-0.689088],[103.209734,-0.690588],[103.210909,-0.694687],[103.212525,-0.702999],[103.214083,-0.708858],[103.215376,-0.729768],[103.216221,-0.766571],[103.196498,-0.762382]],[[103.202291,-0.687617],[103.202363,-0.687605],[103.20225,-0.686968],[103.202291,-0.687617]],[[103.208127,-0.688163],[103.207881,-0.688171],[103.209427,-0.688125],[103.208127,-0.688163]],[[103.20788,-0.688169],[103.207885,-0.688368],[103.20797,-0.688371],[103.207881,-0.688171],[103.20788,-0.688169]],[[103.209182,-0.689195],[103.208765,-0.689328],[103.209572,-0.689088],[103.209182,-0.689195]],[[103.208242,-0.689201],[103.208256,-0.689239],[103.208765,-0.689328],[103.208242,-0.689201]],[[103.200425,-0.688563],[103.201937,-0.688419],[103.204157,-0.688205],[103.20234,-0.68838],[103.200425,-0.688563]],[[103.201859,-0.68872],[103.204185,-0.688423],[103.201961,-0.688704],[103.201937,-0.688419],[103.201859,-0.68872]],[[103.201335,-0.688992],[103.20232,-0.68904],[103.201872,-0.688965],[103.201335,-0.688992]],[[103.201605,-0.690929],[103.201596,-0.689964],[103.201587,-0.689441],[103.201605,-0.690929]],[[103.200241,-0.691187],[103.201053,-0.691039],[103.201605,-0.690929],[103.200241,-0.691187]],[[103.200218,-0.689323],[103.200238,-0.690979],[103.200192,-0.692698],[103.200241,-0.691187],[103.200218,-0.689323]],[[103.201056,-0.691567],[103.20147,-0.691524],[103.200774,-0.691584],[103.201056,-0.691567]],[[103.202596,-0.691827],[103.202596,-0.691827],[103.202596,-0.691827],[103.202596,-0.691827]],[[103.204518,-0.690591],[103.202544,-0.690904],[103.202544,-0.690904],[103.204518,-0.690591]],[[103.204575,-0.690911],[103.204447,-0.690099],[103.204518,-0.690591],[103.204575,-0.690911]],[[103.204746,-0.691882],[103.204588,-0.690924],[103.204996,-0.690901],[103.204577,-0.690922],[103.204746,-0.691882]],[[103.205944,-0.692627],[103.205737,-0.69055],[103.205839,-0.691859],[103.205944,-0.692627]],[[103.206207,-0.697273],[103.20659,-0.700749],[103.206094,-0.695567],[103.206207,-0.697273]],[[103.208602,-0.695355],[103.207895,-0.695408],[103.206094,-0.695567],[103.208602,-0.695355]],[[103.206789,-0.706604],[103.206775,-0.705945],[103.206597,-0.70496],[103.206789,-0.706604]],[[103.203853,-0.697628],[103.204133,-0.709841],[103.204112,-0.707123],[103.203853,-0.697628]],[[103.204113,-0.721192],[103.204207,-0.719537],[103.204204,-0.719192],[103.204113,-0.721192]],[[103.203565,-0.694609],[103.205939,-0.694346],[103.205165,-0.694422],[103.203565,-0.694609]],[[103.198575,-0.689116],[103.198835,-0.689116],[103.19884,-0.689698],[103.198838,-0.689073],[103.198575,-0.689116]],[[103.201024,-0.697824],[103.201897,-0.69787],[103.201011,-0.697824],[103.20102,-0.697057],[103.20099,-0.698581],[103.201024,-0.697824]],[[103.199141,-0.737576],[103.19734,-0.757005],[103.199897,-0.729426],[103.20054,-0.71939],[103.200894,-0.713789],[103.200009,-0.727681],[103.199141,-0.737576]],[[103.195078,-0.736984],[103.195809,-0.737096],[103.199141,-0.737576],[103.195078,-0.736984]],[[103.196458,-0.727392],[103.196458,-0.727392],[103.200009,-0.727681],[103.196458,-0.727392]],[[103.200169,-0.694267],[103.197948,-0.694291],[103.197582,-0.694298],[103.200169,-0.694267]],[[103.198312,-0.713337],[103.200916,-0.713437],[103.200916,-0.713437],[103.198322,-0.713257],[103.198312,-0.713337]],[[103.198961,-0.696054],[103.19867,-0.705032],[103.199014,-0.697157],[103.198961,-0.696054]],[[103.195419,-0.741023],[103.194908,-0.751264],[103.195485,-0.740361],[103.195419,-0.741023]],[[103.199758,-0.690761],[103.198242,-0.690738],[103.198335,-0.69281],[103.198321,-0.69074],[103.199758,-0.690761]],[[103.20267,-0.69293],[103.20267,-0.69293],[103.20267,-0.69293],[103.20267,-0.69293]],[[103.202828,-0.694372],[103.203528,-0.694296],[103.202828,-0.694372],[103.202828,-0.694372]],[[103.20686,-0.686797],[103.206134,-0.6868],[103.206094,-0.686801],[103.20686,-0.686797]],[[103.205568,-0.688566],[103.205699,-0.688239],[103.205558,-0.688468],[103.205568,-0.688566]],[[103.202459,-0.689482],[103.202455,-0.689431],[103.201874,-0.689497],[103.202459,-0.689482]],[[103.204308,-0.689221],[103.204357,-0.689529],[103.204237,-0.688765],[103.204244,-0.688814],[103.204308,-0.689221]],[[103.208057,-0.689157],[103.208062,-0.689233],[103.208128,-0.689174],[103.208057,-0.689157]],[[103.206631,-0.692312],[103.206633,-0.692623],[103.206559,-0.690437],[103.206631,-0.692312]],[[103.208573,-0.694047],[103.208674,-0.694862],[103.208674,-0.694862],[103.208573,-0.694047]],[[103.208064,-0.687743],[103.207398,-0.687747],[103.207774,-0.687747],[103.208064,-0.687743]],[[103.208216,-0.687418],[103.208191,-0.687063],[103.208122,-0.687431],[103.208216,-0.687418]]]}}]}