{"type":"FeatureCollection","features":[{"type":"Feature","properties":{"kdkec":"1403020","nmkec":"RETEH","kddesa":"1403020014","nmdesa":"PULAU RUKU"},"geometry":{"type":"MultiPolygon","coordinates":[[[[103.398709,-0.723873],[103.387909,-0.716319],[103.381116,-0.712614],[103.374691,-0.711562],[103.37204,-0.712582],[103.370163,-0.713113],[103.365594,-0.715316],[103.361106,-0.716172],[103.351396,-0.715601],[103.347642,-0.716376],[103.335689,-0.720864],[103.331201,-0.723638],[103.328998,-0.726413],[103.326361,-0.728933],[103.323581,-0.721774],[103.323531,-0.719477],[103.32606,-0.718131],[103.329365,-0.717804],[103.349682,-0.70683],[103.364492,-0.705198],[103.373186,-0.70405],[103.402616,-0.71406],[103.434734,-0.720603],[103.433791,-0.725384],[103.430593,-0.72849],[103.42639,-0.729586],[103.418464,-0.728707],[103.405811,-0.726852],[103.406338,-0.725241],[103.408653,-0.725876],[103.405184,-0.724818],[103.404378,-0.72683],[103.401587,-0.725417],[103.398709,-0.723873]],[[103.398953,-0.723471],[103.399303,-0.722788],[103.398709,-0.723873],[103.398953,-0.723471]],[[103.403135,-0.723846],[103.403487,-0.724041],[103.405184,-0.724818],[103.403135,-0.723846]],[[103.401829,-0.72499],[103.401727,-0.725],[103.401587,-0.725417],[103.401829,-0.72499]],[[103.401984,-0.724968],[103.403575,-0.725853],[103.402837,-0.72543],[103.401984,-0.724968]],[[103.402114,-0.724737],[103.402114,-0.724737],[103.401984,-0.724968],[103.402114,-0.724737]],[[103.400632,-0.723476],[103.400632,-0.723476],[103.400265,-0.724194],[103.400632,-0.723476]],[[103.401351,-0.724246],[103.401497,-0.723942],[103.400964,-0.724579],[103.400966,-0.72458],[103.401351,-0.724246]],[[103.399755,-0.723913],[103.40016,-0.723232],[103.40016,-0.723232],[103.399755,-0.723913]]],[[[103.439729,-0.771246],[103.436385,-0.772652],[103.429778,-0.77958],[103.429012,-0.779209],[103.425705,-0.775772],[103.422789,-0.773269],[103.410925,-0.77029],[103.409152,-0.769692],[103.408894,-0.770003],[103.39635,-0.76366],[103.394627,-0.762248],[103.390782,-0.757993],[103.392197,-0.755324],[103.393622,-0.752168],[103.403917,-0.729381],[103.411773,-0.730911],[103.417163,-0.731687],[103.424015,-0.733241],[103.427834,-0.733219],[103.428152,-0.733353],[103.434605,-0.733056],[103.44009,-0.731346],[103.447856,-0.727855],[103.447121,-0.734056],[103.443527,-0.737573],[103.442414,-0.739609],[103.441934,-0.741221],[103.442887,-0.743799],[103.445238,-0.748346],[103.445578,-0.752218],[103.446387,-0.754182],[103.4459,-0.758291],[103.431989,-0.749886],[103.422424,-0.748373],[103.422024,-0.74864],[103.412459,-0.746861],[103.412147,-0.749174],[103.412637,-0.750598],[103.411258,-0.755135],[103.414871,-0.75563],[103.422502,-0.75607],[103.427151,-0.759696],[103.429216,-0.763293],[103.440587,-0.770577],[103.439729,-0.771246]],[[103.411628,-0.758623],[103.411291,-0.758383],[103.394862,-0.749424],[103.411628,-0.758623]],[[103.41381,-0.76093],[103.413994,-0.760986],[103.412076,-0.759646],[103.41381,-0.76093]],[[103.426414,-0.766565],[103.428815,-0.769393],[103.429142,-0.769717],[103.426414,-0.766565]],[[103.430794,-0.771355],[103.431652,-0.771812],[103.431319,-0.771595],[103.430794,-0.771355]]],[[[103.405713,-0.727103],[103.404429,-0.726735],[103.405184,-0.724818],[103.406338,-0.725241],[103.405713,-0.727103]]]]}}]}