{"type":"FeatureCollection","features":[{"type":"Feature","properties":{"kdkec":"1403120","nmkec":"KATEMAN","kddesa":"1403120009","nmdesa":"MAKMUR JAYA"},"geometry":{"type":"MultiPolygon","coordinates":[[[[103.652362,0.134058],[103.657815,0.077667],[103.640263,0.075221],[103.633409,0.124876],[103.6339,0.131114],[103.630441,0.13522],[103.629735,0.141186],[103.639549,0.14025],[103.638829,0.132472],[103.652362,0.134058]]],[[[103.670647,0.13394],[103.677977,0.133411],[103.683772,0.131724],[103.691075,0.131666],[103.698246,0.1305],[103.699509,0.10784],[103.698246,0.130497],[103.703051,0.130558],[103.708205,0.131414],[103.715732,0.132279],[103.719997,0.133464],[103.724681,0.135263],[103.728239,0.138121],[103.736423,0.143195],[103.740683,0.145096],[103.742383,0.145493],[103.742681,0.145963],[103.744156,0.146056],[103.745055,0.147131],[103.745413,0.147336],[103.74661,0.147475],[103.747263,0.147268],[103.7481,0.147577],[103.749549,0.147518],[103.751805,0.14802],[103.752742,0.147906],[103.75545,0.148139],[103.757646,0.147928],[103.758274,0.148053],[103.759002,0.148444],[103.761675,0.148146],[103.763669,0.148463],[103.763791,0.148874],[103.764089,0.149138],[103.764883,0.149357],[103.766391,0.149039],[103.766993,0.149886],[103.767512,0.150012],[103.767829,0.149257],[103.767557,0.14784],[103.768882,0.140903],[103.769956,0.13241],[103.770937,0.127067],[103.773324,0.111453],[103.67656,0.080507],[103.67839,0.087505],[103.676538,0.0805],[103.67659,0.080285],[103.657815,0.077667],[103.652362,0.134058],[103.660063,0.134944],[103.670647,0.13394]],[[103.729341,0.118009],[103.727289,0.123855],[103.729341,0.118009],[103.729341,0.118009]],[[103.729691,0.118141],[103.729346,0.118009],[103.729447,0.118017],[103.729691,0.118141]],[[103.730975,0.118949],[103.730483,0.118543],[103.730483,0.118543],[103.730975,0.118949]],[[103.752863,0.127696],[103.752339,0.127844],[103.753457,0.127527],[103.752863,0.127696]],[[103.757947,0.128056],[103.756537,0.127848],[103.758724,0.128064],[103.757947,0.128056]],[[103.723681,0.116273],[103.723822,0.105398],[103.723685,0.116252],[103.723681,0.116273]],[[103.759889,0.128451],[103.760278,0.128881],[103.76043,0.129286],[103.759889,0.128451]]]]}}]}