{"type":"FeatureCollection","features":[{"type":"Feature","properties":{"kdkec":"1403122","nmkec":"TELUK BELENGKONG","kddesa":"1403122008","nmdesa":"HIBRIDA JAYA"},"geometry":{"type":"Polygon","coordinates":[[[103.268312,0.29947],[103.238065,0.265638],[103.221829,0.279926],[103.239059,0.299912],[103.2355,0.302734],[103.247918,0.317133],[103.268312,0.29947]],[[103.241935,0.285889],[103.240288,0.287381],[103.23825,0.289138],[103.24282,0.285095],[103.241935,0.285889]],[[103.244037,0.288321],[103.244835,0.289263],[103.241935,0.285889],[103.244037,0.288321]],[[103.241844,0.289106],[103.243705,0.29121],[103.240288,0.287381],[103.241844,0.289106]],[[103.243023,0.294421],[103.245004,0.296614],[103.243023,0.294421],[103.243023,0.294421]],[[103.244968,0.292704],[103.244968,0.292704],[103.243023,0.294421],[103.244968,0.292704]],[[103.246209,0.288816],[103.244996,0.287484],[103.246211,0.288818],[103.246209,0.288816]],[[103.246572,0.291291],[103.246572,0.291291],[103.245298,0.289819],[103.246572,0.291291]],[[103.249634,0.292575],[103.247606,0.290349],[103.24759,0.290332],[103.249634,0.292575]],[[103.247056,0.291913],[103.248489,0.293573],[103.248489,0.293573],[103.247102,0.291972],[103.247056,0.291913]]]}}]}