{"type":"FeatureCollection","features":[{"type":"Feature","properties":{"kdkec":"1403121","nmkec":"PELANGIRAN","kddesa":"1403121012","nmdesa":"CATUR KARYA"},"geometry":{"type":"Polygon","coordinates":[[[103.501087,0.23809],[103.498059,0.236737],[103.497964,0.233858],[103.490182,0.231099],[103.484793,0.245687],[103.489068,0.247175],[103.483302,0.255153],[103.493394,0.256236],[103.497153,0.256826],[103.501687,0.255615],[103.506568,0.256145],[103.511798,0.25798],[103.517792,0.253309],[103.514544,0.247223],[103.501835,0.242237],[103.501087,0.23809]],[[103.50036,0.250175],[103.500724,0.24912],[103.501492,0.246941],[103.50036,0.250175]],[[103.49841,0.248305],[103.49954,0.248695],[103.500724,0.24912],[103.49841,0.248305]],[[103.500327,0.246536],[103.49917,0.246119],[103.501492,0.246941],[103.500327,0.246536]],[[103.496857,0.245302],[103.496101,0.247493],[103.495727,0.24857],[103.496857,0.245302]],[[103.49917,0.246119],[103.49917,0.246119],[103.498893,0.246904],[103.49917,0.246119]]]}}]}