{"type":"FeatureCollection","features":[{"type":"Feature","properties":{"kdkec":"1403123","nmkec":"PULAU BURUNG","kddesa":"1403123001","nmdesa":"PULAU BURUNG"},"geometry":{"type":"MultiPolygon","coordinates":[[[[103.493419,0.349652],[103.48932,0.349652],[103.484355,0.352208],[103.480903,0.349446],[103.47469,0.350137],[103.468477,0.349791],[103.458624,0.350535],[103.46304,0.379072],[103.489403,0.410492],[103.493718,0.407112],[103.496513,0.410367],[103.513433,0.427083],[103.514191,0.427305],[103.514709,0.427675],[103.515079,0.428323],[103.518389,0.431578],[103.519777,0.432225],[103.520165,0.433224],[103.520461,0.433557],[103.521478,0.433464],[103.521848,0.43376],[103.522699,0.434426],[103.522995,0.434241],[103.524197,0.435295],[103.524419,0.435314],[103.525085,0.436017],[103.528026,0.438125],[103.52932,0.438736],[103.530301,0.439993],[103.531115,0.440123],[103.531891,0.439919],[103.532549,0.439972],[103.541283,0.431586],[103.546331,0.4264],[103.55343,0.418914],[103.556888,0.415237],[103.558043,0.41401],[103.557869,0.413802],[103.5612,0.410744],[103.575625,0.400972],[103.572431,0.397216],[103.575619,0.400965],[103.581573,0.3971],[103.585092,0.39389],[103.58927,0.388237],[103.588308,0.387216],[103.585256,0.384599],[103.580003,0.383631],[103.574225,0.382814],[103.570859,0.383869],[103.566114,0.383625],[103.563711,0.382216],[103.562342,0.381669],[103.560862,0.381628],[103.559929,0.380726],[103.556979,0.379073],[103.555438,0.377998],[103.553812,0.377159],[103.552731,0.376817],[103.551646,0.376077],[103.549476,0.373948],[103.547459,0.372823],[103.545122,0.372184],[103.544241,0.371709],[103.542339,0.370227],[103.541479,0.368948],[103.541217,0.368829],[103.541071,0.368205],[103.540727,0.367667],[103.539834,0.366978],[103.538101,0.366866],[103.537472,0.366015],[103.53513,0.365011],[103.535079,0.364119],[103.534299,0.363196],[103.533721,0.3635],[103.533143,0.36347],[103.532139,0.362284],[103.531193,0.362633],[103.529636,0.362265],[103.528682,0.361138],[103.526634,0.360408],[103.522705,0.358396],[103.520926,0.358203],[103.519876,0.357503],[103.518888,0.357144],[103.517641,0.357235],[103.517073,0.35652],[103.510572,0.355698],[103.504202,0.354106],[103.500405,0.351345],[103.494192,0.349619],[103.493419,0.349652]],[[103.531184,0.424999],[103.533153,0.423296],[103.521848,0.43376],[103.531184,0.424999]],[[103.516444,0.410922],[103.526201,0.42018],[103.531184,0.424999],[103.516444,0.410922]],[[103.532451,0.41457],[103.532451,0.41457],[103.526201,0.42018],[103.532451,0.41457]],[[103.533665,0.423916],[103.535146,0.425829],[103.533153,0.423296],[103.533665,0.423916]],[[103.537394,0.423478],[103.53652,0.424438],[103.535146,0.425829],[103.537394,0.423478]],[[103.538244,0.426034],[103.537361,0.425251],[103.53652,0.424438],[103.538244,0.426034]],[[103.545039,0.424843],[103.542134,0.421238],[103.541858,0.420942],[103.5421,0.421197],[103.546331,0.4264],[103.545039,0.424843]],[[103.556194,0.414501],[103.554032,0.412207],[103.556888,0.415237],[103.556194,0.414501]],[[103.552231,0.414296],[103.55203,0.414515],[103.551769,0.414778],[103.550775,0.415707],[103.551978,0.414567],[103.554032,0.412207],[103.552231,0.414296]],[[103.55154,0.413959],[103.551935,0.414346],[103.551978,0.414567],[103.55154,0.413959]],[[103.55329,0.411384],[103.551628,0.409133],[103.554032,0.412207],[103.55329,0.411384]],[[103.539454,0.424454],[103.541015,0.425511],[103.541872,0.426144],[103.541872,0.426144],[103.539454,0.424454]],[[103.538466,0.425787],[103.539599,0.424256],[103.539454,0.424454],[103.538466,0.425787]],[[103.538205,0.421023],[103.537954,0.420712],[103.539626,0.422777],[103.538205,0.421023]],[[103.544795,0.419293],[103.545695,0.420114],[103.546211,0.42071],[103.544795,0.419293],[103.544795,0.419293]],[[103.545945,0.419811],[103.546452,0.419269],[103.545601,0.418452],[103.546526,0.419231],[103.545695,0.420114],[103.545945,0.419811]],[[103.545069,0.419007],[103.545808,0.419684],[103.545945,0.419811],[103.545069,0.419007]],[[103.547573,0.418908],[103.548192,0.419415],[103.54772,0.419052],[103.547573,0.418908]],[[103.549323,0.417981],[103.550735,0.416277],[103.547327,0.420514],[103.548192,0.419415],[103.549323,0.417981]],[[103.550735,0.416277],[103.551925,0.417602],[103.550735,0.416277],[103.550735,0.416277]],[[103.547071,0.416374],[103.547071,0.416374],[103.548008,0.417601],[103.547071,0.416374]],[[103.549407,0.414716],[103.548504,0.415356],[103.548123,0.415627],[103.549407,0.414716]],[[103.536646,0.387268],[103.550595,0.406493],[103.551165,0.407299],[103.536646,0.387268]],[[103.558587,0.400932],[103.555417,0.403316],[103.553029,0.405056],[103.558587,0.400932]],[[103.542178,0.412216],[103.539059,0.415057],[103.53762,0.416367],[103.542178,0.412216]],[[103.540654,0.410458],[103.538462,0.407927],[103.543511,0.413753],[103.542178,0.412216],[103.540654,0.410458]],[[103.542881,0.414302],[103.542488,0.414644],[103.543511,0.413753],[103.542881,0.414302]],[[103.53775,0.416509],[103.536107,0.414732],[103.53762,0.416367],[103.53775,0.416509]],[[103.534242,0.412778],[103.524977,0.402639],[103.536107,0.414732],[103.534242,0.412778]],[[103.532044,0.396439],[103.530049,0.398216],[103.524977,0.402639],[103.532044,0.396439]],[[103.541686,0.383087],[103.536803,0.387137],[103.540873,0.383743],[103.541686,0.383087]],[[103.521967,0.399518],[103.522033,0.399456],[103.522044,0.399447],[103.521967,0.399518]],[[103.516798,0.393867],[103.506027,0.383561],[103.507431,0.384893],[103.516798,0.393867]],[[103.536515,0.418979],[103.532627,0.414758],[103.536038,0.418404],[103.536515,0.418979]],[[103.527415,0.432327],[103.526708,0.432651],[103.529033,0.431346],[103.527415,0.432327]],[[103.53337,0.428087],[103.530601,0.430394],[103.53352,0.427895],[103.53337,0.428087]],[[103.540387,0.42362],[103.540621,0.42376],[103.541017,0.424109],[103.540387,0.42362]],[[103.542727,0.425413],[103.54321,0.4249],[103.542596,0.425747],[103.542727,0.425413]],[[103.555434,0.40909],[103.558026,0.407054],[103.56085,0.404836],[103.555434,0.40909]],[[103.556631,0.410691],[103.556631,0.410691],[103.558437,0.409185],[103.556631,0.410691]],[[103.562459,0.407484],[103.561628,0.40613],[103.561627,0.40613],[103.562459,0.407484]],[[103.557329,0.411624],[103.560985,0.408651],[103.557329,0.411624],[103.557329,0.411624]],[[103.550482,0.41598],[103.550595,0.415891],[103.550497,0.415998],[103.550482,0.41598]],[[103.551111,0.413362],[103.551476,0.413752],[103.551424,0.413797],[103.551111,0.413362]],[[103.553598,0.417239],[103.554036,0.416781],[103.55298,0.417896],[103.553598,0.417239]],[[103.549159,0.416873],[103.548722,0.417259],[103.548722,0.417259],[103.549159,0.416873]]],[[[103.585979,0.406562],[103.58117,0.409589],[103.568697,0.416619],[103.568703,0.416785],[103.565319,0.418993],[103.556058,0.42626],[103.548791,0.432743],[103.543947,0.437623],[103.541311,0.440651],[103.538633,0.445917],[103.538561,0.44664],[103.538818,0.447347],[103.54174,0.448994],[103.543987,0.449655],[103.547579,0.449444],[103.550114,0.448387],[103.554551,0.447331],[103.563635,0.443106],[103.578846,0.431697],[103.579163,0.43117],[103.581954,0.428789],[103.587175,0.419347],[103.589621,0.415852],[103.589832,0.411838],[103.58888,0.409799],[103.588401,0.407702],[103.585979,0.406562]]]]}}]}