{"type":"FeatureCollection","features":[{"type":"Feature","properties":{"kdkec":"1403071","nmkec":"KEMPAS","kddesa":"1403071003","nmdesa":"KEMPAS JAYA"},"geometry":{"type":"MultiPolygon","coordinates":[[[[102.807657,-0.536879],[102.813316,-0.52729],[102.814494,-0.527692],[102.822933,-0.529183],[102.831068,-0.529119],[102.833554,-0.529413],[102.838026,-0.530903],[102.839894,-0.532021],[102.841143,-0.533101],[102.842955,-0.535528],[102.845284,-0.536707],[102.847058,-0.537826],[102.85064,-0.540555],[102.853744,-0.541761],[102.856859,-0.54211],[102.858735,-0.541826],[102.861039,-0.540751],[102.863639,-0.546666],[102.865951,-0.570803],[102.832726,-0.586974],[102.819223,-0.581511],[102.831778,-0.554888],[102.815117,-0.590217],[102.783642,-0.577127],[102.806618,-0.538548],[102.807657,-0.536879]],[[102.809581,-0.540221],[102.806618,-0.538548],[102.809581,-0.540221],[102.809581,-0.540221]],[[102.839219,-0.537795],[102.834325,-0.546707],[102.841601,-0.533729],[102.839219,-0.537795]],[[102.851188,-0.544056],[102.851178,-0.54405],[102.848182,-0.54923],[102.852709,-0.541399],[102.851188,-0.544056]],[[102.828771,-0.542148],[102.828224,-0.543076],[102.804409,-0.585763],[102.828771,-0.542148]],[[102.824296,-0.540709],[102.8281,-0.543002],[102.828224,-0.543076],[102.824296,-0.540709]],[[102.813864,-0.558451],[102.824296,-0.540709],[102.824294,-0.540711],[102.813864,-0.558451]],[[102.830143,-0.544229],[102.832106,-0.545391],[102.830148,-0.544221],[102.835291,-0.53566],[102.830143,-0.544229]],[[102.837257,-0.536729],[102.837257,-0.536729],[102.832106,-0.545391],[102.837257,-0.536729]],[[102.8501,-0.541503],[102.85074,-0.541865],[102.8501,-0.541501],[102.85064,-0.540555],[102.844346,-0.55128],[102.8501,-0.541503]],[[102.85391,-0.544831],[102.853923,-0.546274],[102.853923,-0.545679],[102.85391,-0.544831]]],[[[102.772069,-0.558407],[102.767993,-0.556861],[102.768236,-0.555401],[102.768781,-0.554634],[102.769165,-0.553389],[102.770679,-0.551376],[102.771233,-0.549982],[102.772594,-0.548535],[102.773217,-0.547418],[102.773743,-0.546956],[102.774151,-0.54561],[102.773744,-0.541837],[102.771399,-0.536606],[102.771355,-0.535408],[102.771025,-0.534696],[102.770991,-0.533533],[102.770314,-0.531431],[102.771408,-0.52722],[102.772788,-0.525041],[102.777067,-0.522888],[102.777694,-0.522918],[102.779186,-0.522421],[102.781229,-0.523893],[102.782082,-0.525234],[102.783565,-0.525259],[102.786227,-0.524625],[102.786684,-0.524368],[102.788178,-0.523528],[102.790856,-0.524439],[102.792915,-0.524498],[102.793227,-0.524377],[102.793279,-0.523552],[102.793731,-0.522553],[102.794159,-0.520112],[102.79499,-0.519289],[102.795997,-0.517387],[102.796883,-0.517031],[102.799765,-0.516823],[102.800147,-0.51664],[102.800165,-0.515885],[102.800521,-0.515486],[102.801102,-0.515364],[102.801953,-0.514904],[102.802763,-0.514973],[102.802978,-0.515147],[102.803482,-0.516284],[102.805044,-0.51763],[102.806707,-0.521479],[102.808917,-0.524579],[102.810574,-0.526205],[102.813316,-0.52729],[102.783642,-0.577127],[102.76626,-0.569986],[102.769596,-0.562795],[102.772069,-0.558407]],[[102.783505,-0.529795],[102.784583,-0.527955],[102.786684,-0.524368],[102.783505,-0.529795]],[[102.793185,-0.531029],[102.793728,-0.530128],[102.802763,-0.514973],[102.793185,-0.531029]],[[102.801396,-0.534843],[102.800798,-0.535867],[102.808199,-0.523571],[102.801396,-0.534843]],[[102.775395,-0.564294],[102.793804,-0.531413],[102.791633,-0.535291],[102.775395,-0.564294]],[[102.788599,-0.538711],[102.784704,-0.536392],[102.780946,-0.534164],[102.784735,-0.536415],[102.788599,-0.538711]]]]}}]}