{"type":"FeatureCollection","features":[{"type":"Feature","properties":{"kdkec":"1403071","nmkec":"KEMPAS","kddesa":"1403071009","nmdesa":"SUNGAI RABIT"},"geometry":{"type":"MultiPolygon","coordinates":[[[[102.732197,-0.448278],[102.729826,-0.446962],[102.728067,-0.445626],[102.726869,-0.445025],[102.723082,-0.443899],[102.722986,-0.440191],[102.722986,-0.440328],[102.719801,-0.440265],[102.719825,-0.438028],[102.722997,-0.438282],[102.720477,-0.438054],[102.720536,-0.437711],[102.720281,-0.43716],[102.717313,-0.434648],[102.716854,-0.244722],[102.735361,-0.244674],[102.733711,-0.441635],[102.733538,-0.448527],[102.732197,-0.448278]],[[102.726266,-0.436431],[102.724472,-0.436396],[102.722144,-0.436267],[102.724668,-0.436417],[102.726266,-0.436431]]],[[[102.722217,-0.443826],[102.720725,-0.444052],[102.720073,-0.442339],[102.720333,-0.4415],[102.720248,-0.440293],[102.722986,-0.440328],[102.723082,-0.443899],[102.722217,-0.443826]]]]}}]}