{"type":"FeatureCollection","features":[{"type":"Feature","properties":{"kdkec":"1403011","nmkec":"KEMUNING","kddesa":"1403011010","nmdesa":"TALANG JANGKANG"},"geometry":{"type":"Polygon","coordinates":[[[102.83082,-0.851585],[102.83082,-0.852525],[102.829665,-0.852583],[102.829679,-0.853454],[102.829012,-0.85401],[102.828266,-0.854125],[102.828818,-0.85507],[102.829193,-0.855353],[102.82923,-0.855677],[102.828123,-0.855163],[102.828016,-0.855334],[102.828781,-0.855982],[102.828887,-0.856441],[102.82891,-0.856751],[102.828651,-0.857191],[102.828771,-0.85789],[102.828683,-0.859025],[102.828405,-0.859358],[102.828919,-0.86003],[102.828535,-0.860289],[102.827965,-0.860405],[102.827502,-0.860021],[102.827349,-0.860099],[102.827238,-0.860563],[102.827461,-0.861118],[102.827326,-0.861262],[102.827081,-0.861229],[102.826947,-0.860164],[102.826308,-0.860007],[102.826081,-0.860141],[102.825881,-0.860831],[102.825327,-0.861594],[102.817178,-0.856578],[102.80667,-0.846713],[102.798622,-0.838502],[102.812232,-0.814647],[102.817331,-0.807103],[102.836989,-0.81188],[102.840206,-0.812123],[102.844834,-0.81309],[102.847025,-0.813329],[102.846616,-0.821536],[102.851167,-0.82238],[102.85349,-0.823139],[102.853532,-0.818968],[102.862063,-0.818711],[102.862305,-0.821664],[102.86196,-0.823301],[102.864017,-0.823087],[102.874509,-0.823087],[102.879343,-0.825799],[102.881879,-0.829178],[102.87967,-0.828475],[102.87873,-0.829415],[102.877227,-0.829415],[102.876288,-0.827912],[102.874221,-0.8281],[102.872342,-0.829039],[102.871966,-0.83167],[102.870839,-0.832233],[102.869336,-0.830542],[102.865203,-0.833548],[102.862441,-0.834162],[102.856936,-0.835991],[102.854493,-0.837682],[102.851863,-0.83787],[102.851415,-0.838168],[102.849796,-0.836742],[102.845099,-0.83693],[102.842844,-0.839561],[102.840778,-0.841252],[102.837771,-0.841064],[102.837584,-0.842567],[102.83608,-0.843882],[102.836456,-0.8467],[102.834953,-0.848767],[102.832699,-0.849331],[102.830068,-0.85027],[102.83082,-0.851585]]]}}]}