{"type":"FeatureCollection","features":[{"type":"Feature","properties":{"kdkec":"1403051","nmkec":"CONCONG","kddesa":"1403051004","nmdesa":"CONCONG DALAM"},"geometry":{"type":"Polygon","coordinates":[[[103.510593,-0.360161],[103.506205,-0.360615],[103.503482,-0.361674],[103.500506,-0.362229],[103.498691,-0.363238],[103.495866,-0.363742],[103.494101,-0.365053],[103.485678,-0.367827],[103.479122,-0.370198],[103.477306,-0.370551],[103.476045,-0.371358],[103.474633,-0.371358],[103.46848,-0.373173],[103.465101,-0.373274],[103.463134,-0.37282],[103.461167,-0.371509],[103.459402,-0.369945],[103.457384,-0.367474],[103.455771,-0.366011],[103.453854,-0.365003],[103.451181,-0.360262],[103.45108,-0.358648],[103.45219,-0.355975],[103.454258,-0.350125],[103.456023,-0.345888],[103.462378,-0.333985],[103.462731,-0.332523],[103.463891,-0.329951],[103.464873,-0.324665],[103.46573,-0.32244],[103.468984,-0.310685],[103.470296,-0.306852],[103.474784,-0.298025],[103.48051,-0.288549],[103.491932,-0.274271],[103.499237,-0.263263],[103.509186,-0.272442],[103.517876,-0.279661],[103.519075,-0.281965],[103.539724,-0.290037],[103.561787,-0.297081],[103.562887,-0.304399],[103.563575,-0.306867],[103.525307,-0.3261],[103.516047,-0.330948],[103.492291,-0.345782],[103.4936,-0.34721],[103.494433,-0.347805],[103.496337,-0.348638],[103.500859,-0.348995],[103.501692,-0.349233],[103.503001,-0.351375],[103.503954,-0.352327],[103.505501,-0.352803],[103.508119,-0.352803],[103.51395,-0.357563],[103.516687,-0.360419],[103.516456,-0.361575],[103.512459,-0.360212],[103.510593,-0.360161]],[[103.476549,-0.315341],[103.472349,-0.32187],[103.472009,-0.322493],[103.476549,-0.315341]],[[103.504699,-0.313984],[103.50552,-0.313155],[103.506212,-0.31243],[103.504699,-0.313984]],[[103.503334,-0.315082],[103.504175,-0.316411],[103.503792,-0.315787],[103.503334,-0.315082]],[[103.465703,-0.325561],[103.465383,-0.325379],[103.465703,-0.325561],[103.465703,-0.325561]],[[103.468304,-0.324325],[103.468295,-0.324304],[103.468804,-0.32563],[103.468304,-0.324325]],[[103.47106,-0.323989],[103.470591,-0.324423],[103.47093,-0.324194],[103.47106,-0.323989]],[[103.465508,-0.326015],[103.465687,-0.326485],[103.465687,-0.326485],[103.465508,-0.326015]],[[103.507609,-0.286855],[103.505608,-0.289574],[103.506472,-0.2884],[103.507609,-0.286855]],[[103.508529,-0.314115],[103.506988,-0.314018],[103.507071,-0.314039],[103.508529,-0.314115]],[[103.532924,-0.292291],[103.532624,-0.293018],[103.533596,-0.290749],[103.532924,-0.292291]]]}}]}