{"type":"FeatureCollection","features":[{"type":"Feature","properties":{"kdkec":"1403021","nmkec":"SUNGAI BATANG","kddesa":"1403021006","nmdesa":"BENTENG UTARA"},"geometry":{"type":"Polygon","coordinates":[[[103.238633,-0.630944],[103.23785,-0.630855],[103.236701,-0.630702],[103.234972,-0.630943],[103.233869,-0.629502],[103.204423,-0.60013],[103.174392,-0.612763],[103.151186,-0.598299],[103.180587,-0.582468],[103.198297,-0.572403],[103.208699,-0.576031],[103.223479,-0.579265],[103.246751,-0.584107],[103.249078,-0.584478],[103.248934,-0.628415],[103.239934,-0.630764],[103.238633,-0.630944]],[[103.239934,-0.630764],[103.239878,-0.630215],[103.239878,-0.630215],[103.239934,-0.630764]],[[103.238681,-0.630153],[103.239663,-0.630024],[103.239021,-0.630105],[103.238607,-0.630163],[103.238633,-0.630944],[103.238681,-0.630153]],[[103.238152,-0.628396],[103.238151,-0.628396],[103.23785,-0.630855],[103.238152,-0.628396]],[[103.245836,-0.61553],[103.24628,-0.614441],[103.246382,-0.613956],[103.245836,-0.61553]],[[103.238783,-0.627202],[103.238607,-0.627994],[103.239364,-0.62566],[103.238783,-0.627202]],[[103.241063,-0.629794],[103.240829,-0.629821],[103.240223,-0.629906],[103.241063,-0.629794],[103.241063,-0.629794]],[[103.243039,-0.625327],[103.243018,-0.625399],[103.244064,-0.623108],[103.243039,-0.625327]]]}}]}