{"type":"FeatureCollection","features":[{"type":"Feature","properties":{"kdkec":"1403100","nmkec":"GAUNG","kddesa":"1403100011","nmdesa":"TERUSAN KEMPAS"},"geometry":{"type":"Polygon","coordinates":[[[103.365087,-0.13463],[103.361605,-0.135503],[103.360163,-0.092193],[103.36701,-0.091642],[103.356659,-0.092468],[103.352965,-0.08312],[103.350547,-0.074829],[103.348474,-0.066193],[103.342256,-0.056521],[103.333966,-0.050303],[103.320839,-0.044084],[103.31013,-0.039594],[103.29873,-0.031648],[103.291476,-0.024394],[103.271094,-0.002976],[103.265032,0.002841],[103.274971,0.012284],[103.301499,-0.011442],[103.306911,-0.013822],[103.314669,-0.0192],[103.318385,-0.021238],[103.320697,-0.021598],[103.323969,-0.023276],[103.326794,-0.025023],[103.327805,-0.02689],[103.328032,-0.031137],[103.329235,-0.03535],[103.331256,-0.037611],[103.3329,-0.038056],[103.335561,-0.037821],[103.337533,-0.038476],[103.339254,-0.039983],[103.340907,-0.043271],[103.341857,-0.04405],[103.343587,-0.044068],[103.344889,-0.043785],[103.346456,-0.043871],[103.347757,-0.044333],[103.348682,-0.044873],[103.354111,-0.048503],[103.355165,-0.04888],[103.358898,-0.049582],[103.361698,-0.050422],[103.365312,-0.051894],[103.366186,-0.051672],[103.366682,-0.050473],[103.367641,-0.048863],[103.367402,-0.047493],[103.366716,-0.045849],[103.366956,-0.044684],[103.370964,-0.041721],[103.373053,-0.039974],[103.376337,-0.037798],[103.377502,-0.039407],[103.378964,-0.040389],[103.381383,-0.041275],[103.383707,-0.041539],[103.385644,-0.042553],[103.386023,-0.045358],[103.387835,-0.049741],[103.393679,-0.05202],[103.398092,-0.054738],[103.407747,-0.063391],[103.40516,-0.068222],[103.403624,-0.073345],[103.405197,-0.119791],[103.405237,-0.129587],[103.402005,-0.133106],[103.401395,-0.139328],[103.405837,-0.140096],[103.40609,-0.150021],[103.407725,-0.15289],[103.409233,-0.155025],[103.409158,-0.157047],[103.407701,-0.158701],[103.404026,-0.157742],[103.4018,-0.157497],[103.399701,-0.158433],[103.388507,-0.152044],[103.374108,-0.141431],[103.369306,-0.135429],[103.365087,-0.13463]],[[103.389866,-0.121362],[103.389667,-0.115699],[103.389648,-0.115151],[103.389866,-0.121362]],[[103.392419,-0.114458],[103.393314,-0.113971],[103.389667,-0.115699],[103.392419,-0.114458]],[[103.376161,-0.127518],[103.375382,-0.127881],[103.379124,-0.126425],[103.376161,-0.127518]],[[103.389571,-0.107551],[103.388635,-0.108044],[103.386913,-0.109024],[103.390415,-0.107121],[103.389571,-0.107551]],[[103.386912,-0.109024],[103.388858,-0.112591],[103.386913,-0.109024],[103.386912,-0.109024]],[[103.388983,-0.107233],[103.388978,-0.107237],[103.389313,-0.107066],[103.388983,-0.107233]],[[103.386744,-0.108813],[103.387895,-0.108096],[103.388413,-0.107635],[103.386744,-0.108813],[103.386744,-0.108813]],[[103.376417,-0.095209],[103.374856,-0.093167],[103.376417,-0.095209],[103.376417,-0.095209]],[[103.384738,-0.106424],[103.383581,-0.105043],[103.381806,-0.102726],[103.382619,-0.103901],[103.384738,-0.106424]],[[103.386855,-0.10336],[103.386351,-0.103727],[103.386855,-0.10336],[103.386855,-0.10336]]]}}]}