{"type":"FeatureCollection","features":[{"type":"Feature","properties":{"kdkec":"1403123","nmkec":"PULAU BURUNG","kddesa":"1403123012","nmdesa":"SUKA JAYA"},"geometry":{"type":"Polygon","coordinates":[[[103.250879,0.369922],[103.249818,0.368708],[103.246967,0.371171],[103.24838,0.372984],[103.20761,0.407812],[103.220142,0.418602],[103.231788,0.427749],[103.241642,0.433986],[103.2557,0.423024],[103.326743,0.360269],[103.298575,0.32811],[103.281195,0.343032],[103.281108,0.342929],[103.250879,0.369922]],[[103.272915,0.375976],[103.271355,0.377419],[103.274009,0.374951],[103.272915,0.375976]],[[103.27574,0.376951],[103.275791,0.376904],[103.280243,0.381915],[103.277086,0.378368],[103.27574,0.376951]]]}}]}