{"type":"FeatureCollection","features":[{"type":"Feature","properties":{"kdkec":"1403110","nmkec":"MANDAH","kddesa":"1403110007","nmdesa":"BENTE"},"geometry":{"type":"Polygon","coordinates":[[[103.461821,0.047674],[103.45678,0.050541],[103.452495,0.053388],[103.449936,0.056273],[103.449198,0.055323],[103.446382,0.058537],[103.44414,0.062956],[103.439752,0.065745],[103.434258,0.068504],[103.438998,0.073811],[103.439015,0.077705],[103.430208,0.085188],[103.430693,0.096076],[103.430559,0.101769],[103.431149,0.102874],[103.432003,0.109278],[103.435682,0.109079],[103.442866,0.111916],[103.447861,0.113199],[103.452491,0.118122],[103.459452,0.106073],[103.459391,0.106188],[103.465281,0.110474],[103.466256,0.110743],[103.467035,0.108155],[103.465779,0.10769],[103.467424,0.098506],[103.47783,0.104372],[103.478042,0.100828],[103.478866,0.09721],[103.47899,0.095614],[103.490775,0.096899],[103.516071,0.100202],[103.538166,0.091156],[103.553055,0.085498],[103.551861,0.094839],[103.554228,0.095111],[103.554408,0.093301],[103.556332,0.084253],[103.560541,0.082653],[103.562578,0.06462],[103.568462,0.065308],[103.575434,0.027086],[103.574444,0.024512],[103.574284,0.023002],[103.575987,0.022201],[103.57764,0.02165],[103.579543,0.019947],[103.581346,0.018945],[103.583649,0.018394],[103.584851,0.016366],[103.586754,0.015214],[103.588182,0.012861],[103.589183,0.010657],[103.591161,0.008929],[103.603256,0.00297],[103.606536,-0.001312],[103.609115,-0.004242],[103.613781,-0.007046],[103.6118,-0.008139],[103.604228,-0.014089],[103.599225,-0.017199],[103.596521,-0.017739],[103.588679,-0.021255],[103.58399,-0.0245],[103.579057,-0.018011],[103.574502,-0.012466],[103.568957,-0.001376],[103.566185,0.001991],[103.559253,0.005555],[103.557471,0.007734],[103.555887,0.011695],[103.554104,0.014467],[103.549351,0.019022],[103.546183,0.021399],[103.541232,0.024369],[103.538459,0.026548],[103.533508,0.031301],[103.528359,0.03546],[103.524992,0.034073],[103.522814,0.032687],[103.52222,0.030509],[103.521626,0.029122],[103.520239,0.026746],[103.517665,0.027934],[103.515882,0.029122],[103.5141,0.031895],[103.513506,0.032489],[103.512318,0.033083],[103.510337,0.033677],[103.509347,0.033281],[103.504792,0.033083],[103.503406,0.034865],[103.502812,0.037242],[103.501822,0.038232],[103.499247,0.040014],[103.497861,0.041401],[103.494098,0.041995],[103.492712,0.042787],[103.489147,0.040411],[103.487266,0.039783],[103.485004,0.037265],[103.484315,0.034638],[103.482506,0.032359],[103.476157,0.035381],[103.469959,0.040852],[103.466844,0.037467],[103.462606,0.040657],[103.46295,0.041058],[103.461608,0.042098],[103.464733,0.045953],[103.462599,0.047132],[103.462213,0.04652],[103.461432,0.047025],[103.461821,0.047674]],[[103.449585,0.098711],[103.449585,0.098711],[103.459452,0.106073],[103.449585,0.098711]],[[103.446797,0.104055],[103.448808,0.1002],[103.443277,0.111106],[103.446797,0.104055]],[[103.47959,0.064703],[103.47959,0.064703],[103.479884,0.080337],[103.47959,0.064703]],[[103.481742,0.053599],[103.484911,0.052807],[103.483916,0.053055],[103.481742,0.053599]],[[103.449001,0.078858],[103.44393,0.074968],[103.4542,0.082848],[103.449001,0.078858]],[[103.460162,0.083322],[103.455833,0.087329],[103.463127,0.080491],[103.460162,0.083322]],[[103.459372,0.065367],[103.459372,0.065367],[103.458968,0.066075],[103.459372,0.065367]],[[103.466889,0.060728],[103.467643,0.059712],[103.469464,0.05756],[103.466889,0.060728]],[[103.470256,0.056965],[103.471565,0.056475],[103.47184,0.056371],[103.470256,0.056965]],[[103.462647,0.051576],[103.462125,0.051857],[103.462125,0.051857],[103.462647,0.051576]],[[103.446001,0.072661],[103.44352,0.073997],[103.446001,0.072661],[103.446001,0.072661]],[[103.451099,0.095809],[103.452042,0.09391],[103.453573,0.09113],[103.45155,0.094956],[103.451099,0.095809]],[[103.464749,0.096998],[103.467424,0.098506],[103.453573,0.09113],[103.464749,0.096998]],[[103.507645,0.057686],[103.502179,0.058821],[103.499582,0.05936],[103.513114,0.05655],[103.507645,0.057686]],[[103.496384,0.07543],[103.497057,0.071627],[103.499582,0.05936],[103.496384,0.07543]],[[103.527778,0.05723],[103.522535,0.056971],[103.527517,0.057194],[103.527778,0.05723]],[[103.540506,0.060431],[103.555174,0.055959],[103.544635,0.059172],[103.540506,0.060431]],[[103.489268,0.051024],[103.48808,0.052014],[103.488079,0.052014],[103.489268,0.051024]]]}}]}