{"type":"FeatureCollection","features":[{"type":"Feature","properties":{"kdkec":"1403090","nmkec":"GAUNG ANAK SERKA","kddesa":"1403090006","nmdesa":"TELUK PANTAIAN"},"geometry":{"type":"Polygon","coordinates":[[[103.331951,-0.214036],[103.33156,-0.227304],[103.327325,-0.22135],[103.322103,-0.206497],[103.317725,-0.207852],[103.308883,-0.195421],[103.304382,-0.189751],[103.305998,-0.168101],[103.30828,-0.168666],[103.309995,-0.168502],[103.311592,-0.167981],[103.313127,-0.166285],[103.314722,-0.161642],[103.305119,-0.152581],[103.309271,-0.134197],[103.319079,-0.136828],[103.342693,-0.137628],[103.346897,-0.135897],[103.352293,-0.135805],[103.352264,-0.149567],[103.350949,-0.165343],[103.350924,-0.1678],[103.350369,-0.169833],[103.349203,-0.170561],[103.347296,-0.168166],[103.344704,-0.166171],[103.341225,-0.165375],[103.337473,-0.164825],[103.332665,-0.164316],[103.334956,-0.164575],[103.334367,-0.16889],[103.331425,-0.183999],[103.331951,-0.214036]],[[103.320018,-0.150367],[103.324321,-0.150392],[103.326123,-0.150376],[103.317726,-0.150339],[103.320018,-0.150367]],[[103.322971,-0.156267],[103.322643,-0.157422],[103.322894,-0.156836],[103.324321,-0.150392],[103.322971,-0.156267]],[[103.322763,-0.156218],[103.320324,-0.155698],[103.322971,-0.156267],[103.322763,-0.156218]],[[103.324041,-0.158398],[103.323783,-0.158218],[103.325767,-0.160349],[103.32441,-0.158845],[103.324041,-0.158398]],[[103.325087,-0.167945],[103.325103,-0.167764],[103.325027,-0.165697],[103.325087,-0.167945]]]}}]}