{"type":"FeatureCollection","features":[{"type":"Feature","properties":{"kdkec":"1403080","nmkec":"BATANG TUAKA","kddesa":"1403080012","nmdesa":"PASIR EMAS"},"geometry":{"type":"Polygon","coordinates":[[[103.007183,-0.302824],[102.997674,-0.292704],[102.991196,-0.295562],[102.985577,-0.289491],[102.979711,-0.291218],[102.977123,-0.28938],[103.017325,-0.250487],[103.030883,-0.269292],[103.022585,-0.269828],[103.022483,-0.275321],[103.01993,-0.274842],[103.025531,-0.275903],[103.030578,-0.275407],[103.029319,-0.305478],[103.029198,-0.311577],[103.029359,-0.315008],[103.029095,-0.322677],[103.028529,-0.321125],[103.027875,-0.320348],[103.026515,-0.319324],[103.021956,-0.315015],[103.021219,-0.31387],[103.020184,-0.313544],[103.018832,-0.31183],[103.016659,-0.310546],[103.015676,-0.310193],[103.014369,-0.310121],[103.013712,-0.310291],[103.012822,-0.309791],[103.012222,-0.309889],[103.009732,-0.30677],[103.007183,-0.302824]],[[103.006586,-0.275969],[103.018866,-0.274933],[103.01993,-0.274842],[103.006586,-0.275969]],[[103.015959,-0.304421],[103.015668,-0.309905],[103.015676,-0.310193],[103.015959,-0.304421]],[[103.011406,-0.303131],[103.013262,-0.308239],[103.012116,-0.305031],[103.011406,-0.303131]],[[103.018857,-0.309598],[103.017982,-0.297971],[103.018844,-0.310755],[103.018857,-0.309598]],[[103.02528,-0.314764],[103.024521,-0.290781],[103.025109,-0.31197],[103.02528,-0.314764]]]}}]}