{"type":"FeatureCollection","features":[{"type":"Feature","properties":{"kdkec":"1403010","nmkec":"KERITANG","kddesa":"1403010002","nmdesa":"SEBERANG PEBENAAN"},"geometry":{"type":"Polygon","coordinates":[[[102.990089,-0.751791],[102.985647,-0.716619],[102.985315,-0.706892],[102.988691,-0.70714],[102.993295,-0.705506],[102.998976,-0.70209],[103.004677,-0.700211],[103.013605,-0.696901],[103.021441,-0.693351],[103.030998,-0.6886],[103.033602,-0.68711],[103.036317,-0.686001],[103.037171,-0.689933],[103.03787,-0.694295],[103.038347,-0.698894],[103.038347,-0.70474],[103.037555,-0.716422],[103.037672,-0.733671],[103.038687,-0.752755],[103.039025,-0.752763],[103.0384,-0.766877],[103.03483,-0.765148],[103.033987,-0.765134],[103.02969,-0.75531],[103.021628,-0.755168],[103.012235,-0.755348],[103.008723,-0.758052],[103.003615,-0.762933],[102.997249,-0.771675],[102.994859,-0.762935],[102.993451,-0.759225],[102.990089,-0.751791]],[[103.027524,-0.707318],[103.027493,-0.73432],[103.027494,-0.755271],[103.027524,-0.707318]],[[103.002626,-0.745288],[102.998671,-0.725258],[103.005684,-0.760939],[103.002626,-0.745288]],[[103.007284,-0.70824],[103.010609,-0.705644],[103.007436,-0.708118],[103.007284,-0.70824]],[[102.987959,-0.719431],[102.987923,-0.719284],[102.989705,-0.727349],[102.987959,-0.719431]],[[102.990459,-0.718165],[102.989594,-0.713617],[102.990345,-0.717565],[102.994643,-0.746609],[102.990459,-0.718165]],[[103.009333,-0.714053],[103.008143,-0.714406],[103.009333,-0.714053],[103.009333,-0.714053]],[[103.016722,-0.696483],[103.016724,-0.696441],[103.016555,-0.697487],[103.016722,-0.696483]],[[103.016627,-0.698225],[103.017846,-0.697844],[103.016697,-0.698198],[103.016555,-0.697487],[103.016627,-0.698225]],[[103.028889,-0.692715],[103.028905,-0.693391],[103.028903,-0.692651],[103.028889,-0.692715]],[[103.02982,-0.691504],[103.029125,-0.691686],[103.031696,-0.691101],[103.02982,-0.691504]],[[103.023616,-0.694705],[103.023941,-0.695184],[103.024418,-0.695975],[103.024342,-0.695738],[103.023616,-0.694705]]]}}]}