{"type":"FeatureCollection","features":[{"type":"Feature","properties":{"kdkec":"1403030","nmkec":"ENOK","kddesa":"1403030009","nmdesa":"RANTAU PANJANG"},"geometry":{"type":"Polygon","coordinates":[[[103.237994,-0.49137],[103.23611,-0.493476],[103.235888,-0.496579],[103.236775,-0.50068],[103.236757,-0.501137],[103.221968,-0.501223],[103.222586,-0.493697],[103.221921,-0.485939],[103.219926,-0.478623],[103.219483,-0.474411],[103.218153,-0.470089],[103.216269,-0.466698],[103.21588,-0.46538],[103.218254,-0.46321],[103.219369,-0.461582],[103.217101,-0.456289],[103.207015,-0.445316],[103.205186,-0.440162],[103.20042,-0.417884],[103.198961,-0.409929],[103.198979,-0.408683],[103.197226,-0.397492],[103.213884,-0.378881],[103.221994,-0.388313],[103.226718,-0.386143],[103.229803,-0.3852],[103.236006,-0.406957],[103.241708,-0.419999],[103.242506,-0.422558],[103.25024,-0.422573],[103.252038,-0.445329],[103.250849,-0.452315],[103.25217,-0.453864],[103.254098,-0.460177],[103.252696,-0.469268],[103.256341,-0.48157],[103.261214,-0.49333],[103.257471,-0.492554],[103.25375,-0.488717],[103.248635,-0.49004],[103.237994,-0.49137]],[[103.238247,-0.452045],[103.238115,-0.453515],[103.242506,-0.422558],[103.238247,-0.452045]],[[103.237642,-0.451986],[103.236783,-0.452038],[103.238247,-0.452045],[103.237642,-0.451986]],[[103.237094,-0.453173],[103.237751,-0.453169],[103.238086,-0.453164],[103.237094,-0.453173]],[[103.229337,-0.449179],[103.231754,-0.4471],[103.230972,-0.447773],[103.229337,-0.449179]],[[103.228005,-0.459852],[103.223609,-0.454178],[103.228005,-0.459852],[103.228005,-0.459852]],[[103.230759,-0.458351],[103.230759,-0.458351],[103.233732,-0.456225],[103.230759,-0.458351]],[[103.237011,-0.455589],[103.236602,-0.45561],[103.237589,-0.455652],[103.237011,-0.455589]]]}}]}