{"type":"FeatureCollection","features":[{"type":"Feature","properties":{"kdkec":"1403090","nmkec":"GAUNG ANAK SERKA","kddesa":"1403090001","nmdesa":"RAMBAIAN"},"geometry":{"type":"Polygon","coordinates":[[[103.066023,-0.219312],[103.059638,-0.219465],[103.052138,-0.22426],[103.049676,-0.225283],[103.02899,-0.241108],[103.023895,-0.245454],[103.017089,-0.245475],[103.017325,-0.250487],[102.935234,-0.329904],[102.896109,-0.30418],[102.873448,-0.289777],[102.825407,-0.258006],[102.80409,-0.244571],[102.877614,-0.218582],[103.015394,-0.175628],[103.044466,-0.166988],[103.065203,-0.160148],[103.08044,-0.155632],[103.080625,-0.157696],[103.089221,-0.157402],[103.08918,-0.152943],[103.093054,-0.151751],[103.108813,-0.145347],[103.120381,-0.140891],[103.124868,-0.138488],[103.127324,-0.136843],[103.133186,-0.133427],[103.135844,-0.149518],[103.137011,-0.15249],[103.139858,-0.151306],[103.146193,-0.166036],[103.149781,-0.168296],[103.149713,-0.171042],[103.149912,-0.173722],[103.149781,-0.176339],[103.15068,-0.177796],[103.1518,-0.177312],[103.155656,-0.198968],[103.131784,-0.197659],[103.086562,-0.214067],[103.083474,-0.215676],[103.076362,-0.217725],[103.066023,-0.219312]],[[103.144903,-0.180584],[103.143365,-0.181643],[103.14594,-0.179965],[103.144903,-0.180584]],[[103.141608,-0.1832],[103.141996,-0.183942],[103.140675,-0.181262],[103.141608,-0.1832]],[[103.106085,-0.191362],[103.103832,-0.191973],[103.100108,-0.192794],[103.102491,-0.192337],[103.106085,-0.191362]],[[103.082347,-0.192868],[103.083462,-0.191801],[103.084997,-0.190109],[103.082347,-0.192868]],[[103.143293,-0.183992],[103.142671,-0.183965],[103.143293,-0.183992],[103.143293,-0.183992]]]}}]}