{"type":"FeatureCollection","features":[{"type":"Feature","properties":{"kdkec":"1403100","nmkec":"GAUNG","kddesa":"1403100008","nmdesa":"KUALA LAHANG"},"geometry":{"type":"Polygon","coordinates":[[[103.341774,-0.102938],[103.336745,-0.111228],[103.333449,-0.11398],[103.327374,-0.116568],[103.322089,-0.117249],[103.31566,-0.11684],[103.314915,-0.116681],[103.314316,-0.113555],[103.305068,-0.110657],[103.309511,-0.088479],[103.319997,-0.09408],[103.327243,-0.098678],[103.32892,-0.095884],[103.330507,-0.093894],[103.334095,-0.098645],[103.337325,-0.095509],[103.341766,-0.090806],[103.340358,-0.086669],[103.340081,-0.086284],[103.351084,-0.076674],[103.352965,-0.08312],[103.356659,-0.092468],[103.352599,-0.092786],[103.348404,-0.095428],[103.34361,-0.099787],[103.341774,-0.102938]],[[103.339324,-0.100785],[103.33981,-0.10025],[103.338339,-0.101758],[103.338938,-0.101199],[103.339324,-0.100785]],[[103.340534,-0.100935],[103.342089,-0.102398],[103.340692,-0.101084],[103.33981,-0.10025],[103.340534,-0.100935]],[[103.33516,-0.104692],[103.333807,-0.103621],[103.336934,-0.100994],[103.333803,-0.103624],[103.327243,-0.098678],[103.33516,-0.104692]],[[103.337001,-0.101081],[103.337121,-0.100962],[103.336934,-0.100994],[103.337001,-0.101081]],[[103.343714,-0.097865],[103.343714,-0.097865],[103.344556,-0.098927],[103.343714,-0.097865]],[[103.341407,-0.100368],[103.341399,-0.100374],[103.340692,-0.101084],[103.341407,-0.100368]],[[103.340035,-0.098033],[103.340474,-0.097586],[103.341989,-0.09604],[103.340035,-0.098033]],[[103.339592,-0.098489],[103.339999,-0.098935],[103.339592,-0.098489],[103.339592,-0.098489]],[[103.340574,-0.099481],[103.34044,-0.099336],[103.340137,-0.0991],[103.340574,-0.099481]],[[103.340732,-0.099742],[103.34023,-0.10023],[103.340844,-0.099773],[103.340693,-0.09961],[103.340732,-0.099742]],[[103.342251,-0.098731],[103.341908,-0.099058],[103.342077,-0.098903],[103.342251,-0.098731]],[[103.34166,-0.100189],[103.3417,-0.100232],[103.34186,-0.100048],[103.34166,-0.100189]],[[103.342715,-0.097916],[103.342773,-0.097865],[103.342357,-0.097262],[103.342715,-0.097916]]]}}]}