{"type":"FeatureCollection","features":[{"type":"Feature","properties":{"kdkec":"1403121","nmkec":"PELANGIRAN","kddesa":"1403121010","nmdesa":"INTAN MULYA JAYA"},"geometry":{"type":"Polygon","coordinates":[[[103.325743,0.177528],[103.324955,0.179872],[103.316732,0.177072],[103.307434,0.204628],[103.340823,0.216168],[103.351311,0.186545],[103.325743,0.177528]],[[103.330846,0.206644],[103.331947,0.203565],[103.331947,0.203565],[103.331377,0.205209],[103.330846,0.206644]],[[103.332655,0.205645],[103.332503,0.205594],[103.331377,0.205209],[103.332655,0.205645]],[[103.331923,0.207052],[103.331804,0.207351],[103.332503,0.205594],[103.331923,0.207052]],[[103.333278,0.20403],[103.332682,0.205654],[103.333278,0.20403],[103.333278,0.20403]],[[103.33698,0.205323],[103.335588,0.204855],[103.334509,0.20446],[103.33698,0.205323]],[[103.339152,0.207788],[103.339152,0.207788],[103.340266,0.208147],[103.339152,0.207788]],[[103.335978,0.208396],[103.335978,0.208396],[103.338621,0.209378],[103.335978,0.208396]],[[103.33301,0.207511],[103.333275,0.206727],[103.332663,0.208535],[103.33301,0.207511]],[[103.333538,0.20594],[103.332687,0.205656],[103.333549,0.205909],[103.333538,0.20594]],[[103.337999,0.207394],[103.338544,0.205869],[103.337999,0.207394],[103.337999,0.207394]]]}}]}