{"type":"FeatureCollection","features":[{"type":"Feature","properties":{"kdkec":"1403021","nmkec":"SUNGAI BATANG","kddesa":"1403021007","nmdesa":"PANDAN SARI"},"geometry":{"type":"Polygon","coordinates":[[[103.318668,-0.627922],[103.313347,-0.630897],[103.307948,-0.635401],[103.305348,-0.630441],[103.301948,-0.632162],[103.30185,-0.622129],[103.298076,-0.59539],[103.299724,-0.595192],[103.304498,-0.595192],[103.32369,-0.587792],[103.33422,-0.580485],[103.348381,-0.574524],[103.353343,-0.571769],[103.35523,-0.588088],[103.356163,-0.598253],[103.358134,-0.603232],[103.362283,-0.608107],[103.366121,-0.611323],[103.368815,-0.613044],[103.369166,-0.613537],[103.362408,-0.619371],[103.36021,-0.622227],[103.358948,-0.624543],[103.357019,-0.626173],[103.353669,-0.627589],[103.351215,-0.627786],[103.348721,-0.627437],[103.347091,-0.626999],[103.344546,-0.626722],[103.342617,-0.627537],[103.340717,-0.62898],[103.33838,-0.631108],[103.335911,-0.634767],[103.335495,-0.635965],[103.335312,-0.638991],[103.316715,-0.629097],[103.32305,-0.625602],[103.318668,-0.627922]],[[103.319563,-0.619575],[103.32305,-0.625602],[103.318556,-0.617807],[103.328529,-0.612332],[103.317473,-0.618377],[103.318556,-0.617807],[103.319563,-0.619575]],[[103.312591,-0.623262],[103.309754,-0.625074],[103.314158,-0.622324],[103.312591,-0.623262]],[[103.314279,-0.618156],[103.31611,-0.621116],[103.31611,-0.621116],[103.314279,-0.618156]],[[103.314114,-0.610734],[103.315425,-0.614072],[103.316556,-0.616952],[103.314114,-0.610734]],[[103.316509,-0.621026],[103.318261,-0.620031],[103.316241,-0.621087],[103.316509,-0.621026]],[[103.332152,-0.611635],[103.330044,-0.608079],[103.332152,-0.611635],[103.332152,-0.611635]],[[103.342224,-0.605246],[103.338907,-0.607914],[103.350118,-0.599089],[103.342224,-0.605246]]]}}]}