{"type":"FeatureCollection","features":[{"type":"Feature","properties":{"kdkec":"1403051","nmkec":"CONCONG","kddesa":"1403051001","nmdesa":"CONCONG LUAR"},"geometry":{"type":"Polygon","coordinates":[[[103.634899,-0.241326],[103.633581,-0.242491],[103.632313,-0.243907],[103.630337,-0.244925],[103.628755,-0.24611],[103.626035,-0.251282],[103.624481,-0.251977],[103.621948,-0.252078],[103.620926,-0.25235],[103.614866,-0.251292],[103.611081,-0.249659],[103.608669,-0.245406],[103.607874,-0.245177],[103.607712,-0.242537],[103.606403,-0.237056],[103.60425,-0.230179],[103.602811,-0.221668],[103.615517,-0.222924],[103.628576,-0.22452],[103.638445,-0.225167],[103.643675,-0.227162],[103.644691,-0.231755],[103.643197,-0.233781],[103.64369,-0.234175],[103.644043,-0.235184],[103.641122,-0.236303],[103.63733,-0.239212],[103.634899,-0.241326]],[[103.635669,-0.240653],[103.634966,-0.239919],[103.635201,-0.239587],[103.634891,-0.239927],[103.635669,-0.240653]],[[103.638267,-0.237182],[103.638375,-0.237364],[103.636789,-0.238549],[103.638386,-0.237395],[103.638842,-0.238028],[103.638267,-0.237182]],[[103.636735,-0.238491],[103.636791,-0.23855],[103.636789,-0.238549],[103.636735,-0.238491]],[[103.636821,-0.238587],[103.636787,-0.238619],[103.63733,-0.239212],[103.636821,-0.238587]],[[103.638251,-0.23541],[103.639759,-0.234431],[103.640083,-0.234117],[103.638251,-0.23541]],[[103.63974,-0.23635],[103.638569,-0.237257],[103.639771,-0.236327],[103.638841,-0.235028],[103.63974,-0.23635]],[[103.634715,-0.236448],[103.637045,-0.234752],[103.637574,-0.23434],[103.634715,-0.236448]],[[103.635643,-0.237831],[103.635643,-0.237831],[103.634715,-0.236448],[103.635643,-0.237831]],[[103.633565,-0.239331],[103.633565,-0.239331],[103.634152,-0.240024],[103.633565,-0.239331]],[[103.634663,-0.239944],[103.634449,-0.240132],[103.634719,-0.240007],[103.634663,-0.239944]]]}}]}