{"type":"FeatureCollection","features":[{"type":"Feature","properties":{"kdkec":"1403021","nmkec":"SUNGAI BATANG","kddesa":"1403021002","nmdesa":"KUALA SUNGAI BATANG"},"geometry":{"type":"MultiPolygon","coordinates":[[[[103.295446,-0.67055],[103.298177,-0.669567],[103.300907,-0.669457],[103.305713,-0.668365],[103.309754,-0.668147],[103.313905,-0.666727],[103.316199,-0.666399],[103.317509,-0.665198],[103.321441,-0.662795],[103.324827,-0.659627],[103.328869,-0.654712],[103.331467,-0.650529],[103.333784,-0.646083],[103.336296,-0.643462],[103.339245,-0.641824],[103.341866,-0.642042],[103.343941,-0.642807],[103.346126,-0.642588],[103.353007,-0.644991],[103.354645,-0.6451],[103.358905,-0.647394],[103.371902,-0.651654],[103.376271,-0.651435],[103.383699,-0.649906],[103.386975,-0.648705],[103.39189,-0.647831],[103.394512,-0.647613],[103.396915,-0.646848],[103.401069,-0.646601],[103.405564,-0.645755],[103.408874,-0.646327],[103.411739,-0.647346],[103.42237,-0.652821],[103.425553,-0.656831],[103.4272,-0.661616],[103.422085,-0.663424],[103.413573,-0.665541],[103.404837,-0.66846],[103.401084,-0.669933],[103.398818,-0.67055],[103.393813,-0.672538],[103.384509,-0.671039],[103.354476,-0.668261],[103.339063,-0.673343],[103.326185,-0.677838],[103.327604,-0.683946],[103.313631,-0.689833],[103.294354,-0.69352],[103.290181,-0.671329],[103.291951,-0.670768],[103.295446,-0.67055]]],[[[103.316703,-0.661324],[103.312572,-0.663983],[103.307595,-0.665117],[103.301968,-0.66539],[103.286301,-0.669594],[103.284692,-0.656862],[103.291681,-0.656542],[103.291802,-0.649594],[103.292833,-0.649872],[103.293192,-0.649702],[103.295456,-0.650235],[103.300118,-0.650102],[103.302116,-0.649436],[103.301948,-0.632162],[103.305348,-0.630441],[103.307948,-0.635401],[103.313247,-0.630951],[103.316715,-0.629097],[103.335312,-0.638991],[103.331708,-0.641824],[103.328828,-0.645531],[103.321878,-0.65646],[103.317562,-0.660688],[103.316703,-0.661324]],[[103.315807,-0.659203],[103.31217,-0.656018],[103.315847,-0.659281],[103.315807,-0.659203]],[[103.316271,-0.658912],[103.316271,-0.658912],[103.315807,-0.659203],[103.316271,-0.658912]],[[103.316091,-0.657715],[103.317382,-0.659558],[103.316517,-0.658183],[103.316091,-0.657715]]],[[[103.401535,-0.638296],[103.398389,-0.638995],[103.394195,-0.64048],[103.390361,-0.641362],[103.375518,-0.646678],[103.37243,-0.646837],[103.370712,-0.646614],[103.368244,-0.645985],[103.363263,-0.64415],[103.359418,-0.642403],[103.34771,-0.639432],[103.344302,-0.638383],[103.338972,-0.638208],[103.335312,-0.638991],[103.336709,-0.637677],[103.33848,-0.636648],[103.34181,-0.634117],[103.347671,-0.633718],[103.356196,-0.634917],[103.366053,-0.63465],[103.39549,-0.626392],[103.410143,-0.621197],[103.423996,-0.615736],[103.432003,-0.613075],[103.434844,-0.612622],[103.433849,-0.616971],[103.43313,-0.61916],[103.431822,-0.621062],[103.426589,-0.627179],[103.424304,-0.628616],[103.422977,-0.628911],[103.422019,-0.631343],[103.419249,-0.63389],[103.417855,-0.634914],[103.416332,-0.635574],[103.414904,-0.6355],[103.413418,-0.636461],[103.41071,-0.636723],[103.407127,-0.637422],[103.404244,-0.637335],[103.401535,-0.638296]]]]}}]}