{"type":"FeatureCollection","features":[{"type":"Feature","properties":{"kdkec":"1403122","nmkec":"TELUK BELENGKONG","kddesa":"1403122003","nmdesa":"HIBRIDA MULYA"},"geometry":{"type":"Polygon","coordinates":[[[103.302734,0.324034],[103.315076,0.313095],[103.330585,0.29969],[103.310111,0.275316],[103.281148,0.300753],[103.302734,0.324034]],[[103.308491,0.311692],[103.309653,0.310722],[103.311239,0.309397],[103.308491,0.311692]],[[103.303351,0.311007],[103.303351,0.311007],[103.302583,0.31013],[103.303351,0.311007]],[[103.306345,0.309708],[103.308235,0.311907],[103.306345,0.309708],[103.306345,0.309708]]]}}]}