{"type":"FeatureCollection","features":[{"type":"Feature","properties":{"kdkec":"1403071","nmkec":"KEMPAS","kddesa":"1403071002","nmdesa":"PEKAN TUA"},"geometry":{"type":"MultiPolygon","coordinates":[[[[102.769061,-0.525933],[102.768874,-0.52558],[102.767551,-0.525035],[102.745788,-0.524253],[102.720085,-0.523909],[102.721216,-0.509718],[102.726204,-0.509795],[102.727777,-0.505376],[102.743439,-0.477364],[102.746175,-0.467954],[102.754532,-0.454817],[102.756005,-0.459406],[102.757257,-0.462616],[102.759665,-0.467255],[102.764813,-0.47334],[102.767107,-0.476347],[102.767522,-0.477322],[102.767606,-0.478826],[102.766639,-0.484296],[102.766685,-0.486414],[102.767306,-0.490985],[102.768921,-0.494871],[102.768524,-0.495097],[102.76895,-0.494932],[102.77086,-0.496955],[102.772701,-0.498399],[102.774889,-0.499426],[102.777765,-0.50024],[102.78131,-0.500747],[102.784977,-0.501084],[102.787985,-0.501023],[102.791024,-0.501652],[102.795474,-0.50354],[102.799909,-0.505826],[102.802502,-0.50753],[102.803076,-0.508501],[102.803315,-0.50977],[102.803868,-0.510768],[102.804789,-0.513453],[102.805111,-0.515632],[102.805044,-0.51763],[102.803482,-0.516284],[102.802978,-0.515147],[102.802344,-0.514843],[102.800295,-0.515633],[102.800147,-0.51664],[102.799765,-0.516823],[102.796883,-0.517031],[102.795997,-0.517387],[102.79499,-0.519289],[102.794159,-0.520112],[102.793731,-0.522553],[102.793279,-0.523552],[102.793227,-0.524377],[102.792915,-0.524498],[102.790856,-0.524439],[102.788178,-0.523528],[102.786227,-0.524625],[102.783565,-0.525259],[102.782082,-0.525234],[102.781229,-0.523893],[102.779186,-0.522421],[102.777694,-0.522918],[102.777067,-0.522888],[102.772788,-0.525041],[102.771477,-0.527075],[102.770918,-0.526846],[102.770316,-0.526929],[102.769061,-0.525933]],[[102.770341,-0.516374],[102.770316,-0.526929],[102.7704,-0.497605],[102.770365,-0.505722],[102.770341,-0.516374]],[[102.767795,-0.494047],[102.767213,-0.49444],[102.768375,-0.493755],[102.767795,-0.494047]],[[102.767609,-0.505795],[102.755041,-0.505728],[102.766078,-0.505871],[102.770365,-0.505722],[102.767609,-0.505795]],[[102.750591,-0.505671],[102.74626,-0.505615],[102.755041,-0.505728],[102.750591,-0.505671]],[[102.76576,-0.495496],[102.766114,-0.495182],[102.750591,-0.505671],[102.76576,-0.495496]],[[102.788076,-0.504577],[102.788395,-0.50247],[102.788076,-0.504577],[102.788076,-0.504577]],[[102.769339,-0.496481],[102.769382,-0.496445],[102.769122,-0.496002],[102.769339,-0.496481]]],[[[102.746541,-0.44748],[102.745458,-0.447093],[102.743509,-0.447405],[102.741964,-0.447397],[102.737561,-0.4478],[102.735747,-0.448417],[102.733538,-0.448527],[102.733707,-0.442071],[102.735361,-0.244674],[102.758805,-0.244675],[102.765671,-0.282797],[102.770043,-0.308738],[102.773162,-0.329487],[102.789209,-0.430242],[102.762892,-0.431124],[102.762047,-0.455492],[102.763618,-0.455679],[102.763282,-0.459483],[102.761851,-0.461565],[102.760094,-0.45992],[102.758485,-0.457871],[102.756774,-0.453448],[102.755924,-0.452523],[102.755691,-0.451863],[102.754216,-0.449816],[102.752363,-0.448199],[102.751036,-0.447738],[102.749908,-0.447468],[102.746541,-0.44748]]]]}}]}