{"type":"FeatureCollection","features":[{"type":"Feature","properties":{"kdkec":"1403021","nmkec":"SUNGAI BATANG","kddesa":"1403021001","nmdesa":"KUALA PATAH PARANG"},"geometry":{"type":"MultiPolygon","coordinates":[[[[103.410143,-0.621197],[103.39549,-0.626392],[103.366053,-0.63465],[103.356196,-0.634917],[103.347671,-0.633718],[103.34181,-0.634117],[103.33848,-0.636648],[103.336709,-0.637677],[103.335312,-0.638991],[103.335495,-0.635965],[103.335911,-0.634767],[103.33838,-0.631108],[103.340717,-0.62898],[103.342617,-0.627537],[103.344546,-0.626722],[103.347091,-0.626999],[103.34882,-0.627736],[103.351089,-0.628271],[103.354026,-0.627853],[103.355862,-0.627239],[103.359264,-0.624959],[103.361776,-0.621101],[103.362973,-0.619538],[103.364338,-0.618615],[103.370905,-0.61323],[103.3736,-0.611405],[103.376108,-0.610859],[103.384028,-0.611655],[103.386855,-0.611645],[103.392012,-0.610946],[103.400661,-0.607451],[103.403807,-0.605704],[103.409137,-0.604393],[103.412719,-0.604393],[103.419622,-0.60317],[103.424255,-0.602685],[103.428579,-0.601493],[103.430441,-0.601456],[103.431335,-0.601612],[103.431969,-0.601935],[103.433627,-0.604189],[103.434438,-0.606689],[103.434861,-0.609703],[103.434844,-0.612622],[103.432003,-0.613075],[103.423996,-0.615736],[103.410143,-0.621197]]],[[[103.39813,-0.607237],[103.390981,-0.609969],[103.387986,-0.610577],[103.384028,-0.610634],[103.380187,-0.609835],[103.376342,-0.609778],[103.373715,-0.610626],[103.372401,-0.611242],[103.369166,-0.613537],[103.368815,-0.613044],[103.366121,-0.611323],[103.362283,-0.608107],[103.358134,-0.603232],[103.356163,-0.598253],[103.35523,-0.588088],[103.353343,-0.571769],[103.365189,-0.567707],[103.366713,-0.567007],[103.360818,-0.559903],[103.366594,-0.556343],[103.373474,-0.549882],[103.381389,-0.541522],[103.385442,-0.537911],[103.38827,-0.53601],[103.392119,-0.532828],[103.395743,-0.537144],[103.397729,-0.538927],[103.408886,-0.527848],[103.420839,-0.529947],[103.423441,-0.530145],[103.424169,-0.530448],[103.429641,-0.530477],[103.43406,-0.531454],[103.436681,-0.533304],[103.437555,-0.536284],[103.438274,-0.549954],[103.435239,-0.581333],[103.43265,-0.5905],[103.427906,-0.598211],[103.4267,-0.599333],[103.422711,-0.600318],[103.421046,-0.600455],[103.413262,-0.602035],[103.409531,-0.602548],[103.40647,-0.603277],[103.405421,-0.603654],[103.402656,-0.605055],[103.401093,-0.605745],[103.399502,-0.606408],[103.39813,-0.607237]],[[103.408919,-0.600427],[103.409424,-0.602175],[103.409531,-0.602548],[103.408919,-0.600427]],[[103.40635,-0.601937],[103.406444,-0.602236],[103.406823,-0.60318],[103.40635,-0.601937]],[[103.401789,-0.603251],[103.401728,-0.603132],[103.402656,-0.605055],[103.401789,-0.603251]],[[103.402841,-0.602785],[103.404773,-0.601898],[103.401789,-0.603251],[103.402841,-0.602785]],[[103.400867,-0.604962],[103.400688,-0.604551],[103.401093,-0.605745],[103.400867,-0.604962]],[[103.385936,-0.553754],[103.387907,-0.55176],[103.38689,-0.55273],[103.385936,-0.553754]],[[103.408676,-0.601326],[103.408963,-0.602291],[103.408456,-0.60058],[103.408676,-0.601326]],[[103.400615,-0.604383],[103.398976,-0.604996],[103.400615,-0.604383],[103.400615,-0.604383]]]]}}]}