{"type":"FeatureCollection","features":[{"type":"Feature","properties":{"kdkec":"1403070","nmkec":"TEMPULING","kddesa":"1403070011","nmdesa":"TELUK JIRA"},"geometry":{"type":"Polygon","coordinates":[[[102.941813,-0.488503],[102.933061,-0.480273],[102.928374,-0.476639],[102.918551,-0.468049],[102.894778,-0.444151],[102.892444,-0.44779],[102.886614,-0.443387],[102.90542,-0.415921],[102.890897,-0.437102],[102.884575,-0.430799],[102.87961,-0.426996],[102.879964,-0.42149],[102.870394,-0.404264],[102.866509,-0.388371],[102.825407,-0.258006],[102.870231,-0.28765],[102.883641,-0.296355],[102.921524,-0.409182],[102.951739,-0.449766],[102.960204,-0.463299],[102.962588,-0.474032],[102.962537,-0.474955],[102.959858,-0.474482],[102.957466,-0.474663],[102.954217,-0.475657],[102.951055,-0.477686],[102.948829,-0.479955],[102.947852,-0.481559],[102.946426,-0.484755],[102.945633,-0.487118],[102.945061,-0.489712],[102.944788,-0.490198],[102.941813,-0.488503]],[[102.908052,-0.418732],[102.899456,-0.409269],[102.90542,-0.415921],[102.908052,-0.418732]],[[102.948421,-0.452213],[102.948214,-0.452444],[102.951739,-0.449766],[102.948421,-0.452213]],[[102.955366,-0.473945],[102.955436,-0.470907],[102.955354,-0.474444],[102.955503,-0.475197],[102.955366,-0.473945]],[[102.938568,-0.445644],[102.94671,-0.454126],[102.94671,-0.454126],[102.938568,-0.445644]],[[102.920367,-0.419024],[102.92993,-0.433011],[102.938568,-0.445644],[102.920367,-0.419024]],[[102.937949,-0.452158],[102.937949,-0.452158],[102.923993,-0.438004],[102.937949,-0.452158]],[[102.905612,-0.42771],[102.905012,-0.428531],[102.900273,-0.435579],[102.901763,-0.433363],[102.905612,-0.42771]],[[102.926341,-0.463293],[102.938993,-0.474222],[102.943838,-0.478234],[102.926341,-0.463293]],[[102.958869,-0.473551],[102.958754,-0.473572],[102.959152,-0.473528],[102.958869,-0.473551]],[[102.939808,-0.450253],[102.953353,-0.464545],[102.945199,-0.455925],[102.939808,-0.450253]]]}}]}