{"type":"FeatureCollection","features":[{"type":"Feature","properties":{"kdkec":"1403100","nmkec":"GAUNG","kddesa":"1403100006","nmdesa":"SUNGAI BARU"},"geometry":{"type":"Polygon","coordinates":[[[103.313454,-0.116368],[103.312036,-0.123722],[103.312095,-0.124341],[103.311252,-0.128015],[103.309271,-0.134197],[103.302673,-0.132426],[103.293867,-0.126423],[103.277119,-0.117636],[103.271716,-0.114193],[103.266816,-0.113863],[103.264677,-0.114631],[103.267268,-0.096584],[103.270766,-0.09679],[103.27793,-0.098316],[103.284714,-0.101694],[103.289938,-0.104938],[103.307651,-0.115124],[103.313454,-0.116368]],[[103.305551,-0.115289],[103.305153,-0.116432],[103.306096,-0.114263],[103.305551,-0.115289]],[[103.302533,-0.11628],[103.30287,-0.115291],[103.302795,-0.115455],[103.302533,-0.11628]],[[103.301177,-0.118717],[103.301419,-0.118332],[103.302533,-0.11628],[103.301177,-0.118717]],[[103.304899,-0.115156],[103.304722,-0.115554],[103.304952,-0.115076],[103.30416,-0.114795],[103.304899,-0.115156]]]}}]}