{"type":"FeatureCollection","features":[{"type":"Feature","properties":{"kdkec":"1403090","nmkec":"GAUNG ANAK SERKA","kddesa":"1403090003","nmdesa":"TELUK TUASAN"},"geometry":{"type":"Polygon","coordinates":[[[103.247581,-0.165858],[103.248747,-0.185062],[103.228733,-0.185443],[103.227869,-0.162931],[103.226317,-0.142622],[103.224047,-0.139122],[103.222313,-0.13279],[103.232945,-0.130951],[103.23846,-0.129525],[103.245931,-0.124582],[103.249651,-0.120799],[103.249301,-0.139956],[103.247581,-0.165858]],[[103.236952,-0.138953],[103.237012,-0.137953],[103.23708,-0.136358],[103.236952,-0.138953]],[[103.237757,-0.137972],[103.237757,-0.137972],[103.237012,-0.137953],[103.237757,-0.137972]],[[103.238102,-0.140129],[103.238047,-0.138737],[103.238047,-0.138962],[103.238102,-0.140129]],[[103.243097,-0.14129],[103.24275,-0.141989],[103.236934,-0.142041],[103.242716,-0.142061],[103.243097,-0.14129]],[[103.238344,-0.140124],[103.238346,-0.141267],[103.238344,-0.140424],[103.238344,-0.140124]]]}}]}