{"type":"FeatureCollection","features":[{"type":"Feature","properties":{"kdkec":"1403090","nmkec":"GAUNG ANAK SERKA","kddesa":"1403090004","nmdesa":"SUNGAI ILIRAN"},"geometry":{"type":"Polygon","coordinates":[[[103.281858,-0.180757],[103.264855,-0.18083],[103.25775,-0.182239],[103.259253,-0.164413],[103.268284,-0.145112],[103.27599,-0.137728],[103.28098,-0.136671],[103.285331,-0.133293],[103.283339,-0.130185],[103.289117,-0.12389],[103.293867,-0.126423],[103.302673,-0.132426],[103.309271,-0.134197],[103.305119,-0.152581],[103.314722,-0.161642],[103.313127,-0.166285],[103.311592,-0.167981],[103.309995,-0.168502],[103.30828,-0.168666],[103.305998,-0.168101],[103.304382,-0.189751],[103.296525,-0.190272],[103.292774,-0.187981],[103.290124,-0.185711],[103.285199,-0.182561],[103.281858,-0.180757]],[[103.276758,-0.143093],[103.277073,-0.145611],[103.277796,-0.146611],[103.27718,-0.14576],[103.27599,-0.137728],[103.276758,-0.143093]],[[103.278567,-0.146996],[103.279708,-0.147438],[103.277796,-0.146611],[103.278567,-0.146996]],[[103.293733,-0.147774],[103.294041,-0.148045],[103.292622,-0.146795],[103.293733,-0.147774]],[[103.289175,-0.1565],[103.289032,-0.157037],[103.290269,-0.153024],[103.289175,-0.1565]],[[103.279,-0.151993],[103.27921,-0.15158],[103.277604,-0.154677],[103.279,-0.151993]]]}}]}