{"type":"FeatureCollection","features":[{"type":"Feature","properties":{"kdkec":"1403090","nmkec":"GAUNG ANAK SERKA","kddesa":"1403090008","nmdesa":"KUALA GAUNG"},"geometry":{"type":"MultiPolygon","coordinates":[[[[103.388345,-0.216988],[103.390782,-0.217049],[103.392447,-0.214125],[103.392792,-0.207573],[103.392663,-0.195027],[103.400925,-0.194988],[103.400562,-0.18186],[103.400446,-0.170559],[103.399701,-0.158433],[103.4018,-0.157497],[103.404026,-0.157742],[103.407701,-0.158701],[103.409158,-0.157047],[103.409233,-0.155025],[103.407725,-0.15289],[103.40609,-0.150021],[103.406116,-0.149178],[103.411669,-0.14903],[103.414675,-0.147873],[103.422306,-0.14533],[103.430689,-0.145734],[103.436586,-0.147064],[103.437391,-0.147451],[103.447975,-0.153539],[103.453005,-0.157875],[103.462516,-0.175442],[103.462016,-0.175636],[103.456834,-0.183102],[103.454552,-0.185093],[103.450847,-0.187867],[103.433932,-0.198907],[103.419849,-0.210415],[103.405358,-0.223541],[103.403623,-0.224901],[103.400879,-0.226407],[103.394591,-0.229272],[103.388262,-0.231133],[103.388345,-0.216988]],[[103.428083,-0.176398],[103.427138,-0.179773],[103.427839,-0.177271],[103.437391,-0.147451],[103.428083,-0.176398]],[[103.442945,-0.172381],[103.44147,-0.169884],[103.442905,-0.172313],[103.427839,-0.177271],[103.442945,-0.172381]]],[[[103.408142,-0.147613],[103.406142,-0.147753],[103.405837,-0.140096],[103.401395,-0.139328],[103.402005,-0.133106],[103.405237,-0.129587],[103.405197,-0.119791],[103.403624,-0.073345],[103.40516,-0.068222],[103.406783,-0.065192],[103.408424,-0.066474],[103.413304,-0.069472],[103.414776,-0.072635],[103.417666,-0.074843],[103.420964,-0.076697],[103.425271,-0.078005],[103.428652,-0.080295],[103.430151,-0.082639],[103.430096,-0.086183],[103.430887,-0.088937],[103.432986,-0.090654],[103.435331,-0.091526],[103.440319,-0.092126],[103.442227,-0.09308],[103.444354,-0.09856],[103.455912,-0.11418],[103.46071,-0.117179],[103.473872,-0.121727],[103.483008,-0.127339],[103.49393,-0.131605],[103.497514,-0.133994],[103.500927,-0.141845],[103.501951,-0.14577],[103.494783,-0.157887],[103.48352,-0.164201],[103.474304,-0.170345],[103.471232,-0.172052],[103.469249,-0.172823],[103.466108,-0.171968],[103.458931,-0.156979],[103.45182,-0.14981],[103.439159,-0.143624],[103.432395,-0.141774],[103.427134,-0.141023],[103.422014,-0.141952],[103.41693,-0.143537],[103.410513,-0.146775],[103.408142,-0.147613]]]]}}]}