{"type":"FeatureCollection","features":[{"type":"Feature","properties":{"kdkec":"1403120","nmkec":"KATEMAN","kddesa":"1403120004","nmdesa":"TAGARAJA"},"geometry":{"type":"Polygon","coordinates":[[[103.607114,0.287924],[103.604376,0.291746],[103.60353,0.294219],[103.604487,0.294611],[103.605995,0.295761],[103.607358,0.296785],[103.609539,0.298872],[103.610984,0.300445],[103.613161,0.304149],[103.613423,0.304893],[103.615426,0.303725],[103.617476,0.301952],[103.618499,0.30104],[103.619977,0.29979],[103.621175,0.298755],[103.633762,0.287825],[103.634862,0.281285],[103.634778,0.278439],[103.631168,0.279453],[103.630289,0.277809],[103.629385,0.278983],[103.631238,0.276488],[103.631762,0.27639],[103.631494,0.275757],[103.631931,0.272409],[103.629019,0.271604],[103.629624,0.2681],[103.626014,0.267346],[103.619607,0.265446],[103.610025,0.284141],[103.60855,0.285822],[103.607114,0.287924]],[[103.606665,0.294876],[103.606735,0.294943],[103.605995,0.295761],[103.606665,0.294876]],[[103.608426,0.295541],[103.608231,0.29581],[103.607358,0.296785],[103.608426,0.295541]],[[103.609132,0.296552],[103.610383,0.297714],[103.610458,0.297792],[103.608231,0.29581],[103.609132,0.296552]],[[103.612223,0.299148],[103.612275,0.299208],[103.610984,0.300445],[103.612223,0.299148]],[[103.614679,0.302568],[103.614679,0.302568],[103.615426,0.303725],[103.614679,0.302568]],[[103.616371,0.30079],[103.615771,0.300097],[103.617476,0.301952],[103.616371,0.30079]],[[103.614806,0.301049],[103.614644,0.301144],[103.615771,0.300097],[103.614806,0.301049]],[[103.615227,0.299228],[103.614822,0.298615],[103.615771,0.300097],[103.615227,0.299228]],[[103.615598,0.29906],[103.617475,0.29763],[103.615288,0.299316],[103.615598,0.29906]],[[103.618421,0.297316],[103.618811,0.297933],[103.619977,0.29979],[103.618421,0.297316]],[[103.613747,0.30167],[103.614464,0.302731],[103.613888,0.301894],[103.613747,0.30167]],[[103.613972,0.301534],[103.614384,0.301228],[103.613866,0.300623],[103.614428,0.301271],[103.613747,0.30167],[103.613972,0.301534]],[[103.612712,0.298635],[103.612712,0.298635],[103.613287,0.299307],[103.612712,0.298635]],[[103.613526,0.296777],[103.613474,0.296688],[103.614197,0.297722],[103.613937,0.297352],[103.613526,0.296777]],[[103.612667,0.295465],[103.612873,0.295767],[103.612944,0.295878],[103.612667,0.295465]],[[103.612115,0.295865],[103.611177,0.296481],[103.612654,0.295446],[103.612115,0.295865]],[[103.612253,0.294832],[103.612586,0.294497],[103.612624,0.294547],[103.612253,0.294832]],[[103.61456,0.293126],[103.614263,0.293325],[103.612899,0.294182],[103.61456,0.293126]],[[103.614571,0.293811],[103.612982,0.29497],[103.614567,0.293807],[103.614571,0.293811]],[[103.615003,0.294182],[103.614953,0.294219],[103.614765,0.293977],[103.615003,0.294182]],[[103.615389,0.294279],[103.616331,0.295145],[103.615325,0.294326],[103.615389,0.294279]],[[103.615851,0.293937],[103.615957,0.294114],[103.615835,0.293949],[103.615851,0.293937]],[[103.614918,0.29249],[103.615284,0.292993],[103.615625,0.293561],[103.614918,0.29249]],[[103.615838,0.292113],[103.616753,0.29154],[103.615466,0.292349],[103.615838,0.292113]],[[103.614,0.288998],[103.614432,0.289681],[103.615428,0.291396],[103.614,0.288998]],[[103.6134,0.289394],[103.613085,0.289598],[103.615448,0.287904],[103.614,0.288998],[103.6134,0.289394]],[[103.615615,0.288128],[103.616326,0.28762],[103.616433,0.287656],[103.615615,0.288128]],[[103.615448,0.287904],[103.615448,0.287904],[103.615615,0.288128],[103.615448,0.287904]],[[103.617377,0.286398],[103.618191,0.287481],[103.617926,0.287133],[103.617377,0.286398]],[[103.614275,0.292123],[103.614684,0.292638],[103.61415,0.292014],[103.614275,0.292123]],[[103.61393,0.291874],[103.612746,0.29079],[103.614008,0.29189],[103.611439,0.293541],[103.61393,0.291874]],[[103.609065,0.295438],[103.609768,0.294819],[103.611439,0.293541],[103.609065,0.295438]],[[103.611311,0.290761],[103.611594,0.291364],[103.611495,0.291155],[103.611311,0.290761]],[[103.613783,0.286806],[103.613783,0.286806],[103.613464,0.286411],[103.613783,0.286806]],[[103.60645,0.293435],[103.607396,0.294211],[103.607396,0.294211],[103.60645,0.293435]],[[103.608952,0.294424],[103.608952,0.294424],[103.611025,0.292908],[103.611025,0.292908],[103.608952,0.294424]],[[103.611914,0.288145],[103.611725,0.288326],[103.611684,0.288277],[103.611914,0.288145]],[[103.610865,0.295769],[103.610895,0.295808],[103.610505,0.296079],[103.610697,0.295899],[103.610865,0.295769]],[[103.616765,0.296456],[103.614739,0.29825],[103.616765,0.296456],[103.616765,0.296456]],[[103.612952,0.295196],[103.61286,0.295092],[103.61307,0.295112],[103.612952,0.295196]],[[103.624885,0.288009],[103.622808,0.284308],[103.625809,0.289573],[103.624885,0.288009]],[[103.62533,0.28279],[103.626817,0.281649],[103.625374,0.282856],[103.622808,0.284308],[103.62533,0.28279]],[[103.627274,0.288684],[103.625809,0.289573],[103.625809,0.289573],[103.627274,0.288684]],[[103.627048,0.288449],[103.6277,0.289119],[103.627274,0.288684],[103.627048,0.288449]],[[103.618942,0.29345],[103.617464,0.29473],[103.617428,0.294651],[103.618942,0.29345]],[[103.619383,0.294029],[103.619871,0.293691],[103.619201,0.294167],[103.619383,0.294029]],[[103.621221,0.289195],[103.617818,0.291514],[103.617058,0.292012],[103.621221,0.289195]]]}}]}