{"type":"FeatureCollection","features":[{"type":"Feature","properties":{"kdkec":"1403122","nmkec":"TELUK BELENGKONG","kddesa":"1403122006","nmdesa":"SUMBER MAKMUR JAYA"},"geometry":{"type":"Polygon","coordinates":[[[103.251325,0.314139],[103.192555,0.365808],[103.186909,0.370233],[103.177555,0.375664],[103.197239,0.395461],[103.20761,0.407812],[103.24838,0.372984],[103.246967,0.371171],[103.249818,0.368708],[103.250879,0.369922],[103.281108,0.342929],[103.254652,0.311428],[103.251325,0.314139]],[[103.259527,0.341351],[103.259394,0.341193],[103.258516,0.340144],[103.258709,0.34036],[103.259527,0.341351]],[[103.257871,0.342508],[103.259901,0.344958],[103.26041,0.345572],[103.260361,0.345513],[103.257871,0.342508]],[[103.261726,0.343394],[103.261726,0.343394],[103.259901,0.344958],[103.261726,0.343394]],[[103.26305,0.343216],[103.262196,0.34394],[103.262195,0.34394],[103.2629,0.343341],[103.26305,0.343216]],[[103.262923,0.345388],[103.264033,0.344429],[103.261377,0.346739],[103.262923,0.345388]],[[103.261437,0.345266],[103.262264,0.344567],[103.260683,0.345902],[103.261437,0.345266]]]}}]}