{"type":"FeatureCollection","features":[{"type":"Feature","properties":{"kdkec":"1403080","nmkec":"BATANG TUAKA","kddesa":"1403080002","nmdesa":"SUNGAI RAYA"},"geometry":{"type":"Polygon","coordinates":[[[103.078774,-0.345242],[103.049076,-0.32237],[103.049114,-0.312232],[103.050003,-0.305001],[103.067888,-0.294699],[103.092372,-0.305971],[103.079276,-0.299942],[103.08625,-0.295541],[103.094583,-0.296812],[103.097771,-0.298406],[103.099973,-0.298811],[103.103714,-0.305036],[103.101861,-0.307145],[103.099937,-0.310355],[103.098601,-0.316274],[103.098279,-0.318059],[103.098208,-0.319697],[103.100252,-0.322882],[103.100693,-0.325275],[103.100529,-0.330826],[103.099289,-0.337129],[103.097725,-0.341106],[103.09568,-0.345554],[103.093254,-0.34889],[103.089673,-0.352029],[103.086691,-0.353211],[103.083512,-0.354216],[103.081396,-0.348378],[103.078774,-0.345242]],[[103.094583,-0.322491],[103.060912,-0.306117],[103.095356,-0.322874],[103.100693,-0.325275],[103.094583,-0.322491]],[[103.088559,-0.336919],[103.088776,-0.337047],[103.097725,-0.341106],[103.088559,-0.336919]],[[103.088543,-0.33691],[103.088543,-0.33691],[103.089307,-0.335214],[103.088543,-0.33691]],[[103.059527,-0.319761],[103.059522,-0.319759],[103.052901,-0.315846],[103.059527,-0.319761]],[[103.097715,-0.308094],[103.097715,-0.308094],[103.098297,-0.306914],[103.097715,-0.308094]]]}}]}