{"type":"FeatureCollection","features":[{"type":"Feature","properties":{"kdkec":"1403090","nmkec":"GAUNG ANAK SERKA","kddesa":"1403090010","nmdesa":"IDAMAN"},"geometry":{"type":"Polygon","coordinates":[[[103.184985,-0.166646],[103.185948,-0.166376],[103.185917,-0.165889],[103.188762,-0.164336],[103.189148,-0.164791],[103.191716,-0.163236],[103.192567,-0.162353],[103.193202,-0.160815],[103.194648,-0.161519],[103.198801,-0.166118],[103.202146,-0.170569],[103.202851,-0.172382],[103.202362,-0.173807],[103.200646,-0.17665],[103.190054,-0.176517],[103.201604,-0.176685],[103.200771,-0.178835],[103.200061,-0.181315],[103.200433,-0.185982],[103.194169,-0.186071],[103.193618,-0.187914],[103.189,-0.187717],[103.187332,-0.186245],[103.17554,-0.186464],[103.175829,-0.198606],[103.166068,-0.198923],[103.167983,-0.186388],[103.16971,-0.177656],[103.169251,-0.172743],[103.168193,-0.171626],[103.171434,-0.167533],[103.171904,-0.166196],[103.172994,-0.161709],[103.173213,-0.159458],[103.17388,-0.156972],[103.17544,-0.155612],[103.176889,-0.155193],[103.179006,-0.155675],[103.180366,-0.15701],[103.180915,-0.158628],[103.180916,-0.163938],[103.180988,-0.164686],[103.181321,-0.165452],[103.184028,-0.166639],[103.184985,-0.166646]],[[103.181456,-0.167442],[103.181428,-0.167516],[103.182038,-0.166479],[103.182329,-0.165997],[103.181456,-0.167442]],[[103.183019,-0.166987],[103.183459,-0.167084],[103.182038,-0.166479],[103.183019,-0.166987]]]}}]}