{"type":"FeatureCollection","features":[{"type":"Feature","properties":{"kdkec":"1403020","nmkec":"RETEH","kddesa":"1403020002","nmdesa":"PULAU KECIL"},"geometry":{"type":"Polygon","coordinates":[[[103.136342,-0.748951],[103.131837,-0.748447],[103.130492,-0.746961],[103.126654,-0.743804],[103.1239,-0.742474],[103.121889,-0.742022],[103.119186,-0.742443],[103.117146,-0.743073],[103.115726,-0.744087],[103.114037,-0.746452],[103.108624,-0.751108],[103.105299,-0.753347],[103.097814,-0.75757],[103.101597,-0.722555],[103.113295,-0.701148],[103.113595,-0.698003],[103.114116,-0.68733],[103.119812,-0.688337],[103.124412,-0.688946],[103.128706,-0.689236],[103.134647,-0.688812],[103.142153,-0.687797],[103.148483,-0.68609],[103.150811,-0.685274],[103.157511,-0.68658],[103.150861,-0.685256],[103.152635,-0.684656],[103.155698,-0.684301],[103.1586,-0.684404],[103.15988,-0.684554],[103.161729,-0.684779],[103.173423,-0.686737],[103.180109,-0.688107],[103.176104,-0.712937],[103.171804,-0.727968],[103.16712,-0.739035],[103.161494,-0.754977],[103.146907,-0.751938],[103.144815,-0.751037],[103.141128,-0.750571],[103.140268,-0.749446],[103.13891,-0.749169],[103.136342,-0.748951]],[[103.149372,-0.691661],[103.149168,-0.690235],[103.148483,-0.68609],[103.149372,-0.691661]],[[103.158926,-0.687143],[103.157915,-0.686741],[103.157511,-0.68658],[103.158926,-0.687143]],[[103.158245,-0.689424],[103.159012,-0.68691],[103.158926,-0.687143],[103.158245,-0.689424]],[[103.156415,-0.688987],[103.159989,-0.68986],[103.158245,-0.689424],[103.156415,-0.688987]],[[103.159508,-0.685565],[103.159566,-0.685578],[103.15988,-0.684554],[103.159508,-0.685565]],[[103.161254,-0.685976],[103.161322,-0.685888],[103.159566,-0.685578],[103.161254,-0.685976]],[[103.161395,-0.685779],[103.161572,-0.685517],[103.161729,-0.684779],[103.161395,-0.685779]],[[103.167528,-0.725427],[103.167528,-0.725427],[103.171804,-0.727968],[103.167528,-0.725427]],[[103.159585,-0.694614],[103.159783,-0.691252],[103.159737,-0.692034],[103.159585,-0.694614]],[[103.163795,-0.692025],[103.160523,-0.69139],[103.159783,-0.691252],[103.163795,-0.692025]],[[103.162476,-0.705132],[103.163569,-0.694267],[103.164266,-0.689448],[103.163795,-0.692025],[103.162476,-0.705132]],[[103.160715,-0.689814],[103.160592,-0.690012],[103.160523,-0.69139],[103.160715,-0.689814]],[[103.162179,-0.724634],[103.164596,-0.720222],[103.164015,-0.721284],[103.162179,-0.724634]],[[103.158458,-0.730062],[103.159748,-0.728217],[103.162179,-0.724634],[103.158458,-0.730062]],[[103.166753,-0.704103],[103.167768,-0.694994],[103.166518,-0.705854],[103.164596,-0.720222],[103.166753,-0.704103]],[[103.148466,-0.730615],[103.15305,-0.72573],[103.149309,-0.729596],[103.148466,-0.730615]],[[103.148554,-0.723964],[103.140041,-0.736409],[103.144287,-0.730228],[103.148554,-0.723964]],[[103.149901,-0.71419],[103.151166,-0.704189],[103.148554,-0.723964],[103.149901,-0.71419]],[[103.14755,-0.731723],[103.144077,-0.736661],[103.14755,-0.731723],[103.14755,-0.731723]],[[103.148831,-0.739201],[103.147565,-0.741627],[103.151532,-0.734027],[103.148831,-0.739201]],[[103.117363,-0.705546],[103.118693,-0.702556],[103.115038,-0.71077],[103.117363,-0.705546]],[[103.126697,-0.717854],[103.121259,-0.716872],[103.121258,-0.716876],[103.121351,-0.716901],[103.126697,-0.717854]],[[103.122654,-0.707052],[103.123423,-0.70128],[103.122701,-0.706631],[103.122654,-0.707052]]]}}]}