{"type":"FeatureCollection","features":[{"type":"Feature","properties":{"kdkec":"1403071","nmkec":"KEMPAS","kddesa":"1403071006","nmdesa":"KARYA TANI"},"geometry":{"type":"Polygon","coordinates":[[[102.915903,-0.630229],[102.913102,-0.62478],[102.915957,-0.623423],[102.91108,-0.61462],[102.924592,-0.607658],[102.936977,-0.600484],[102.936944,-0.603203],[102.936978,-0.600484],[102.93651,-0.599644],[102.938415,-0.598727],[102.940041,-0.598481],[102.943796,-0.596394],[102.946714,-0.595006],[102.965272,-0.584272],[102.976364,-0.605274],[102.965315,-0.608653],[102.961451,-0.595891],[102.967054,-0.614568],[102.973224,-0.626258],[102.924587,-0.653399],[102.916345,-0.634462],[102.915903,-0.630229]],[[102.943005,-0.613849],[102.94262,-0.629961],[102.943008,-0.613887],[102.942899,-0.602978],[102.943005,-0.613849]],[[102.966524,-0.626336],[102.966206,-0.625714],[102.96595,-0.625226],[102.966524,-0.626336]],[[102.968251,-0.625392],[102.967512,-0.625796],[102.966524,-0.626336],[102.968251,-0.625392]],[[102.966931,-0.624707],[102.967653,-0.624326],[102.96595,-0.625226],[102.966931,-0.624707]]]}}]}