{"type":"FeatureCollection","features":[{"type":"Feature","properties":{"kdkec":"1403090","nmkec":"GAUNG ANAK SERKA","kddesa":"1403090011","nmdesa":"HARAPAN MAKMUR"},"geometry":{"type":"Polygon","coordinates":[[[103.227869,-0.162931],[103.228733,-0.185443],[103.211531,-0.185771],[103.211195,-0.182824],[103.212906,-0.163184],[103.212906,-0.160462],[103.212165,-0.146954],[103.211982,-0.132289],[103.216298,-0.132873],[103.222313,-0.13279],[103.224047,-0.139122],[103.226317,-0.142622],[103.227869,-0.162931]],[[103.218258,-0.14965],[103.218299,-0.148584],[103.218223,-0.150562],[103.218258,-0.14965]],[[103.224982,-0.147907],[103.224954,-0.14789],[103.224978,-0.148046],[103.224982,-0.147907]],[[103.22293,-0.147503],[103.223814,-0.146912],[103.222064,-0.147878],[103.22293,-0.147503]],[[103.220615,-0.148505],[103.21962,-0.148822],[103.220398,-0.148599],[103.220615,-0.148505]]]}}]}