{"type":"FeatureCollection","features":[{"type":"Feature","properties":{"kdkec":"1403122","nmkec":"TELUK BELENGKONG","kddesa":"1403122002","nmdesa":"TUNGGAL RAHAYU JAYA"},"geometry":{"type":"Polygon","coordinates":[[[103.437687,0.235776],[103.432001,0.233801],[103.426383,0.251027],[103.448168,0.258794],[103.462458,0.26415],[103.466891,0.26557],[103.473928,0.268145],[103.483812,0.27032],[103.481558,0.258488],[103.483302,0.255153],[103.489068,0.247175],[103.449966,0.233564],[103.447703,0.239585],[103.437687,0.235776]],[[103.458288,0.250392],[103.461359,0.251492],[103.461359,0.251492],[103.459021,0.250661],[103.457008,0.249925],[103.458288,0.250392]],[[103.462315,0.250499],[103.463338,0.250842],[103.461767,0.250317],[103.462315,0.250499]],[[103.462592,0.249725],[103.463642,0.250092],[103.464972,0.250579],[103.464972,0.250579],[103.462592,0.249725]],[[103.462026,0.249521],[103.46226,0.24889],[103.462559,0.248091],[103.462026,0.249521],[103.462026,0.249521]],[[103.460871,0.252864],[103.463741,0.253919],[103.458725,0.252138],[103.460871,0.252864]],[[103.461235,0.25185],[103.461182,0.252003],[103.460871,0.252864],[103.461235,0.25185]],[[103.464056,0.253054],[103.464178,0.252734],[103.463741,0.253919],[103.464056,0.253054]]]}}]}