{"type":"FeatureCollection","features":[{"type":"Feature","properties":{"kdkec":"1403110","nmkec":"MANDAH","kddesa":"1403110001","nmdesa":"PULAU CAWAN"},"geometry":{"type":"MultiPolygon","coordinates":[[[[103.589567,-0.121061],[103.589589,-0.120553],[103.593504,-0.118969],[103.597938,-0.116652],[103.599062,-0.116462],[103.599267,-0.116672],[103.598954,-0.117728],[103.597733,-0.119378],[103.596154,-0.120348],[103.590557,-0.121346],[103.589672,-0.121236],[103.589567,-0.121061]]],[[[103.547845,-0.119553],[103.53162,-0.122933],[103.519045,-0.119959],[103.504415,-0.118752],[103.505233,-0.113453],[103.50495,-0.111271],[103.504133,-0.109441],[103.5037,-0.108005],[103.504002,-0.106969],[103.505075,-0.106426],[103.508187,-0.106348],[103.510543,-0.106742],[103.512449,-0.106808],[103.519141,-0.104396],[103.518215,-0.101593],[103.514226,-0.094795],[103.518676,-0.092664],[103.5233,-0.089685],[103.531169,-0.086303],[103.536437,-0.084293],[103.540243,-0.083142],[103.542844,-0.080417],[103.548251,-0.078043],[103.554592,-0.076999],[103.559488,-0.077277],[103.565318,-0.07691],[103.570417,-0.075892],[103.578132,-0.073176],[103.580566,-0.073987],[103.581874,-0.07897],[103.58524,-0.084079],[103.586786,-0.08548],[103.591518,-0.088454],[103.593682,-0.090347],[103.593276,-0.093322],[103.591518,-0.094945],[103.590977,-0.097243],[103.585386,-0.10199],[103.560149,-0.114956],[103.547845,-0.119553]]],[[[103.514646,-0.105469],[103.51271,-0.106234],[103.507381,-0.105731],[103.504656,-0.105996],[103.503723,-0.106412],[103.503071,-0.10749],[103.50396,-0.110364],[103.504566,-0.113612],[103.503345,-0.119049],[103.503443,-0.119423],[103.503316,-0.119789],[103.502605,-0.120011],[103.497736,-0.119976],[103.494846,-0.119744],[103.492043,-0.118687],[103.482693,-0.11397],[103.479792,-0.111407],[103.474285,-0.108731],[103.473257,-0.107661],[103.472919,-0.106788],[103.473356,-0.105943],[103.475643,-0.105221],[103.480105,-0.104545],[103.483197,-0.102395],[103.48656,-0.099194],[103.488479,-0.096235],[103.489953,-0.090751],[103.491728,-0.08868],[103.499169,-0.086021],[103.501507,-0.086127],[103.503475,-0.086517],[103.505293,-0.088321],[103.507878,-0.091973],[103.510721,-0.093957],[103.513259,-0.094496],[103.515237,-0.097449],[103.518557,-0.103456],[103.518485,-0.104037],[103.517915,-0.104477],[103.514646,-0.105469]]]]}}]}