{"type":"FeatureCollection","features":[{"type":"Feature","properties":{"kdkec":"1403080","nmkec":"BATANG TUAKA","kddesa":"1403080006","nmdesa":"SUNGAI PIRING"},"geometry":{"type":"MultiPolygon","coordinates":[[[[103.23685,-0.237803],[103.229608,-0.227643],[103.228277,-0.221924],[103.221482,-0.21406],[103.21984,-0.212713],[103.223874,-0.209545],[103.258468,-0.227486],[103.262837,-0.222206],[103.261172,-0.219658],[103.259641,-0.218722],[103.267618,-0.210101],[103.269173,-0.211618],[103.275517,-0.216779],[103.284669,-0.215671],[103.284597,-0.215862],[103.286336,-0.215616],[103.286354,-0.215805],[103.287233,-0.216548],[103.289027,-0.216491],[103.290055,-0.21616],[103.290489,-0.216194],[103.290992,-0.216674],[103.291586,-0.216856],[103.293711,-0.220398],[103.29547,-0.226476],[103.295653,-0.227664],[103.29563,-0.228989],[103.294522,-0.237901],[103.292448,-0.241438],[103.288437,-0.240171],[103.281401,-0.238519],[103.280997,-0.238504],[103.279541,-0.238452],[103.279603,-0.237339],[103.279485,-0.23845],[103.276476,-0.238342],[103.274465,-0.238685],[103.274294,-0.236733],[103.274154,-0.235608],[103.275269,-0.235379],[103.272773,-0.235887],[103.272438,-0.233816],[103.273187,-0.238899],[103.270228,-0.239538],[103.269161,-0.240065],[103.257393,-0.250044],[103.253127,-0.2567],[103.247511,-0.262907],[103.23685,-0.237803]],[[103.294878,-0.230592],[103.294666,-0.230533],[103.295314,-0.23075],[103.294878,-0.230592]],[[103.286797,-0.236507],[103.286292,-0.23651],[103.294625,-0.236838],[103.286797,-0.236507]],[[103.281754,-0.236318],[103.281747,-0.236175],[103.281401,-0.238519],[103.281754,-0.236318]],[[103.281334,-0.235973],[103.281169,-0.237131],[103.280997,-0.238504],[103.281334,-0.235973]],[[103.281007,-0.23711],[103.279631,-0.237097],[103.279276,-0.237123],[103.281169,-0.237131],[103.281007,-0.23711]],[[103.272556,-0.228035],[103.265504,-0.221328],[103.264285,-0.22019],[103.272556,-0.228035]],[[103.274729,-0.231249],[103.273699,-0.229566],[103.272556,-0.228035],[103.274729,-0.231249]],[[103.278022,-0.235935],[103.278068,-0.236486],[103.278118,-0.234338],[103.278022,-0.235935]],[[103.278102,-0.236896],[103.279655,-0.236751],[103.279655,-0.236751],[103.278102,-0.236896],[103.278102,-0.236896]],[[103.275606,-0.23604],[103.27505,-0.236149],[103.275606,-0.23604],[103.275606,-0.23604]],[[103.275118,-0.236643],[103.275118,-0.236643],[103.27505,-0.236149],[103.275118,-0.236643]],[[103.24522,-0.236828],[103.245214,-0.236833],[103.251918,-0.231911],[103.24522,-0.236828]],[[103.266146,-0.224966],[103.266313,-0.225325],[103.266121,-0.224458],[103.266146,-0.224966]],[[103.279766,-0.235889],[103.279766,-0.235889],[103.280237,-0.235809],[103.279766,-0.235889]],[[103.280473,-0.230198],[103.281618,-0.225418],[103.281153,-0.227218],[103.280473,-0.230198]],[[103.287122,-0.228512],[103.289492,-0.2291],[103.287429,-0.228528],[103.287122,-0.228512]],[[103.281527,-0.23521],[103.281735,-0.235931],[103.281717,-0.235573],[103.281527,-0.23521]]],[[[103.274173,-0.238741],[103.273187,-0.238899],[103.272773,-0.235887],[103.274165,-0.235699],[103.274465,-0.238685],[103.274173,-0.238741]]]]}}]}