{"type":"FeatureCollection","features":[{"type":"Feature","properties":{"kdkec":"1403020","nmkec":"RETEH","kddesa":"1403020016","nmdesa":"MADANI"},"geometry":{"type":"Polygon","coordinates":[[[103.170624,-0.730755],[103.171804,-0.727968],[103.174274,-0.719336],[103.176104,-0.712937],[103.180109,-0.688107],[103.184519,-0.688681],[103.189206,-0.688732],[103.196295,-0.687973],[103.195598,-0.694161],[103.195615,-0.698236],[103.195119,-0.70726],[103.193467,-0.72167],[103.192567,-0.726482],[103.189282,-0.725824],[103.192566,-0.726482],[103.192069,-0.728541],[103.189265,-0.736229],[103.188948,-0.738883],[103.188911,-0.743173],[103.190371,-0.749703],[103.191191,-0.758818],[103.190701,-0.761166],[103.161494,-0.754977],[103.16712,-0.739035],[103.170624,-0.730755]],[[103.174998,-0.719463],[103.179256,-0.720046],[103.179256,-0.720045],[103.174274,-0.719336],[103.174998,-0.719463]],[[103.182396,-0.702885],[103.182641,-0.701528],[103.184519,-0.688681],[103.182396,-0.702885]],[[103.182895,-0.726481],[103.184822,-0.714793],[103.184822,-0.714793],[103.182895,-0.726481]],[[103.182718,-0.727323],[103.177566,-0.755777],[103.182895,-0.726481],[103.182718,-0.727323]]]}}]}