{"type":"FeatureCollection","features":[{"type":"Feature","properties":{"kdkec":"1403121","nmkec":"PELANGIRAN","kddesa":"1403121008","nmdesa":"WONOSARI"},"geometry":{"type":"MultiPolygon","coordinates":[[[[103.415743,0.161901],[103.407951,0.183307],[103.405826,0.189324],[103.40532,0.191345],[103.401019,0.203543],[103.404953,0.20482],[103.443976,0.218856],[103.449844,0.201992],[103.486103,0.214894],[103.467954,0.188553],[103.451455,0.182579],[103.454589,0.174371],[103.435578,0.167553],[103.434964,0.169074],[103.415743,0.161901]],[[103.433969,0.192855],[103.434236,0.192094],[103.43191,0.19873],[103.433969,0.192855]],[[103.434868,0.180666],[103.454644,0.188256],[103.454644,0.188256],[103.437829,0.181841],[103.434868,0.180666]],[[103.429324,0.204449],[103.431752,0.2053],[103.433658,0.205999],[103.429061,0.204357],[103.429324,0.204449]],[[103.431877,0.200586],[103.431324,0.200388],[103.435204,0.201752],[103.433015,0.20099],[103.431877,0.200586]],[[103.451064,0.198213],[103.45307,0.192634],[103.453835,0.190507],[103.451064,0.198213]]],[[[103.451455,0.182579],[103.467954,0.188553],[103.459783,0.176694],[103.456048,0.174894],[103.454589,0.174371],[103.451455,0.182579]]]]}}]}