{"type":"FeatureCollection","features":[{"type":"Feature","properties":{"kdkec":"1403050","nmkec":"KUALA INDRAGIRI","kddesa":"1403050009","nmdesa":"SAPAT"},"geometry":{"type":"MultiPolygon","coordinates":[[[[103.325543,-0.353531],[103.325415,-0.355584],[103.324166,-0.357388],[103.318774,-0.360659],[103.315996,-0.362039],[103.314347,-0.363181],[103.313994,-0.364336],[103.313714,-0.364248],[103.313062,-0.365454],[103.312371,-0.367267],[103.311272,-0.371484],[103.309974,-0.373269],[103.307368,-0.37752],[103.290586,-0.374416],[103.290339,-0.370945],[103.287506,-0.369812],[103.28849,-0.358819],[103.276218,-0.355446],[103.278453,-0.338252],[103.283381,-0.327759],[103.292362,-0.333113],[103.300665,-0.337476],[103.314416,-0.344153],[103.318451,-0.346398],[103.325543,-0.353531]]],[[[103.311594,-0.325989],[103.304714,-0.322891],[103.297682,-0.320754],[103.302499,-0.31249],[103.304403,-0.313198],[103.308882,-0.303533],[103.313891,-0.30792],[103.319309,-0.309322],[103.336993,-0.308303],[103.346432,-0.303402],[103.350334,-0.299681],[103.352333,-0.298443],[103.356778,-0.295688],[103.360318,-0.290787],[103.363838,-0.287647],[103.367797,-0.291127],[103.376739,-0.295871],[103.381041,-0.297861],[103.387611,-0.295573],[103.390648,-0.294275],[103.393617,-0.293627],[103.403691,-0.293967],[103.407765,-0.295496],[103.414139,-0.300425],[103.418299,-0.303079],[103.424819,-0.304536],[103.430221,-0.303566],[103.436954,-0.303109],[103.44008,-0.303678],[103.443581,-0.305452],[103.452586,-0.311546],[103.456792,-0.313868],[103.458765,-0.314058],[103.458842,-0.321974],[103.456766,-0.329839],[103.452179,-0.340542],[103.447559,-0.348129],[103.436394,-0.357238],[103.424452,-0.360084],[103.406808,-0.359217],[103.399337,-0.359223],[103.37605,-0.360034],[103.368298,-0.359314],[103.363594,-0.358498],[103.351629,-0.354727],[103.340965,-0.350011],[103.335465,-0.346201],[103.324782,-0.334669],[103.321206,-0.331694],[103.311594,-0.325989]],[[103.358968,-0.307381],[103.35914,-0.307593],[103.352333,-0.298443],[103.358968,-0.307381]],[[103.313012,-0.325665],[103.312904,-0.325881],[103.313054,-0.325686],[103.313012,-0.325665]],[[103.308483,-0.321972],[103.309077,-0.320606],[103.310877,-0.316455],[103.308483,-0.321972]],[[103.311967,-0.323473],[103.312042,-0.323504],[103.312476,-0.322257],[103.311967,-0.323473]],[[103.312401,-0.325709],[103.31297,-0.324716],[103.312797,-0.324998],[103.312401,-0.325709]],[[103.314128,-0.32529],[103.314128,-0.32529],[103.31297,-0.324716],[103.314128,-0.32529]],[[103.314408,-0.325098],[103.31425,-0.325037],[103.315,-0.325465],[103.314408,-0.325098]],[[103.31463,-0.324653],[103.31506,-0.323786],[103.314408,-0.325098],[103.31463,-0.324653]],[[103.315786,-0.325143],[103.315966,-0.325207],[103.31463,-0.324653],[103.315786,-0.325143]]]]}}]}