{"type":"FeatureCollection","features":[{"type":"Feature","properties":{"kdkec":"1403011","nmkec":"KEMUNING","kddesa":"1403011009","nmdesa":"LIMAU MANIS","idsubsls":"1403011009000500","kdsubsls":"00"},"geometry":{"type":"Polygon","coordinates":[[[102.796921,-0.842924],[102.797668,-0.843635],[102.797351,-0.844523],[102.800046,-0.847443],[102.810597,-0.856835],[102.812629,-0.85825],[102.818679,-0.863638],[102.823094,-0.866265],[102.821657,-0.867853],[102.821719,-0.86805],[102.821549,-0.868244],[102.820458,-0.867956],[102.820366,-0.868721],[102.820053,-0.869016],[102.81519,-0.865479],[102.794945,-0.846184],[102.795528,-0.843994],[102.796921,-0.842924]]]}}]}