{"type":"FeatureCollection","features":[{"type":"Feature","properties":{"kdkec":"1403021","nmkec":"SUNGAI BATANG","kddesa":"1403021006","nmdesa":"BENTENG UTARA","idsubsls":"1403021006001400","kdsubsls":"00"},"geometry":{"type":"Polygon","coordinates":[[[103.238783,-0.627202],[103.238605,-0.628],[103.238052,-0.62771],[103.237838,-0.628374],[103.238151,-0.628394],[103.23785,-0.630855],[103.236701,-0.630702],[103.234972,-0.630943],[103.233869,-0.629502],[103.230664,-0.626305],[103.232191,-0.625414],[103.232139,-0.625275],[103.234857,-0.622629],[103.237516,-0.625651],[103.237839,-0.626259],[103.238783,-0.627202]]]}}]}