{"type":"FeatureCollection","features":[{"type":"Feature","properties":{"kdkec":"1403060","nmkec":"TEMBILAHAN","kddesa":"1403060005","nmdesa":"PEKAN ARBA","idsubsls":"1403060005000902","kdsubsls":"02"},"geometry":{"type":"Polygon","coordinates":[[[103.149061,-0.315402],[103.148815,-0.315574],[103.14841,-0.315071],[103.148664,-0.314824],[103.148006,-0.313961],[103.149715,-0.312249],[103.150491,-0.31315],[103.151104,-0.312823],[103.151257,-0.31308],[103.150751,-0.313439],[103.150887,-0.313617],[103.149061,-0.315402]]]}}]}