{"type":"FeatureCollection","features":[{"type":"Feature","properties":{"kdkec":"1403121","nmkec":"PELANGIRAN","kddesa":"1403121003","nmdesa":"PELANGIRAN","idsubsls":"1403121003002900","kdsubsls":"00"},"geometry":{"type":"Polygon","coordinates":[[[103.481348,0.167682],[103.483224,0.1661],[103.485586,0.164972],[103.483464,0.159794],[103.482012,0.15797],[103.480621,0.156888],[103.479016,0.156477],[103.476729,0.156574],[103.476788,0.159588],[103.46702,0.169242],[103.457909,0.175791],[103.459783,0.176694],[103.463049,0.181433],[103.481348,0.167682]]]}}]}