{"type":"FeatureCollection","features":[{"type":"Feature","properties":{"kdkec":"1403021","nmkec":"SUNGAI BATANG","kddesa":"1403021001","nmdesa":"KUALA PATAH PARANG","idsubsls":"1403021001200100","kdsubsls":"00"},"geometry":{"type":"Polygon","coordinates":[[[103.434844,-0.612622],[103.432003,-0.613075],[103.423996,-0.615736],[103.410143,-0.621197],[103.39549,-0.626392],[103.366053,-0.63465],[103.356196,-0.634917],[103.347671,-0.633718],[103.34181,-0.634117],[103.33848,-0.636648],[103.336709,-0.637677],[103.335312,-0.638991],[103.335495,-0.635965],[103.335911,-0.634767],[103.33838,-0.631108],[103.340717,-0.62898],[103.342617,-0.627537],[103.344546,-0.626722],[103.347091,-0.626999],[103.34882,-0.627736],[103.351089,-0.628271],[103.354026,-0.627853],[103.355862,-0.627239],[103.359264,-0.624959],[103.361776,-0.621101],[103.362973,-0.619538],[103.364338,-0.618615],[103.370905,-0.61323],[103.3736,-0.611405],[103.376108,-0.610859],[103.384028,-0.611655],[103.386855,-0.611645],[103.392012,-0.610946],[103.400661,-0.607451],[103.403807,-0.605704],[103.409137,-0.604393],[103.412719,-0.604393],[103.419622,-0.60317],[103.424255,-0.602685],[103.428579,-0.601493],[103.430441,-0.601456],[103.431335,-0.601612],[103.431969,-0.601935],[103.433627,-0.604189],[103.434438,-0.606689],[103.434861,-0.609703],[103.434844,-0.612622]]]}}]}