{"type":"FeatureCollection","features":[{"type":"Feature","properties":{"kdkec":"1403021","nmkec":"SUNGAI BATANG","kddesa":"1403021001","nmdesa":"KUALA PATAH PARANG","idsubsls":"1403021001200200","kdsubsls":"00"},"geometry":{"type":"Polygon","coordinates":[[[103.437555,-0.536284],[103.438274,-0.549954],[103.435239,-0.581333],[103.43265,-0.5905],[103.427906,-0.598211],[103.4267,-0.599333],[103.422711,-0.600318],[103.421046,-0.600455],[103.413262,-0.602035],[103.409531,-0.602548],[103.408919,-0.600427],[103.408456,-0.60058],[103.408676,-0.601326],[103.40635,-0.601937],[103.406444,-0.602236],[103.405212,-0.602717],[103.404773,-0.601898],[103.401789,-0.603251],[103.401728,-0.603132],[103.40033,-0.60373],[103.40063,-0.604378],[103.398976,-0.604996],[103.399502,-0.606408],[103.39813,-0.607237],[103.390981,-0.609969],[103.387986,-0.610577],[103.384028,-0.610634],[103.380187,-0.609835],[103.376342,-0.609778],[103.373715,-0.610626],[103.372401,-0.611242],[103.369166,-0.613537],[103.368815,-0.613044],[103.366121,-0.611323],[103.362283,-0.608107],[103.358134,-0.603232],[103.356163,-0.598253],[103.35523,-0.588088],[103.353343,-0.571769],[103.365189,-0.567707],[103.366713,-0.567007],[103.360818,-0.559903],[103.366594,-0.556343],[103.373474,-0.549882],[103.379232,-0.543803],[103.379724,-0.544319],[103.382363,-0.545189],[103.383191,-0.545952],[103.383692,-0.546758],[103.383953,-0.547586],[103.385065,-0.548698],[103.386481,-0.550746],[103.38689,-0.55273],[103.385936,-0.553754],[103.387767,-0.581734],[103.400755,-0.581037],[103.399722,-0.545284],[103.391842,-0.546017],[103.391842,-0.545802],[103.397729,-0.538927],[103.408886,-0.527848],[103.420839,-0.529947],[103.423441,-0.530145],[103.424169,-0.530448],[103.429641,-0.530477],[103.43406,-0.531454],[103.436681,-0.533304],[103.437555,-0.536284]]]}}]}