{"type":"FeatureCollection","features":[{"type":"Feature","properties":{"kdkec":"1403010","nmkec":"KERITANG","kddesa":"1403010004","nmdesa":"NUSANTARA JAYA","idsubsls":"1403010004001100","kdsubsls":"00"},"geometry":{"type":"Polygon","coordinates":[[[102.954734,-0.712066],[102.952945,-0.714139],[102.951065,-0.714942],[102.947847,-0.709699],[102.938854,-0.695763],[102.936751,-0.686144],[102.93438,-0.679298],[102.933815,-0.674601],[102.936512,-0.673902],[102.938367,-0.685109],[102.940873,-0.694348],[102.945213,-0.700813],[102.949071,-0.706003],[102.951278,-0.708184],[102.954734,-0.712066]]]}}]}