{"type":"FeatureCollection","features":[{"type":"Feature","properties":{"kdkec":"1403010","nmkec":"KERITANG","kddesa":"1403010004","nmdesa":"NUSANTARA JAYA","idsubsls":"1403010004002300","kdsubsls":"00"},"geometry":{"type":"Polygon","coordinates":[[[102.935897,-0.726942],[102.934993,-0.729367],[102.932721,-0.732977],[102.931238,-0.731743],[102.925741,-0.725602],[102.922407,-0.720597],[102.912939,-0.697331],[102.912018,-0.69474],[102.918399,-0.695606],[102.925898,-0.718872],[102.935897,-0.726942]]]}}]}