{"type":"FeatureCollection","features":[{"type":"Feature","properties":{"kdkec":"1403010","nmkec":"KERITANG","kddesa":"1403010004","nmdesa":"NUSANTARA JAYA","idsubsls":"1403010004001000","kdsubsls":"00"},"geometry":{"type":"Polygon","coordinates":[[[102.959523,-0.707256],[102.959492,-0.707271],[102.959496,-0.707279],[102.958208,-0.707888],[102.956332,-0.709811],[102.954719,-0.706662],[102.951826,-0.69885],[102.947821,-0.692072],[102.941468,-0.680484],[102.940708,-0.678627],[102.94073,-0.674779],[102.940506,-0.673862],[102.940019,-0.672992],[102.941774,-0.672538],[102.940988,-0.669188],[102.943332,-0.668596],[102.946091,-0.67955],[102.950923,-0.685925],[102.954815,-0.694113],[102.95845,-0.70503],[102.958821,-0.705826],[102.959523,-0.707256]]]}}]}