{"type":"FeatureCollection","features":[{"type":"Feature","properties":{"kdkec":"1403010","nmkec":"KERITANG","kddesa":"1403010004","nmdesa":"NUSANTARA JAYA","idsubsls":"1403010004001200","kdsubsls":"00"},"geometry":{"type":"Polygon","coordinates":[[[102.956332,-0.709811],[102.954734,-0.712066],[102.951278,-0.708184],[102.949071,-0.706003],[102.945213,-0.700813],[102.940873,-0.694348],[102.938367,-0.685109],[102.936512,-0.673902],[102.940019,-0.672992],[102.940506,-0.673862],[102.94073,-0.674779],[102.940708,-0.678627],[102.941468,-0.680484],[102.947821,-0.692072],[102.951826,-0.69885],[102.954719,-0.706662],[102.956332,-0.709811]]]}}]}