{"type":"FeatureCollection","features":[{"type":"Feature","properties":{"kdkec":"1403120","nmkec":"KATEMAN","kddesa":"1403120007","nmdesa":"TANJUNG RAJA","idsubsls":"1403120007001100","kdsubsls":"00"},"geometry":{"type":"Polygon","coordinates":[[[103.557887,0.279364],[103.560345,0.280126],[103.562444,0.281792],[103.563494,0.284385],[103.563988,0.287596],[103.563803,0.290991],[103.563988,0.294325],[103.564852,0.296486],[103.56726,0.297659],[103.570841,0.298029],[103.569617,0.265302],[103.561479,0.266039],[103.561031,0.26577],[103.557887,0.279364]]]}}]}