{"type":"FeatureCollection","features":[{"type":"Feature","properties":{"kdkec":"1403110","nmkec":"MANDAH","kddesa":"1403110012","nmdesa":"BATANG SARI","idsubsls":"1403110012000700","kdsubsls":"00"},"geometry":{"type":"Polygon","coordinates":[[[103.697512,0.023532],[103.699747,0.017953],[103.685061,0.017034],[103.684505,0.015854],[103.684166,0.016177],[103.6832,0.016278],[103.682106,0.016733],[103.681489,0.017242],[103.680919,0.017475],[103.678829,0.018077],[103.679068,0.020003],[103.672265,0.020908],[103.675395,0.033297],[103.684278,0.033051],[103.684269,0.032854],[103.695317,0.033423],[103.697512,0.023532]]]}}]}