{"type":"FeatureCollection","features":[{"type":"Feature","properties":{"kdkec":"1403110","nmkec":"MANDAH","kddesa":"1403110012","nmdesa":"BATANG SARI","idsubsls":"1403110012200100","kdsubsls":"00"},"geometry":{"type":"Polygon","coordinates":[[[103.700456,0.012139],[103.700529,0.007299],[103.705096,-0.024011],[103.695242,-0.024256],[103.693067,-0.024915],[103.690945,-0.025229],[103.686943,-0.027991],[103.681351,-0.027542],[103.677197,-0.028228],[103.67363,-0.025921],[103.667463,-0.02133],[103.667151,-0.01979],[103.666416,-0.018952],[103.664068,-0.017278],[103.662772,-0.015471],[103.661669,-0.014501],[103.661577,-0.013664],[103.661924,-0.013082],[103.662567,-0.012541],[103.663211,-0.01153],[103.663507,-0.010224],[103.663925,-0.009734],[103.664773,-0.008121],[103.665293,-0.005967],[103.666151,-0.005119],[103.665523,-0.003366],[103.666648,0.003204],[103.674305,0.003586],[103.689583,0.009933],[103.698639,0.012164],[103.700456,0.012139]]]}}]}