{"type":"FeatureCollection","features":[{"type":"Feature","properties":{"kdkec":"1403070","nmkec":"TEMPULING","kddesa":"1403070012","nmdesa":"MUMPA","idsubsls":"1403070012000300","kdsubsls":"00"},"geometry":{"type":"Polygon","coordinates":[[[102.918128,-0.508519],[102.914942,-0.509666],[102.914964,-0.508373],[102.914673,-0.507934],[102.914686,-0.507436],[102.912224,-0.498981],[102.913458,-0.496325],[102.913901,-0.494434],[102.913901,-0.493841],[102.914838,-0.494749],[102.915852,-0.496746],[102.919011,-0.501091],[102.919644,-0.503118],[102.920604,-0.507311],[102.91914,-0.507755],[102.919257,-0.508169],[102.918128,-0.508519]]]}}]}