{"type":"FeatureCollection","features":[{"type":"Feature","properties":{"kdkec":"1403020","nmkec":"RETEH","kddesa":"1403020012","nmdesa":"SEBERANG PULAU KIJANG","idsubsls":"1403020012100300","kdsubsls":"00"},"geometry":{"type":"Polygon","coordinates":[[[103.286301,-0.669594],[103.272509,-0.672516],[103.259293,-0.677758],[103.25416,-0.678741],[103.241818,-0.679069],[103.240569,-0.679375],[103.240521,-0.675481],[103.241567,-0.659355],[103.248476,-0.659072],[103.263136,-0.657498],[103.279527,-0.657191],[103.284692,-0.656862],[103.286301,-0.669594]]]}}]}