{"type":"FeatureCollection","features":[{"type":"Feature","properties":{"kdkec":"1403020","nmkec":"RETEH","kddesa":"1403020012","nmdesa":"SEBERANG PULAU KIJANG","idsubsls":"1403020012100200","kdsubsls":"00"},"geometry":{"type":"Polygon","coordinates":[[[103.237007,-0.678937],[103.236899,-0.680277],[103.235592,-0.680598],[103.230568,-0.682783],[103.230366,-0.6831],[103.21873,-0.681418],[103.218818,-0.672775],[103.219039,-0.670812],[103.219663,-0.668134],[103.220833,-0.661541],[103.22069,-0.660371],[103.220326,-0.659629],[103.238575,-0.659508],[103.237007,-0.678937]]]}}]}