{"type":"FeatureCollection","features":[{"type":"Feature","properties":{"kdkec":"1403100","nmkec":"GAUNG","kddesa":"1403100003","nmdesa":"PUNGKAT","idsubsls":"1403100003000100","kdsubsls":"00"},"geometry":{"type":"Polygon","coordinates":[[[103.171305,-0.078779],[103.173209,-0.099898],[103.173679,-0.103747],[103.171208,-0.103727],[103.169313,-0.103122],[103.167299,-0.101684],[103.16545,-0.099677],[103.162452,-0.095331],[103.158371,-0.091583],[103.163377,-0.084164],[103.167103,-0.078044],[103.171305,-0.078779]]]}}]}