{"type":"FeatureCollection","features":[{"type":"Feature","properties":{"kdkec":"1403051","nmkec":"CONCONG","kddesa":"1403051003","nmdesa":"CONCONG TENGAH","idsubsls":"1403051003001000","kdsubsls":"00"},"geometry":{"type":"Polygon","coordinates":[[[103.527995,-0.269531],[103.526898,-0.27002],[103.527001,-0.270269],[103.525792,-0.270872],[103.526014,-0.271262],[103.524569,-0.272037],[103.524409,-0.271729],[103.522366,-0.272907],[103.521867,-0.272092],[103.525172,-0.270234],[103.524977,-0.269813],[103.525874,-0.269326],[103.526128,-0.26976],[103.527745,-0.269004],[103.527995,-0.269531]]]}}]}