{"type":"FeatureCollection","features":[{"type":"Feature","properties":{"kdkec":"1403051","nmkec":"CONCONG","kddesa":"1403051003","nmdesa":"CONCONG TENGAH","idsubsls":"1403051003100100","kdsubsls":"00"},"geometry":{"type":"Polygon","coordinates":[[[103.534755,-0.260158],[103.538332,-0.2651],[103.537322,-0.26596],[103.535755,-0.263752],[103.528134,-0.268322],[103.528293,-0.26874],[103.526128,-0.26976],[103.525874,-0.269326],[103.524977,-0.269813],[103.525172,-0.270234],[103.521867,-0.272092],[103.522366,-0.272907],[103.524409,-0.271729],[103.524569,-0.272037],[103.526014,-0.271262],[103.526369,-0.271931],[103.523532,-0.273857],[103.519584,-0.278143],[103.517876,-0.279661],[103.508151,-0.271582],[103.520817,-0.254626],[103.525617,-0.247498],[103.526876,-0.249053],[103.534755,-0.260158]]]}}]}