{"type":"FeatureCollection","features":[{"type":"Feature","properties":{"kdkec":"1403010","nmkec":"KERITANG","kddesa":"1403010009","nmdesa":"KUALA LEMANG","idsubsls":"1403010009001900","kdsubsls":"00"},"geometry":{"type":"Polygon","coordinates":[[[102.854677,-0.716323],[102.851965,-0.714726],[102.850787,-0.713689],[102.851983,-0.712113],[102.854452,-0.708106],[102.855766,-0.701662],[102.860641,-0.671113],[102.861379,-0.663732],[102.862484,-0.650816],[102.861116,-0.64661],[102.863099,-0.645443],[102.866131,-0.650616],[102.864526,-0.658462],[102.864448,-0.677276],[102.863606,-0.682857],[102.862998,-0.690833],[102.858936,-0.705862],[102.855604,-0.714437],[102.854677,-0.716323]]]}}]}