{"type":"FeatureCollection","features":[{"type":"Feature","properties":{"kdkec":"1403010","nmkec":"KERITANG","kddesa":"1403010009","nmdesa":"KUALA LEMANG","idsubsls":"1403010009001800","kdsubsls":"00"},"geometry":{"type":"Polygon","coordinates":[[[102.850787,-0.713689],[102.849597,-0.712642],[102.848028,-0.710082],[102.849745,-0.708799],[102.852225,-0.706403],[102.852212,-0.701794],[102.852393,-0.697624],[102.851772,-0.691306],[102.852212,-0.682345],[102.85576,-0.672194],[102.855811,-0.667662],[102.854097,-0.664392],[102.857735,-0.661835],[102.861116,-0.64661],[102.862484,-0.650816],[102.860641,-0.671113],[102.855766,-0.701662],[102.854452,-0.708106],[102.851983,-0.712113],[102.850787,-0.713689]]]}}]}