{"type":"FeatureCollection","features":[{"type":"Feature","properties":{"kdkec":"1403010","nmkec":"KERITANG","kddesa":"1403010009","nmdesa":"KUALA LEMANG","idsubsls":"1403010009002000","kdsubsls":"00"},"geometry":{"type":"Polygon","coordinates":[[[102.856134,-0.718578],[102.854677,-0.716323],[102.855604,-0.714437],[102.858936,-0.705862],[102.862998,-0.690833],[102.863606,-0.682857],[102.864448,-0.677276],[102.864526,-0.658462],[102.866131,-0.650616],[102.863099,-0.645443],[102.866334,-0.643538],[102.869123,-0.649136],[102.869097,-0.655765],[102.869459,-0.672598],[102.871376,-0.691114],[102.871376,-0.696681],[102.869631,-0.699703],[102.868242,-0.70344],[102.866559,-0.70928],[102.864992,-0.711947],[102.86226,-0.714356],[102.858388,-0.716861],[102.856134,-0.718578]]]}}]}