{"type":"FeatureCollection","features":[{"type":"Feature","properties":{"kdkec":"1403010","nmkec":"KERITANG","kddesa":"1403010009","nmdesa":"KUALA LEMANG","idsubsls":"1403010009100100","kdsubsls":"00"},"geometry":{"type":"Polygon","coordinates":[[[102.833939,-0.706092],[102.830216,-0.70603],[102.830822,-0.703079],[102.831313,-0.696497],[102.831995,-0.679174],[102.835324,-0.671154],[102.836809,-0.671588],[102.83699,-0.673529],[102.835366,-0.68532],[102.835056,-0.691535],[102.835237,-0.696404],[102.834369,-0.703797],[102.833939,-0.706092]]]}}]}