{"type":"FeatureCollection","features":[{"type":"Feature","properties":{"kdkec":"1403010","nmkec":"KERITANG","kddesa":"1403010009","nmdesa":"KUALA LEMANG","idsubsls":"1403010009001500","kdsubsls":"00"},"geometry":{"type":"Polygon","coordinates":[[[102.859621,-0.721559],[102.859365,-0.721116],[102.858223,-0.721748],[102.8575,-0.720654],[102.860935,-0.718622],[102.862116,-0.721302],[102.860953,-0.721864],[102.860749,-0.721464],[102.860285,-0.721673],[102.860106,-0.721313],[102.859621,-0.721559]]]}}]}