{"type":"FeatureCollection","features":[{"type":"Feature","properties":{"kdkec":"1403010","nmkec":"KERITANG","kddesa":"1403010009","nmdesa":"KUALA LEMANG","idsubsls":"1403010009000800","kdsubsls":"00"},"geometry":{"type":"Polygon","coordinates":[[[102.880543,-0.639308],[102.880947,-0.699938],[102.880475,-0.703731],[102.87947,-0.709069],[102.87808,-0.71364],[102.876566,-0.717603],[102.871981,-0.722781],[102.865855,-0.725695],[102.864605,-0.721346],[102.870495,-0.717476],[102.874276,-0.712996],[102.875763,-0.708073],[102.876886,-0.705335],[102.877916,-0.695178],[102.878103,-0.688297],[102.876559,-0.67257],[102.875529,-0.658997],[102.875155,-0.650197],[102.874265,-0.641304],[102.869961,-0.641403],[102.876323,-0.637658],[102.880523,-0.636426],[102.880543,-0.639308]]]}}]}