{"type":"FeatureCollection","features":[{"type":"Feature","properties":{"kdkec":"1403110","nmkec":"MANDAH","kddesa":"1403110008","nmdesa":"BELARAS","idsubsls":"1403110008000500","kdsubsls":"00"},"geometry":{"type":"Polygon","coordinates":[[[103.592185,0.032306],[103.596538,0.026477],[103.600657,0.023055],[103.602696,0.021868],[103.602958,0.022443],[103.604168,0.021563],[103.604306,0.019497],[103.604995,0.017431],[103.605959,0.016191],[103.608163,0.015089],[103.611912,0.014011],[103.611363,0.013439],[103.611552,0.012755],[103.612064,0.012054],[103.62086,0.004897],[103.62403,0.001193],[103.626446,-0.000608],[103.626898,-0.001525],[103.627103,-0.002775],[103.626901,-0.004544],[103.626912,-0.006805],[103.629906,-0.007947],[103.628633,-0.010053],[103.628524,-0.010706],[103.627048,-0.010941],[103.624723,-0.011986],[103.624115,-0.012921],[103.618729,-0.009182],[103.614574,-0.006608],[103.613781,-0.007046],[103.609115,-0.004242],[103.606536,-0.001312],[103.603256,0.00297],[103.591161,0.008929],[103.589183,0.010657],[103.588182,0.012861],[103.586754,0.015214],[103.584851,0.016366],[103.583649,0.018394],[103.581346,0.018945],[103.579543,0.019947],[103.57764,0.02165],[103.575987,0.022201],[103.574284,0.023002],[103.574444,0.024512],[103.575434,0.027086],[103.573351,0.038504],[103.576346,0.03754],[103.578963,0.037677],[103.580891,0.03754],[103.582682,0.037953],[103.584748,0.038779],[103.585987,0.038779],[103.588053,0.036989],[103.589844,0.036713],[103.591084,0.03506],[103.592185,0.032306]]]}}]}