{"type":"FeatureCollection","features":[{"type":"Feature","properties":{"kdkec":"1403121","nmkec":"PELANGIRAN","kddesa":"1403121014","nmdesa":"TELUK BUNIAN","idsubsls":"1403121014001100","kdsubsls":"00"},"geometry":{"type":"Polygon","coordinates":[[[103.451361,0.142877],[103.451443,0.142619],[103.451272,0.142557],[103.451587,0.141643],[103.450659,0.141023],[103.450223,0.140173],[103.449972,0.138501],[103.447142,0.142848],[103.447067,0.144968],[103.447641,0.155882],[103.448164,0.172074],[103.451463,0.17325],[103.452209,0.144338],[103.451296,0.143989],[103.45145,0.143086],[103.451313,0.143042],[103.451361,0.142877]]]}}]}