{"type":"FeatureCollection","features":[{"type":"Feature","properties":{"kdkec":"1403011","nmkec":"KEMUNING","kddesa":"1403011008","nmdesa":"SEKARA","idsubsls":"1403011008001200","kdsubsls":"00"},"geometry":{"type":"Polygon","coordinates":[[[102.790472,-0.847849],[102.790672,-0.848168],[102.791583,-0.847675],[102.792753,-0.846604],[102.794524,-0.847765],[102.793284,-0.852422],[102.791596,-0.855884],[102.778672,-0.864451],[102.761194,-0.886843],[102.7559,-0.885187],[102.749748,-0.888809],[102.747162,-0.880199],[102.755713,-0.870825],[102.756946,-0.869011],[102.766284,-0.860842],[102.787829,-0.850306],[102.787393,-0.849711],[102.790472,-0.847849]]]}}]}