{"type":"FeatureCollection","features":[{"type":"Feature","properties":{"kdkec":"1403011","nmkec":"KEMUNING","kddesa":"1403011008","nmdesa":"SEKARA","idsubsls":"1403011008001600","kdsubsls":"00"},"geometry":{"type":"Polygon","coordinates":[[[102.765011,-0.834973],[102.764382,-0.8365],[102.766667,-0.837454],[102.76351,-0.84531],[102.757128,-0.847279],[102.751782,-0.844224],[102.75176,-0.841417],[102.751951,-0.840601],[102.752884,-0.840579],[102.752737,-0.838933],[102.754402,-0.836644],[102.754974,-0.835545],[102.75517,-0.834747],[102.757187,-0.834958],[102.761371,-0.834476],[102.765011,-0.834973]]]}}]}