{"type":"FeatureCollection","features":[{"type":"Feature","properties":{"kdkec":"1403011","nmkec":"KEMUNING","kddesa":"1403011008","nmdesa":"SEKARA","idsubsls":"1403011008001500","kdsubsls":"00"},"geometry":{"type":"Polygon","coordinates":[[[102.806963,-0.823789],[102.806402,-0.824778],[102.793373,-0.821298],[102.789661,-0.820453],[102.78452,-0.819758],[102.798376,-0.782445],[102.805282,-0.78638],[102.813079,-0.79281],[102.81142,-0.805122],[102.817331,-0.807103],[102.811655,-0.815511],[102.806963,-0.823789]]]}}]}