{"type":"FeatureCollection","features":[{"type":"Feature","properties":{"kdkec":"1403122","nmkec":"TELUK BELENGKONG","kddesa":"1403122011","nmdesa":"SAPTA MULYA JAYA","idsubsls":"1403122011100100","kdsubsls":"00"},"geometry":{"type":"Polygon","coordinates":[[[103.229542,0.322844],[103.205089,0.294717],[103.191662,0.30644],[103.190385,0.304961],[103.186798,0.308012],[103.188072,0.309473],[103.181412,0.315097],[103.210862,0.349785],[103.237923,0.325916],[103.232903,0.320215],[103.229542,0.322844]],[[103.204431,0.328328],[103.201165,0.324568],[103.203727,0.322238],[103.208307,0.327436],[103.205637,0.329719],[103.204431,0.328328]]]}}]}