{"type":"FeatureCollection","features":[{"type":"Feature","properties":{"kdkec":"1403061","nmkec":"TEMBILAHAN HULU","kddesa":"1403061004","nmdesa":"PEKAN KAMIS","idsubsls":"1403061004000300","kdsubsls":"00"},"geometry":{"type":"Polygon","coordinates":[[[103.098103,-0.340147],[103.099289,-0.337129],[103.10051,-0.331396],[103.103795,-0.335726],[103.109596,-0.342601],[103.108486,-0.346713],[103.107493,-0.34836],[103.101403,-0.353895],[103.099748,-0.35159],[103.101231,-0.348436],[103.097253,-0.344529],[103.096451,-0.343997],[103.098103,-0.340147]]]}}]}