{"type":"FeatureCollection","features":[{"type":"Feature","properties":{"kdkec":"1403020","nmkec":"RETEH","kddesa":"1403020018","nmdesa":"SUNGAI MAHANG","idsubsls":"1403020018000600","kdsubsls":"00"},"geometry":{"type":"Polygon","coordinates":[[[103.376565,-0.792817],[103.369074,-0.793646],[103.367527,-0.79417],[103.366589,-0.789746],[103.366161,-0.788557],[103.366209,-0.787177],[103.366603,-0.786336],[103.37357,-0.784347],[103.375033,-0.78977],[103.376245,-0.791613],[103.376565,-0.792817]]]}}]}