{"type":"FeatureCollection","features":[{"type":"Feature","properties":{"kdkec":"1403030","nmkec":"ENOK","kddesa":"1403030003","nmdesa":"SUNGAI RUKAM","idsubsls":"1403030003001600","kdsubsls":"00"},"geometry":{"type":"Polygon","coordinates":[[[103.047707,-0.51175],[103.047762,-0.546321],[103.047235,-0.549279],[103.047461,-0.555922],[103.044656,-0.587684],[103.041001,-0.586686],[103.035351,-0.586322],[103.039049,-0.565902],[103.043656,-0.524372],[103.043355,-0.517906],[103.04222,-0.501763],[103.044005,-0.501689],[103.047608,-0.501174],[103.047532,-0.505681],[103.047707,-0.51175]]]}}]}