{"type":"FeatureCollection","features":[{"type":"Feature","properties":{"kdkec":"1403040","nmkec":"TANAH MERAH","kddesa":"1403040009","nmdesa":"TEKULAI HILIR","idsubsls":"1403040009000400","kdsubsls":"00"},"geometry":{"type":"Polygon","coordinates":[[[103.307368,-0.37752],[103.30603,-0.37976],[103.305322,-0.381565],[103.305163,-0.383323],[103.305459,-0.385425],[103.306853,-0.387709],[103.308627,-0.389986],[103.308484,-0.39021],[103.307645,-0.390443],[103.306883,-0.390096],[103.304916,-0.386583],[103.30433,-0.386356],[103.303803,-0.386464],[103.303353,-0.386781],[103.303215,-0.387423],[103.303797,-0.389065],[103.303815,-0.389568],[103.303629,-0.389928],[103.302838,-0.390659],[103.302178,-0.390959],[103.301543,-0.390767],[103.30089,-0.389526],[103.299745,-0.388244],[103.299169,-0.388118],[103.298906,-0.388453],[103.298755,-0.389339],[103.298246,-0.390336],[103.29827,-0.390731],[103.299469,-0.391846],[103.299797,-0.392449],[103.299731,-0.392948],[103.299351,-0.393433],[103.298445,-0.394011],[103.298104,-0.393984],[103.297868,-0.393656],[103.297448,-0.392239],[103.29673,-0.391301],[103.296065,-0.390767],[103.295436,-0.390882],[103.293721,-0.39217],[103.293398,-0.392638],[103.293266,-0.394381],[103.293829,-0.395376],[103.293931,-0.395892],[103.293949,-0.396311],[103.293679,-0.396653],[103.293221,-0.396934],[103.292013,-0.395652],[103.291018,-0.395511],[103.290786,-0.394533],[103.291345,-0.394464],[103.290586,-0.374416],[103.307368,-0.37752]]]}}]}