{"type":"FeatureCollection","features":[{"type":"Feature","properties":{"kdkec":"1403051","nmkec":"CONCONG","kddesa":"1403051004","nmdesa":"CONCONG DALAM","idsubsls":"1403051004000900","kdsubsls":"00"},"geometry":{"type":"Polygon","coordinates":[[[103.50597,-0.313307],[103.506032,-0.313768],[103.507071,-0.314039],[103.507022,-0.314808],[103.505991,-0.315128],[103.505473,-0.315014],[103.505537,-0.314644],[103.50513,-0.314566],[103.504699,-0.313984],[103.50552,-0.313155],[103.50597,-0.313307]]]}}]}