{"type":"FeatureCollection","features":[{"type":"Feature","properties":{"kdkec":"1403080","nmkec":"BATANG TUAKA","kddesa":"1403080010","nmdesa":"GEMILANG JAYA","idsubsls":"1403080010000900","kdsubsls":"00"},"geometry":{"type":"Polygon","coordinates":[[[103.30869,-0.198647],[103.306962,-0.200465],[103.305497,-0.201299],[103.293576,-0.21377],[103.291214,-0.215682],[103.290489,-0.216194],[103.290055,-0.21616],[103.288239,-0.216617],[103.287233,-0.216548],[103.286354,-0.215805],[103.286228,-0.213029],[103.286474,-0.212744],[103.286322,-0.212277],[103.287362,-0.211436],[103.287536,-0.210517],[103.296601,-0.20334],[103.300395,-0.199608],[103.305667,-0.194928],[103.30744,-0.193603],[103.310173,-0.197235],[103.30869,-0.198647]]]}}]}