{"type":"FeatureCollection","features":[{"type":"Feature","properties":{"kdkec":"1403080","nmkec":"BATANG TUAKA","kddesa":"1403080010","nmdesa":"GEMILANG JAYA","idsubsls":"1403080010000100","kdsubsls":"00"},"geometry":{"type":"Polygon","coordinates":[[[103.285997,-0.211569],[103.286474,-0.212744],[103.286228,-0.213029],[103.286336,-0.215616],[103.28489,-0.21585],[103.284597,-0.215862],[103.284669,-0.215671],[103.275517,-0.216779],[103.271789,-0.213746],[103.281114,-0.210388],[103.282184,-0.212294],[103.28281,-0.212436],[103.284286,-0.21243],[103.284875,-0.211641],[103.28592,-0.211366],[103.285997,-0.211569]]]}}]}