{"type":"FeatureCollection","features":[{"type":"Feature","properties":{"kdkec":"1403100","nmkec":"GAUNG","kddesa":"1403100001","nmdesa":"TELUK KABUNG","idsubsls":"1403100001001500","kdsubsls":"00"},"geometry":{"type":"Polygon","coordinates":[[[103.037809,-0.133917],[103.036448,-0.134831],[103.035676,-0.134973],[103.034923,-0.132291],[103.034603,-0.121855],[103.033142,-0.107593],[103.028679,-0.10898],[103.026407,-0.101029],[103.036419,-0.098733],[103.037263,-0.107539],[103.038261,-0.128639],[103.039558,-0.132634],[103.037809,-0.133917]]]}}]}