{"type":"FeatureCollection","features":[{"type":"Feature","properties":{"kdkec":"1403100","nmkec":"GAUNG","kddesa":"1403100001","nmdesa":"TELUK KABUNG","idsubsls":"1403100001003000","kdsubsls":"00"},"geometry":{"type":"Polygon","coordinates":[[[103.018828,-0.126974],[103.019571,-0.131329],[103.019635,-0.134299],[103.018774,-0.135967],[103.017852,-0.136664],[103.015936,-0.132984],[103.014276,-0.131164],[103.012514,-0.130305],[103.010767,-0.130363],[103.009049,-0.131106],[103.007802,-0.133121],[103.00633,-0.124666],[103.005931,-0.111832],[103.011601,-0.112398],[103.016639,-0.11194],[103.018828,-0.126974]]]}}]}