{"type":"FeatureCollection","features":[{"type":"Feature","properties":{"kdkec":"1403100","nmkec":"GAUNG","kddesa":"1403100001","nmdesa":"TELUK KABUNG","idsubsls":"1403100001000100","kdsubsls":"00"},"geometry":{"type":"Polygon","coordinates":[[[103.087032,-0.100315],[103.089833,-0.101622],[103.094057,-0.104694],[103.095711,-0.106677],[103.093948,-0.107791],[103.092946,-0.108747],[103.092825,-0.109313],[103.092788,-0.113661],[103.091206,-0.114618],[103.087443,-0.114089],[103.087032,-0.100315]]]}}]}