{"type":"FeatureCollection","features":[{"type":"Feature","properties":{"kdkec":"1403100","nmkec":"GAUNG","kddesa":"1403100014","nmdesa":"PINTASAN","idsubsls":"1403100014000300","kdsubsls":"00"},"geometry":{"type":"Polygon","coordinates":[[[103.245546,-0.110679],[103.248298,-0.112878],[103.251183,-0.114175],[103.255291,-0.117441],[103.257156,-0.118172],[103.249651,-0.120799],[103.245931,-0.124582],[103.242334,-0.12064],[103.239117,-0.116066],[103.239399,-0.115798],[103.241268,-0.112411],[103.243312,-0.108422],[103.245546,-0.110679]]]}}]}