{"type":"FeatureCollection","features":[{"type":"Feature","properties":{"kdkec":"1403070","nmkec":"TEMPULING","kddesa":"1403070012","nmdesa":"MUMPA","idsubsls":"1403070012002000","kdsubsls":"00"},"geometry":{"type":"Polygon","coordinates":[[[102.886614,-0.443387],[102.892444,-0.44779],[102.894778,-0.444151],[102.918551,-0.468049],[102.91421,-0.471694],[102.909082,-0.483795],[102.907965,-0.48328],[102.908019,-0.470977],[102.907856,-0.466021],[102.899933,-0.457003],[102.893418,-0.457076],[102.889254,-0.450352],[102.886946,-0.446307],[102.88596,-0.444315],[102.886614,-0.443387]]]}}]}