{"type":"FeatureCollection","features":[{"type":"Feature","properties":{"kdkec":"1403011","nmkec":"KEMUNING","kddesa":"1403011002","nmdesa":"BATU AMPAR","idsubsls":"1403011002001800","kdsubsls":"00"},"geometry":{"type":"Polygon","coordinates":[[[102.712436,-0.931119],[102.70917,-0.935599],[102.708305,-0.937628],[102.706864,-0.939278],[102.706116,-0.937971],[102.705844,-0.937703],[102.704755,-0.937279],[102.703123,-0.935575],[102.703904,-0.934104],[102.703816,-0.933368],[102.704053,-0.932303],[102.707889,-0.927521],[102.712436,-0.931119]]]}}]}