{"type":"FeatureCollection","features":[{"type":"Feature","properties":{"kdkec":"1403011","nmkec":"KEMUNING","kddesa":"1403011002","nmdesa":"BATU AMPAR","idsubsls":"1403011002002000","kdsubsls":"00"},"geometry":{"type":"Polygon","coordinates":[[[102.684676,-0.925543],[102.687305,-0.9285],[102.681113,-0.934477],[102.678935,-0.93254],[102.675313,-0.94195],[102.647666,-0.972595],[102.634547,-0.953278],[102.648446,-0.942819],[102.660167,-0.933177],[102.660328,-0.933398],[102.66061,-0.933458],[102.661173,-0.933378],[102.661938,-0.932955],[102.662058,-0.932201],[102.662481,-0.931668],[102.663759,-0.931632],[102.665323,-0.93127],[102.665683,-0.930355],[102.666186,-0.930018],[102.667599,-0.929586],[102.667844,-0.929447],[102.668353,-0.928669],[102.669732,-0.928138],[102.678817,-0.920991],[102.68031,-0.923102],[102.680858,-0.923115],[102.682518,-0.922188],[102.684676,-0.925543]]]}}]}