{"type":"FeatureCollection","features":[{"type":"Feature","properties":{"kdkec":"1403011","nmkec":"KEMUNING","kddesa":"1403011002","nmdesa":"BATU AMPAR","idsubsls":"1403011002001000","kdsubsls":"00"},"geometry":{"type":"Polygon","coordinates":[[[102.725054,-0.968636],[102.724781,-0.967388],[102.725004,-0.965178],[102.725119,-0.964834],[102.726584,-0.964745],[102.726864,-0.964529],[102.726991,-0.963752],[102.726864,-0.963013],[102.72596,-0.962338],[102.723629,-0.961472],[102.723527,-0.961319],[102.723641,-0.961179],[102.722903,-0.960937],[102.7204,-0.957615],[102.722363,-0.956452],[102.72337,-0.957073],[102.724097,-0.957183],[102.725823,-0.957835],[102.727038,-0.957564],[102.727805,-0.957763],[102.729181,-0.95739],[102.729901,-0.957444],[102.730409,-0.957723],[102.731561,-0.959214],[102.731745,-0.960028],[102.732195,-0.960983],[102.732345,-0.962024],[102.732093,-0.962421],[102.732593,-0.963281],[102.725054,-0.968636]]]}}]}