{"type":"FeatureCollection","features":[{"type":"Feature","properties":{"kdkec":"1403011","nmkec":"KEMUNING","kddesa":"1403011002","nmdesa":"BATU AMPAR","idsubsls":"1403011002200100","kdsubsls":"00"},"geometry":{"type":"Polygon","coordinates":[[[102.728161,-0.940785],[102.753282,-0.925379],[102.754046,-0.935247],[102.755426,-0.939539],[102.754375,-0.954059],[102.753553,-0.953488],[102.753212,-0.953495],[102.753112,-0.954691],[102.752297,-0.955506],[102.750196,-0.955315],[102.749231,-0.954928],[102.748721,-0.955873],[102.748542,-0.955935],[102.748254,-0.955749],[102.748317,-0.955453],[102.748721,-0.955042],[102.748666,-0.954847],[102.747773,-0.954664],[102.747019,-0.954234],[102.746132,-0.954433],[102.745632,-0.954236],[102.745423,-0.953729],[102.744877,-0.953089],[102.74444,-0.951751],[102.743736,-0.951359],[102.743381,-0.950634],[102.740715,-0.949077],[102.739365,-0.948743],[102.739021,-0.948886],[102.739113,-0.949167],[102.740147,-0.949609],[102.740789,-0.950281],[102.740815,-0.950528],[102.74018,-0.950348],[102.739693,-0.950571],[102.739298,-0.951045],[102.738622,-0.951188],[102.738374,-0.951482],[102.736849,-0.951432],[102.735952,-0.952354],[102.731114,-0.954573],[102.729053,-0.943994],[102.728161,-0.940785]]]}}]}