{"type":"FeatureCollection","features":[{"type":"Feature","properties":{"kdkec":"1403110","nmkec":"MANDAH","kddesa":"1403110004","nmdesa":"PELANDUK","idsubsls":"1403110004001900","kdsubsls":"00"},"geometry":{"type":"Polygon","coordinates":[[[103.366046,0.033471],[103.357157,0.017648],[103.355144,0.020524],[103.353419,0.021962],[103.351981,0.022537],[103.351118,0.022537],[103.350256,0.022249],[103.34968,0.020811],[103.348818,0.019661],[103.347668,0.019661],[103.354547,0.041654],[103.366046,0.033471]]]}}]}