{"type":"FeatureCollection","features":[{"type":"Feature","properties":{"kdkec":"1403110","nmkec":"MANDAH","kddesa":"1403110004","nmdesa":"PELANDUK","idsubsls":"1403110004001500","kdsubsls":"00"},"geometry":{"type":"Polygon","coordinates":[[[103.371325,0.040777],[103.371257,0.040564],[103.370602,0.040747],[103.369355,0.03885],[103.368129,0.037904],[103.368865,0.03683],[103.366046,0.033471],[103.354547,0.041654],[103.357743,0.051591],[103.359464,0.050507],[103.360798,0.049383],[103.361571,0.048143],[103.363138,0.047249],[103.36562,0.0462],[103.367634,0.045123],[103.369647,0.042454],[103.371641,0.041457],[103.371325,0.040777]]]}}]}