{"type":"FeatureCollection","features":[{"type":"Feature","properties":{"kdkec":"1403021","nmkec":"SUNGAI BATANG","kddesa":"1403021005","nmdesa":"BENTENG BARAT","idsubsls":"1403021005000900","kdsubsls":"00"},"geometry":{"type":"Polygon","coordinates":[[[103.131137,-0.621569],[103.162699,-0.645554],[103.16435,-0.646807],[103.161784,-0.64735],[103.161223,-0.647258],[103.159038,-0.647636],[103.128042,-0.624575],[103.12436,-0.621061],[103.126426,-0.620902],[103.129058,-0.619916],[103.131137,-0.621569]]]}}]}