{"type":"FeatureCollection","features":[{"type":"Feature","properties":{"kdkec":"1403021","nmkec":"SUNGAI BATANG","kddesa":"1403021005","nmdesa":"BENTENG BARAT","idsubsls":"1403021005000500","kdsubsls":"00"},"geometry":{"type":"Polygon","coordinates":[[[103.170867,-0.644931],[103.17028,-0.64509],[103.16875,-0.643663],[103.13522,-0.617607],[103.138146,-0.614775],[103.174459,-0.641789],[103.176425,-0.643007],[103.175089,-0.643284],[103.172837,-0.644197],[103.171447,-0.644544],[103.170867,-0.644931]]]}}]}