{"type":"FeatureCollection","features":[{"type":"Feature","properties":{"kdkec":"1403030","nmkec":"ENOK","kddesa":"1403030005","nmdesa":"SUNGAI AMBAT","idsubsls":"1403030005001100","kdsubsls":"00"},"geometry":{"type":"Polygon","coordinates":[[[103.110951,-0.482594],[103.107257,-0.482633],[103.107199,-0.468895],[103.111798,-0.448266],[103.123435,-0.443852],[103.116776,-0.458303],[103.122278,-0.462752],[103.118467,-0.465256],[103.114327,-0.470352],[103.113053,-0.475767],[103.112743,-0.482575],[103.110951,-0.482594]]]}}]}