{"type":"FeatureCollection","features":[{"type":"Feature","properties":{"kdkec":"1403030","nmkec":"ENOK","kddesa":"1403030005","nmdesa":"SUNGAI AMBAT","idsubsls":"1403030005000700","kdsubsls":"00"},"geometry":{"type":"Polygon","coordinates":[[[103.14597,-0.482002],[103.142922,-0.489573],[103.141761,-0.501297],[103.137582,-0.514879],[103.136381,-0.516635],[103.132838,-0.515974],[103.132078,-0.516135],[103.13056,-0.515893],[103.129332,-0.514487],[103.128872,-0.513399],[103.129867,-0.512536],[103.130817,-0.511225],[103.132399,-0.508417],[103.140173,-0.475725],[103.141734,-0.478472],[103.14597,-0.482002]]]}}]}