{"type":"FeatureCollection","features":[{"type":"Feature","properties":{"kdkec":"1403060","nmkec":"TEMBILAHAN","kddesa":"1403060003","nmdesa":"TEMBILAHAN HILIR","idsubsls":"1403060003002901","kdsubsls":"01"},"geometry":{"type":"Polygon","coordinates":[[[103.165076,-0.319178],[103.165537,-0.319932],[103.16637,-0.31938],[103.165908,-0.318641],[103.166155,-0.31848],[103.166877,-0.319608],[103.166363,-0.319959],[103.166469,-0.320116],[103.166095,-0.32044],[103.166383,-0.32087],[103.165465,-0.321508],[103.164335,-0.320167],[103.16418,-0.319757],[103.165076,-0.319178]]]}}]}