{"type":"FeatureCollection","features":[{"type":"Feature","properties":{"kdkec":"1403030","nmkec":"ENOK","kddesa":"1403030006","nmdesa":"PUSARAN","idsubsls":"1403030006001200","kdsubsls":"00"},"geometry":{"type":"Polygon","coordinates":[[[103.145046,-0.537239],[103.14471,-0.53769],[103.143998,-0.537402],[103.142799,-0.537741],[103.142583,-0.537848],[103.142616,-0.538045],[103.140178,-0.537963],[103.137706,-0.540761],[103.128938,-0.551648],[103.125004,-0.548745],[103.126644,-0.545743],[103.13027,-0.542155],[103.136136,-0.536759],[103.133918,-0.534915],[103.136336,-0.532335],[103.138132,-0.530679],[103.140636,-0.532926],[103.140393,-0.533171],[103.140774,-0.533558],[103.141037,-0.533286],[103.145368,-0.537061],[103.145046,-0.537239]]]}}]}