{"type":"FeatureCollection","features":[{"type":"Feature","properties":{"kdkec":"1403030","nmkec":"ENOK","kddesa":"1403030006","nmdesa":"PUSARAN","idsubsls":"1403030006000600","kdsubsls":"00"},"geometry":{"type":"Polygon","coordinates":[[[103.121389,-0.562356],[103.125533,-0.563933],[103.125071,-0.564523],[103.133395,-0.567671],[103.133283,-0.579166],[103.129083,-0.578734],[103.127728,-0.578329],[103.126678,-0.577855],[103.124868,-0.576684],[103.122064,-0.574274],[103.121443,-0.574154],[103.121372,-0.574535],[103.115634,-0.573142],[103.117729,-0.567975],[103.121389,-0.562356]]]}}]}