{"type":"FeatureCollection","features":[{"type":"Feature","properties":{"kdkec":"1403061","nmkec":"TEMBILAHAN HULU","kddesa":"1403061002","nmdesa":"TEMBILAHAN HULU","idsubsls":"1403061002003302","kdsubsls":"02"},"geometry":{"type":"Polygon","coordinates":[[[103.147884,-0.331652],[103.147338,-0.330526],[103.147126,-0.330641],[103.147218,-0.330831],[103.14672,-0.331066],[103.147071,-0.331799],[103.147348,-0.331652],[103.147468,-0.331879],[103.146875,-0.33219],[103.145634,-0.329889],[103.146318,-0.329532],[103.146614,-0.330044],[103.147534,-0.33033],[103.148129,-0.33151],[103.147884,-0.331652]]]}}]}