{"type":"FeatureCollection","features":[{"type":"Feature","properties":{"kdkec":"1403061","nmkec":"TEMBILAHAN HULU","kddesa":"1403061002","nmdesa":"TEMBILAHAN HULU","idsubsls":"1403061002001500","kdsubsls":"00"},"geometry":{"type":"Polygon","coordinates":[[[103.151126,-0.329119],[103.151438,-0.329659],[103.151897,-0.329405],[103.152218,-0.329976],[103.151457,-0.330418],[103.151274,-0.330112],[103.15117,-0.330162],[103.150625,-0.329042],[103.150425,-0.329113],[103.150263,-0.328742],[103.150746,-0.328481],[103.151126,-0.329119]]]}}]}