{"type":"FeatureCollection","features":[{"type":"Feature","properties":{"kdkec":"1403061","nmkec":"TEMBILAHAN HULU","kddesa":"1403061002","nmdesa":"TEMBILAHAN HULU","idsubsls":"1403061002002402","kdsubsls":"02"},"geometry":{"type":"Polygon","coordinates":[[[103.147224,-0.322547],[103.145512,-0.323247],[103.145408,-0.322718],[103.144395,-0.321526],[103.144068,-0.321795],[103.143859,-0.321536],[103.144184,-0.321265],[103.143949,-0.320933],[103.143529,-0.321252],[103.143636,-0.320913],[103.14492,-0.319808],[103.147224,-0.322547]]]}}]}