{"type":"FeatureCollection","features":[{"type":"Feature","properties":{"kdkec":"1403061","nmkec":"TEMBILAHAN HULU","kddesa":"1403061002","nmdesa":"TEMBILAHAN HULU","idsubsls":"1403061002004502","kdsubsls":"02"},"geometry":{"type":"Polygon","coordinates":[[[103.14166,-0.333429],[103.141413,-0.333514],[103.140974,-0.332292],[103.139782,-0.332703],[103.139684,-0.3324],[103.139435,-0.332495],[103.139357,-0.331948],[103.140701,-0.331483],[103.140641,-0.33132],[103.141488,-0.331017],[103.14154,-0.331157],[103.141935,-0.331029],[103.142405,-0.33192],[103.141871,-0.332081],[103.142125,-0.332769],[103.141525,-0.333031],[103.14166,-0.333429]]]}}]}