{"type":"FeatureCollection","features":[{"type":"Feature","properties":{"kdkec":"1403121","nmkec":"PELANGIRAN","kddesa":"1403121004","nmdesa":"ROTAN SEMELUR","idsubsls":"1403121004001700","kdsubsls":"00"},"geometry":{"type":"Polygon","coordinates":[[[103.601898,0.221225],[103.605229,0.221317],[103.604789,0.235805],[103.60451,0.240105],[103.603985,0.244728],[103.603786,0.249709],[103.604987,0.254449],[103.606269,0.261484],[103.612174,0.261099],[103.608801,0.249472],[103.611427,0.223175],[103.611561,0.216335],[103.610617,0.209901],[103.60593,0.212179],[103.60235,0.213592],[103.601898,0.221225]]]}}]}