{"type":"FeatureCollection","features":[{"type":"Feature","properties":{"kdkec":"1403121","nmkec":"PELANGIRAN","kddesa":"1403121004","nmdesa":"ROTAN SEMELUR","idsubsls":"1403121004001900","kdsubsls":"00"},"geometry":{"type":"Polygon","coordinates":[[[103.595434,0.221631],[103.595509,0.245736],[103.595381,0.250358],[103.593569,0.26014],[103.595738,0.260728],[103.598902,0.261189],[103.599437,0.259323],[103.599716,0.256106],[103.599738,0.25321],[103.599534,0.250755],[103.598226,0.242218],[103.598269,0.239526],[103.598376,0.238561],[103.600102,0.232105],[103.600639,0.227934],[103.601062,0.221174],[103.598566,0.221022],[103.598494,0.221915],[103.595434,0.221631]]]}}]}