{"type":"FeatureCollection","features":[{"type":"Feature","properties":{"kdkec":"1403070","nmkec":"TEMPULING","kddesa":"1403070011","nmdesa":"TELUK JIRA","idsubsls":"1403070011000900","kdsubsls":"00"},"geometry":{"type":"Polygon","coordinates":[[[102.952029,-0.477061],[102.951055,-0.477686],[102.948829,-0.479955],[102.948525,-0.479462],[102.947207,-0.478206],[102.9471,-0.477578],[102.946275,-0.476491],[102.948012,-0.475173],[102.93456,-0.463406],[102.900273,-0.435579],[102.901763,-0.433363],[102.910193,-0.436785],[102.932858,-0.457515],[102.933384,-0.45693],[102.944862,-0.468919],[102.949958,-0.473729],[102.952029,-0.477061]]]}}]}