{"type":"FeatureCollection","features":[{"type":"Feature","properties":{"kdkec":"1403070","nmkec":"TEMPULING","kddesa":"1403070011","nmdesa":"TELUK JIRA","idsubsls":"1403070011000400","kdsubsls":"00"},"geometry":{"type":"Polygon","coordinates":[[[102.957922,-0.466454],[102.958869,-0.473551],[102.957509,-0.473806],[102.955366,-0.473945],[102.955436,-0.470907],[102.954854,-0.467802],[102.953353,-0.464545],[102.945199,-0.455925],[102.947963,-0.452635],[102.953932,-0.459334],[102.956319,-0.462316],[102.957011,-0.463753],[102.957922,-0.466454]]]}}]}