{"type":"FeatureCollection","features":[{"type":"Feature","properties":{"kdkec":"1403070","nmkec":"TEMPULING","kddesa":"1403070011","nmdesa":"TELUK JIRA","idsubsls":"1403070011001100","kdsubsls":"00"},"geometry":{"type":"Polygon","coordinates":[[[102.948829,-0.479955],[102.947852,-0.481559],[102.946771,-0.480739],[102.926341,-0.463293],[102.897361,-0.440049],[102.900273,-0.435579],[102.93456,-0.463406],[102.948012,-0.475173],[102.946275,-0.476491],[102.9471,-0.477578],[102.947207,-0.478206],[102.948525,-0.479462],[102.948829,-0.479955]]]}}]}