{"type":"FeatureCollection","features":[{"type":"Feature","properties":{"kdkec":"1403070","nmkec":"TEMPULING","kddesa":"1403070011","nmdesa":"TELUK JIRA","idsubsls":"1403070011000100","kdsubsls":"00"},"geometry":{"type":"Polygon","coordinates":[[[102.960204,-0.463299],[102.962588,-0.474032],[102.962537,-0.474955],[102.959858,-0.474482],[102.959387,-0.469046],[102.958796,-0.466306],[102.957922,-0.466454],[102.957011,-0.463753],[102.956319,-0.462316],[102.953932,-0.459334],[102.947963,-0.452635],[102.951739,-0.449766],[102.960204,-0.463299]]]}}]}