{"type":"FeatureCollection","features":[{"type":"Feature","properties":{"kdkec":"1403080","nmkec":"BATANG TUAKA","kddesa":"1403080006","nmdesa":"SUNGAI PIRING","idsubsls":"1403080006000200","kdsubsls":"00"},"geometry":{"type":"Polygon","coordinates":[[[103.279713,-0.235898],[103.280473,-0.230198],[103.281618,-0.225418],[103.283554,-0.225938],[103.282903,-0.227946],[103.283879,-0.228289],[103.281538,-0.233885],[103.281527,-0.23521],[103.281767,-0.236041],[103.281401,-0.238519],[103.280997,-0.238504],[103.281334,-0.235973],[103.280237,-0.235809],[103.279713,-0.235898]]]}}]}