{"type":"FeatureCollection","features":[{"type":"Feature","properties":{"kdkec":"1403080","nmkec":"BATANG TUAKA","kddesa":"1403080006","nmdesa":"SUNGAI PIRING","idsubsls":"1403080006001500","kdsubsls":"00"},"geometry":{"type":"Polygon","coordinates":[[[103.271789,-0.213746],[103.275517,-0.216779],[103.278693,-0.226701],[103.2758,-0.230975],[103.268729,-0.223184],[103.266031,-0.220716],[103.265504,-0.221328],[103.264285,-0.22019],[103.261172,-0.219658],[103.259641,-0.218722],[103.267618,-0.210101],[103.269173,-0.211618],[103.271789,-0.213746]]]}}]}