{"type":"FeatureCollection","features":[{"type":"Feature","properties":{"kdkec":"1403080","nmkec":"BATANG TUAKA","kddesa":"1403080006","nmdesa":"SUNGAI PIRING","idsubsls":"1403080006002100","kdsubsls":"00"},"geometry":{"type":"Polygon","coordinates":[[[103.294878,-0.230592],[103.287429,-0.228528],[103.28386,-0.228333],[103.282903,-0.227946],[103.283554,-0.225938],[103.287528,-0.216568],[103.289027,-0.216491],[103.290055,-0.21616],[103.290489,-0.216194],[103.290992,-0.216674],[103.291586,-0.216856],[103.293711,-0.220398],[103.294259,-0.222546],[103.294716,-0.223643],[103.294808,-0.224488],[103.29547,-0.226476],[103.295653,-0.227664],[103.29563,-0.228989],[103.295314,-0.23075],[103.294878,-0.230592]]]}}]}