{"type":"FeatureCollection","features":[{"type":"Feature","properties":{"kdkec":"1403080","nmkec":"BATANG TUAKA","kddesa":"1403080006","nmdesa":"SUNGAI PIRING","idsubsls":"1403080006002200","kdsubsls":"00"},"geometry":{"type":"Polygon","coordinates":[[[103.286292,-0.23651],[103.294625,-0.236838],[103.294636,-0.237135],[103.294522,-0.237901],[103.292448,-0.241438],[103.288437,-0.240171],[103.281401,-0.238519],[103.281754,-0.236318],[103.282269,-0.236401],[103.282205,-0.236903],[103.286278,-0.237203],[103.286292,-0.23651]]]}}]}