{"type":"FeatureCollection","features":[{"type":"Feature","properties":{"kdkec":"1403010","nmkec":"KERITANG","kddesa":"1403010010","nmdesa":"TELUK KELASA","idsubsls":"1403010010001600","kdsubsls":"00"},"geometry":{"type":"Polygon","coordinates":[[[102.840641,-0.625803],[102.83763,-0.630486],[102.835481,-0.634733],[102.835029,-0.637911],[102.835177,-0.639042],[102.831835,-0.655732],[102.827838,-0.654411],[102.831367,-0.638886],[102.831936,-0.633499],[102.834125,-0.629252],[102.837077,-0.624695],[102.83855,-0.622884],[102.840641,-0.625803]]]}}]}