{"type":"FeatureCollection","features":[{"type":"Feature","properties":{"kdkec":"1403010","nmkec":"KERITANG","kddesa":"1403010010","nmdesa":"TELUK KELASA","idsubsls":"1403010010000700","kdsubsls":"00"},"geometry":{"type":"Polygon","coordinates":[[[102.809493,-0.676642],[102.802487,-0.685132],[102.799577,-0.68246],[102.798502,-0.681869],[102.797778,-0.685775],[102.798404,-0.686854],[102.79771,-0.68732],[102.797271,-0.686666],[102.79712,-0.68614],[102.794678,-0.68746],[102.794518,-0.685544],[102.795184,-0.683797],[102.796384,-0.68205],[102.796512,-0.67919],[102.797087,-0.676893],[102.798646,-0.673181],[102.799433,-0.672501],[102.809493,-0.676642]]]}}]}