{"type":"FeatureCollection","features":[{"type":"Feature","properties":{"kdkec":"1403010","nmkec":"KERITANG","kddesa":"1403010010","nmdesa":"TELUK KELASA","idsubsls":"1403010010001500","kdsubsls":"00"},"geometry":{"type":"Polygon","coordinates":[[[102.843507,-0.629806],[102.841709,-0.634124],[102.841548,-0.637207],[102.842162,-0.640818],[102.841774,-0.644418],[102.839365,-0.650115],[102.834898,-0.656748],[102.831835,-0.655732],[102.835177,-0.639042],[102.835029,-0.637911],[102.835481,-0.634733],[102.83763,-0.630486],[102.840641,-0.625803],[102.843507,-0.629806]]]}}]}