{"type":"FeatureCollection","features":[{"type":"Feature","properties":{"kdkec":"1403122","nmkec":"TELUK BELENGKONG","kddesa":"1403122008","nmdesa":"HIBRIDA JAYA","idsubsls":"1403122008100100","kdsubsls":"00"},"geometry":{"type":"Polygon","coordinates":[[[103.221829,0.279926],[103.239059,0.299912],[103.2355,0.302734],[103.247918,0.317133],[103.268312,0.29947],[103.238065,0.265638],[103.221829,0.279926]],[[103.244996,0.287484],[103.249634,0.292575],[103.245004,0.296614],[103.23825,0.289138],[103.24282,0.285095],[103.244996,0.287484]]]}}]}