{"type":"FeatureCollection","features":[{"type":"Feature","properties":{"kdkec":"1403100","nmkec":"GAUNG","kddesa":"1403100009","nmdesa":"LAHANG TENGAH","idsubsls":"1403100009000400","kdsubsls":"00"},"geometry":{"type":"Polygon","coordinates":[[[103.333614,-0.07892],[103.333268,-0.079283],[103.332765,-0.078939],[103.333631,-0.077608],[103.33956,-0.064493],[103.341401,-0.061632],[103.343167,-0.057936],[103.345318,-0.061282],[103.333995,-0.077621],[103.33368,-0.078177],[103.333794,-0.078248],[103.333614,-0.07892]]]}}]}