{"type":"FeatureCollection","features":[{"type":"Feature","properties":{"kdkec":"1403120","nmkec":"KATEMAN","kddesa":"1403120006","nmdesa":"AIR TAWAR","idsubsls":"1403120006000800","kdsubsls":"00"},"geometry":{"type":"Polygon","coordinates":[[[103.564812,0.361],[103.564838,0.36058],[103.563303,0.357601],[103.560416,0.358782],[103.557818,0.359163],[103.556382,0.363771],[103.563318,0.379109],[103.562917,0.381898],[103.566114,0.383625],[103.570859,0.383869],[103.574225,0.382814],[103.567211,0.364214],[103.565795,0.364139],[103.564812,0.361]]]}}]}