{"type":"FeatureCollection","features":[{"type":"Feature","properties":{"kdkec":"1403120","nmkec":"KATEMAN","kddesa":"1403120006","nmdesa":"AIR TAWAR","idsubsls":"1403120006001300","kdsubsls":"00"},"geometry":{"type":"Polygon","coordinates":[[[103.589385,0.330772],[103.588718,0.332261],[103.587978,0.332436],[103.587331,0.333314],[103.5869,0.333517],[103.585155,0.336247],[103.584626,0.33627],[103.58431,0.337182],[103.583522,0.338161],[103.58291,0.340838],[103.58248,0.341359],[103.582152,0.342426],[103.57769,0.350231],[103.577249,0.350135],[103.576271,0.351612],[103.575174,0.351469],[103.574864,0.352164],[103.577184,0.352629],[103.577454,0.353158],[103.578839,0.353856],[103.578607,0.354306],[103.582632,0.35545],[103.583004,0.354545],[103.583184,0.35356],[103.587253,0.345264],[103.588795,0.343916],[103.590798,0.343979],[103.593396,0.335313],[103.59379,0.334717],[103.594387,0.332364],[103.594685,0.331914],[103.593217,0.33132],[103.589385,0.330772]]]}}]}