{"type":"FeatureCollection","features":[{"type":"Feature","properties":{"kdkec":"1403120","nmkec":"KATEMAN","kddesa":"1403120006","nmdesa":"AIR TAWAR","idsubsls":"1403120006000300","kdsubsls":"00"},"geometry":{"type":"Polygon","coordinates":[[[103.57246,0.301778],[103.572149,0.301786],[103.567883,0.313028],[103.566976,0.312595],[103.557459,0.334863],[103.561781,0.343682],[103.563031,0.337229],[103.566064,0.335584],[103.571488,0.319988],[103.577001,0.300566],[103.575122,0.301289],[103.57246,0.301778]]]}}]}