{"type":"FeatureCollection","features":[{"type":"Feature","properties":{"kdkec":"1403120","nmkec":"KATEMAN","kddesa":"1403120006","nmdesa":"AIR TAWAR","idsubsls":"1403120006001000","kdsubsls":"00"},"geometry":{"type":"Polygon","coordinates":[[[103.571749,0.351553],[103.572658,0.348587],[103.576489,0.342641],[103.577907,0.34075],[103.57813,0.340105],[103.583342,0.330365],[103.585222,0.325993],[103.586174,0.324932],[103.58151,0.32136],[103.583163,0.319871],[103.587897,0.317032],[103.587906,0.31636],[103.590059,0.316214],[103.593916,0.313525],[103.593211,0.307442],[103.600175,0.307562],[103.600253,0.301875],[103.597056,0.301901],[103.597015,0.298758],[103.590311,0.297034],[103.587286,0.296972],[103.584816,0.297343],[103.581394,0.298666],[103.579796,0.305476],[103.571997,0.333756],[103.572647,0.333892],[103.568535,0.345395],[103.564438,0.35006],[103.564582,0.350611],[103.571733,0.354091],[103.571526,0.353708],[103.57143,0.352785],[103.571749,0.351553]]]}}]}