{"type":"FeatureCollection","features":[{"type":"Feature","properties":{"kdkec":"1403120","nmkec":"KATEMAN","kddesa":"1403120006","nmdesa":"AIR TAWAR","idsubsls":"1403120006001900","kdsubsls":"00"},"geometry":{"type":"Polygon","coordinates":[[[103.60159,0.303028],[103.603296,0.303078],[103.603414,0.303381],[103.602105,0.30473],[103.602717,0.305298],[103.604597,0.303306],[103.603934,0.302624],[103.604755,0.301677],[103.604017,0.301108],[103.602513,0.300437],[103.601572,0.30185],[103.60159,0.303028]]]}}]}