{"type":"FeatureCollection","features":[{"type":"Feature","properties":{"kdkec":"1403010","nmkec":"KERITANG","kddesa":"1403010005","nmdesa":"KEMBANG MEKAR SARI","idsubsls":"1403010005001200","kdsubsls":"00"},"geometry":{"type":"Polygon","coordinates":[[[102.901036,-0.740507],[102.901997,-0.735628],[102.900141,-0.707886],[102.892634,-0.669536],[102.896257,-0.669643],[102.903066,-0.707627],[102.903373,-0.725745],[102.902871,-0.733332],[102.902554,-0.747964],[102.900119,-0.748145],[102.901036,-0.740507]]]}}]}