{"type":"FeatureCollection","features":[{"type":"Feature","properties":{"kdkec":"1403020","nmkec":"RETEH","kddesa":"1403020015","nmdesa":"METRO","idsubsls":"1403020015000600","kdsubsls":"00"},"geometry":{"type":"Polygon","coordinates":[[[103.230241,-0.720748],[103.22867,-0.736934],[103.227149,-0.747156],[103.228096,-0.756173],[103.230627,-0.761514],[103.230301,-0.764383],[103.230268,-0.764572],[103.223873,-0.764931],[103.22305,-0.74725],[103.222676,-0.744321],[103.222698,-0.742612],[103.223387,-0.738126],[103.223674,-0.731723],[103.223708,-0.725333],[103.224044,-0.72031],[103.230241,-0.720748]]]}}]}