{"type":"FeatureCollection","features":[{"type":"Feature","properties":{"kdkec":"1403020","nmkec":"RETEH","kddesa":"1403020015","nmdesa":"METRO","idsubsls":"1403020015000700","kdsubsls":"00"},"geometry":{"type":"Polygon","coordinates":[[[103.237125,-0.703633],[103.234884,-0.731714],[103.231977,-0.748739],[103.231589,-0.753819],[103.230627,-0.761514],[103.228096,-0.756173],[103.227149,-0.747156],[103.22867,-0.736934],[103.230241,-0.720748],[103.230244,-0.707886],[103.233509,-0.70766],[103.233744,-0.702569],[103.234189,-0.700761],[103.23885,-0.693227],[103.241316,-0.695076],[103.237923,-0.701058],[103.237125,-0.703633]]]}}]}