{"type":"FeatureCollection","features":[{"type":"Feature","properties":{"kdkec":"1403020","nmkec":"RETEH","kddesa":"1403020015","nmdesa":"METRO","idsubsls":"1403020015001100","kdsubsls":"00"},"geometry":{"type":"Polygon","coordinates":[[[103.227727,-0.690194],[103.227156,-0.692413],[103.225988,-0.69585],[103.225829,-0.695854],[103.211154,-0.695864],[103.210655,-0.693535],[103.209652,-0.690216],[103.211396,-0.689939],[103.211365,-0.689215],[103.216926,-0.689513],[103.228161,-0.68957],[103.228011,-0.689996],[103.227727,-0.690194]]]}}]}