{"type":"FeatureCollection","features":[{"type":"Feature","properties":{"kdkec":"1403071","nmkec":"KEMPAS","kddesa":"1403071004","nmdesa":"SUNGAI ARA","idsubsls":"1403071004001000","kdsubsls":"00"},"geometry":{"type":"Polygon","coordinates":[[[102.89082,-0.569806],[102.881026,-0.574057],[102.87729,-0.576154],[102.851288,-0.588258],[102.840033,-0.594036],[102.832726,-0.586974],[102.865951,-0.570803],[102.866739,-0.575702],[102.87525,-0.57231],[102.879556,-0.570324],[102.877844,-0.565158],[102.882658,-0.56303],[102.887068,-0.56079],[102.89082,-0.569806]]]}}]}