{"type":"FeatureCollection","features":[{"type":"Feature","properties":{"kdkec":"1403071","nmkec":"KEMPAS","kddesa":"1403071004","nmdesa":"SUNGAI ARA","idsubsls":"1403071004000800","kdsubsls":"00"},"geometry":{"type":"Polygon","coordinates":[[[102.863877,-0.549148],[102.864641,-0.548944],[102.86604,-0.552126],[102.866522,-0.552042],[102.867125,-0.551651],[102.867369,-0.552251],[102.870595,-0.550526],[102.872876,-0.557176],[102.869125,-0.557987],[102.864837,-0.559171],[102.863877,-0.549148]]]}}]}