{"type":"FeatureCollection","features":[{"type":"Feature","properties":{"kdkec":"1403010","nmkec":"KERITANG","kddesa":"1403010013","nmdesa":"SENCALANG","idsubsls":"1403010013000500","kdsubsls":"00"},"geometry":{"type":"Polygon","coordinates":[[[102.70652,-0.658372],[102.70646,-0.658288],[102.705757,-0.658805],[102.704975,-0.654556],[102.705908,-0.650921],[102.706574,-0.650862],[102.707782,-0.653167],[102.709016,-0.654104],[102.708068,-0.656344],[102.707786,-0.656651],[102.708106,-0.657216],[102.70652,-0.658372]]]}}]}