{"type":"FeatureCollection","features":[{"type":"Feature","properties":{"kdkec":"1403010","nmkec":"KERITANG","kddesa":"1403010013","nmdesa":"SENCALANG","idsubsls":"1403010013001400","kdsubsls":"00"},"geometry":{"type":"Polygon","coordinates":[[[102.697103,-0.667021],[102.696676,-0.66684],[102.698172,-0.663475],[102.699253,-0.662324],[102.701096,-0.662039],[102.700166,-0.668476],[102.699396,-0.676194],[102.698562,-0.682352],[102.698135,-0.689792],[102.697194,-0.693513],[102.690139,-0.704938],[102.686183,-0.703765],[102.695422,-0.692013],[102.69627,-0.687955],[102.696391,-0.685018],[102.695437,-0.682172],[102.695044,-0.678916],[102.697148,-0.67077],[102.697103,-0.667021]]]}}]}