{"type":"FeatureCollection","features":[{"type":"Feature","properties":{"kdkec":"1403010","nmkec":"KERITANG","kddesa":"1403010013","nmdesa":"SENCALANG","idsubsls":"1403010013100100","kdsubsls":"00"},"geometry":{"type":"Polygon","coordinates":[[[102.695934,-0.65317],[102.69759,-0.654379],[102.701564,-0.655344],[102.701387,-0.656611],[102.70083,-0.657538],[102.699826,-0.658575],[102.698837,-0.660562],[102.696794,-0.660981],[102.696386,-0.661328],[102.694495,-0.661307],[102.693044,-0.661922],[102.693024,-0.662543],[102.696698,-0.662527],[102.696603,-0.663247],[102.694764,-0.668599],[102.693482,-0.673505],[102.692286,-0.67508],[102.691416,-0.675837],[102.691991,-0.678721],[102.691602,-0.679896],[102.692833,-0.679899],[102.695044,-0.678916],[102.695437,-0.682172],[102.696391,-0.685018],[102.69627,-0.687955],[102.695422,-0.692013],[102.686183,-0.703765],[102.679843,-0.702445],[102.684081,-0.699275],[102.668891,-0.694231],[102.668695,-0.69271],[102.669817,-0.692654],[102.671075,-0.692301],[102.670702,-0.687328],[102.667313,-0.687261],[102.667257,-0.682284],[102.663443,-0.682239],[102.663476,-0.679029],[102.66892,-0.673161],[102.667131,-0.672088],[102.673708,-0.666801],[102.688347,-0.656114],[102.689298,-0.65468],[102.690594,-0.65368],[102.69284,-0.652855],[102.694438,-0.652639],[102.695934,-0.65317]]]}}]}