{"type":"FeatureCollection","features":[{"type":"Feature","properties":{"kdkec":"1403010","nmkec":"KERITANG","kddesa":"1403010013","nmdesa":"SENCALANG","idsubsls":"1403010013000200","kdsubsls":"00"},"geometry":{"type":"Polygon","coordinates":[[[102.708538,-0.736315],[102.712658,-0.718547],[102.713441,-0.713064],[102.712886,-0.703045],[102.711809,-0.698574],[102.711548,-0.696877],[102.711825,-0.694886],[102.711177,-0.693895],[102.710903,-0.692663],[102.712925,-0.679349],[102.713843,-0.66862],[102.71472,-0.661493],[102.714532,-0.65911],[102.71485,-0.658311],[102.71508,-0.656662],[102.716854,-0.656629],[102.716502,-0.660098],[102.716536,-0.664714],[102.716743,-0.665789],[102.716406,-0.666837],[102.715655,-0.673143],[102.715888,-0.674516],[102.713085,-0.695317],[102.714582,-0.708102],[102.715418,-0.719368],[102.71081,-0.73715],[102.708538,-0.736315]]]}}]}