{"type":"FeatureCollection","features":[{"type":"Feature","properties":{"kdkec":"1403123","nmkec":"PULAU BURUNG","kddesa":"1403123007","nmdesa":"TELUK NIBUNG","idsubsls":"1403123007000600","kdsubsls":"00"},"geometry":{"type":"Polygon","coordinates":[[[103.46304,0.379072],[103.458624,0.350535],[103.450184,0.351172],[103.43793,0.354106],[103.434134,0.350654],[103.431372,0.350654],[103.426655,0.351867],[103.435276,0.359704],[103.436352,0.368815],[103.438075,0.389967],[103.443824,0.395997],[103.459638,0.382421],[103.46304,0.379072]]]}}]}