{"type":"FeatureCollection","features":[{"type":"Feature","properties":{"kdkec":"1403011","nmkec":"KEMUNING","kddesa":"1403011011","nmdesa":"LUBUK BESAR","idsubsls":"1403011011000900","kdsubsls":"00"},"geometry":{"type":"Polygon","coordinates":[[[102.907838,-0.863776],[102.916834,-0.875766],[102.917052,-0.875725],[102.918497,-0.877531],[102.900731,-0.893975],[102.88557,-0.909897],[102.875821,-0.901872],[102.872855,-0.897878],[102.861781,-0.887644],[102.849274,-0.876805],[102.84935,-0.876698],[102.849003,-0.876422],[102.84891,-0.876491],[102.846775,-0.87447],[102.845938,-0.874114],[102.844854,-0.874047],[102.840847,-0.872837],[102.838561,-0.871716],[102.839511,-0.870805],[102.848014,-0.87383],[102.852615,-0.868999],[102.853001,-0.869378],[102.886027,-0.834707],[102.907838,-0.863776]]]}}]}