{"type":"FeatureCollection","features":[{"type":"Feature","properties":{"kdkec":"1403011","nmkec":"KEMUNING","kddesa":"1403011011","nmdesa":"LUBUK BESAR","idsubsls":"1403011011000800","kdsubsls":"00"},"geometry":{"type":"Polygon","coordinates":[[[102.828757,-0.858164],[102.828651,-0.857191],[102.82891,-0.856751],[102.828781,-0.855982],[102.828016,-0.855334],[102.828123,-0.855163],[102.82923,-0.855677],[102.829193,-0.855353],[102.828818,-0.85507],[102.828266,-0.854125],[102.829012,-0.85401],[102.829679,-0.853454],[102.829665,-0.852583],[102.83082,-0.852525],[102.83082,-0.851585],[102.830068,-0.85027],[102.832699,-0.849331],[102.834953,-0.848767],[102.836456,-0.8467],[102.83608,-0.843882],[102.837584,-0.842567],[102.837771,-0.841064],[102.840778,-0.841252],[102.842844,-0.839561],[102.845099,-0.83693],[102.849796,-0.836742],[102.851415,-0.838168],[102.851863,-0.83787],[102.854493,-0.837682],[102.856936,-0.835991],[102.861821,-0.8343],[102.865203,-0.833548],[102.869336,-0.830542],[102.870839,-0.832233],[102.871966,-0.83167],[102.872342,-0.829039],[102.874221,-0.8281],[102.876288,-0.827912],[102.877227,-0.829415],[102.87873,-0.829415],[102.87967,-0.828475],[102.881879,-0.829178],[102.886027,-0.834707],[102.853001,-0.869378],[102.852615,-0.868999],[102.850077,-0.871664],[102.841888,-0.868504],[102.830033,-0.859297],[102.828632,-0.858678],[102.828757,-0.858164]]]}}]}