{"type":"FeatureCollection","features":[{"type":"Feature","properties":{"kdkec":"1403110","nmkec":"MANDAH","kddesa":"1403110004","nmdesa":"PELANDUK","idsubsls":"1403110004002300","kdsubsls":"00"},"geometry":{"type":"Polygon","coordinates":[[[103.336849,0.061898],[103.338365,0.060577],[103.339491,0.060978],[103.340947,0.059332],[103.341907,0.059398],[103.338367,0.050799],[103.337235,0.048951],[103.336789,0.046644],[103.332969,0.049187],[103.3289,0.05124],[103.330021,0.055443],[103.333487,0.06288],[103.334457,0.061996],[103.334976,0.061985],[103.336189,0.06232],[103.336849,0.061898]]]}}]}