{"type":"FeatureCollection","features":[{"type":"Feature","properties":{"kdkec":"1403110","nmkec":"MANDAH","kddesa":"1403110004","nmdesa":"PELANDUK","idsubsls":"1403110004002000","kdsubsls":"00"},"geometry":{"type":"Polygon","coordinates":[[[103.347408,0.057108],[103.348274,0.056734],[103.349866,0.05561],[103.35099,0.055774],[103.35216,0.055376],[103.352792,0.054533],[103.353494,0.054651],[103.353977,0.055735],[103.354642,0.055774],[103.355297,0.05554],[103.355414,0.054136],[103.356491,0.05238],[103.357743,0.051591],[103.352844,0.036361],[103.344443,0.042464],[103.34618,0.046451],[103.348591,0.051185],[103.350805,0.054444],[103.346954,0.056259],[103.347025,0.05715],[103.347408,0.057108]]]}}]}