{"type":"FeatureCollection","features":[{"type":"Feature","properties":{"kdkec":"1403110","nmkec":"MANDAH","kddesa":"1403110004","nmdesa":"PELANDUK","idsubsls":"1403110004000400","kdsubsls":"00"},"geometry":{"type":"MultiPolygon","coordinates":[[[[103.4089,0.013183],[103.410062,0.012059],[103.410938,0.010541],[103.408202,0.008515],[103.404894,0.011729],[103.4089,0.013183]]],[[[103.396444,0.015558],[103.396193,0.01503],[103.394387,0.013461],[103.392435,0.014766],[103.393729,0.017775],[103.395006,0.016784],[103.396444,0.015558]]]]}}]}