{"type":"FeatureCollection","features":[{"type":"Feature","properties":{"kdkec":"1403110","nmkec":"MANDAH","kddesa":"1403110004","nmdesa":"PELANDUK","idsubsls":"1403110004002400","kdsubsls":"00"},"geometry":{"type":"Polygon","coordinates":[[[103.319507,0.091876],[103.32804,0.06533],[103.325831,0.058522],[103.318728,0.06374],[103.320531,0.066518],[103.31767,0.070499],[103.318775,0.070917],[103.318023,0.073769],[103.315285,0.074646],[103.317798,0.08476],[103.315034,0.092895],[103.319507,0.091876]]]}}]}