{"type":"FeatureCollection","features":[{"type":"Feature","properties":{"kdkec":"1403110","nmkec":"MANDAH","kddesa":"1403110004","nmdesa":"PELANDUK","idsubsls":"1403110004000600","kdsubsls":"00"},"geometry":{"type":"Polygon","coordinates":[[[103.438593,0.015703],[103.439603,0.014649],[103.432614,0.00386],[103.432053,0.003817],[103.426369,5.7e-05],[103.425798,0.001198],[103.424,0.000424],[103.421721,0.003702],[103.42028,0.005461],[103.433505,0.021813],[103.435318,0.020249],[103.436271,0.018122],[103.438593,0.015703]]]}}]}