{"type":"FeatureCollection","features":[{"type":"Feature","properties":{"kdkec":"1403100","nmkec":"GAUNG","kddesa":"1403100008","nmdesa":"KUALA LAHANG","idsubsls":"1403100008100100","kdsubsls":"00"},"geometry":{"type":"Polygon","coordinates":[[[103.335619,-0.105041],[103.339211,-0.107293],[103.336745,-0.111228],[103.333449,-0.11398],[103.327374,-0.116568],[103.322089,-0.117249],[103.31566,-0.11684],[103.314915,-0.116681],[103.314316,-0.113555],[103.305068,-0.110657],[103.309511,-0.088479],[103.319997,-0.09408],[103.327243,-0.098678],[103.335619,-0.105041]]]}}]}