{"type":"FeatureCollection","features":[{"type":"Feature","properties":{"kdkec":"1403010","nmkec":"KERITANG","kddesa":"1403010006","nmdesa":"KOTABARU SEBERIDA","idsubsls":"1403010006100100","kdsubsls":"00"},"geometry":{"type":"Polygon","coordinates":[[[102.944409,-0.779319],[102.944659,-0.780039],[102.945792,-0.780526],[102.947003,-0.781474],[102.948297,-0.783748],[102.949162,-0.784625],[102.949206,-0.78621],[102.948627,-0.788004],[102.947941,-0.788248],[102.946513,-0.787082],[102.944069,-0.785541],[102.943006,-0.785071],[102.942996,-0.782999],[102.940873,-0.778429],[102.944409,-0.779319]]]}}]}