{"type":"FeatureCollection","features":[{"type":"Feature","properties":{"kdkec":"1403010","nmkec":"KERITANG","kddesa":"1403010006","nmdesa":"KOTABARU SEBERIDA","idsubsls":"1403010006002900","kdsubsls":"00"},"geometry":{"type":"Polygon","coordinates":[[[102.942494,-0.741318],[102.9438,-0.74397],[102.943329,-0.744607],[102.943069,-0.745313],[102.942473,-0.746014],[102.942411,-0.747118],[102.936332,-0.744992],[102.93634,-0.743639],[102.936582,-0.742751],[102.936376,-0.741958],[102.939952,-0.740969],[102.941398,-0.741065],[102.942494,-0.741318]]]}}]}