{"type":"FeatureCollection","features":[{"type":"Feature","properties":{"kdkec":"1403010","nmkec":"KERITANG","kddesa":"1403010006","nmdesa":"KOTABARU SEBERIDA","idsubsls":"1403010006001700","kdsubsls":"00"},"geometry":{"type":"Polygon","coordinates":[[[102.926277,-0.746507],[102.926241,-0.748816],[102.924237,-0.748815],[102.924221,-0.746128],[102.925515,-0.746164],[102.925531,-0.74559],[102.926302,-0.745606],[102.926274,-0.746036],[102.926665,-0.746032],[102.926656,-0.746508],[102.926277,-0.746507]]]}}]}