{"type":"FeatureCollection","features":[{"type":"Feature","properties":{"kdkec":"1403010","nmkec":"KERITANG","kddesa":"1403010006","nmdesa":"KOTABARU SEBERIDA","idsubsls":"1403010006000500","kdsubsls":"00"},"geometry":{"type":"Polygon","coordinates":[[[102.914149,-0.751492],[102.918228,-0.761295],[102.918527,-0.763004],[102.918185,-0.76541],[102.916448,-0.769866],[102.916192,-0.771418],[102.916762,-0.774487],[102.914352,-0.774476],[102.910946,-0.749787],[102.910247,-0.74612],[102.912082,-0.745736],[102.912568,-0.748143],[102.914149,-0.751492]]]}}]}