{"type":"FeatureCollection","features":[{"type":"Feature","properties":{"kdkec":"1403010","nmkec":"KERITANG","kddesa":"1403010006","nmdesa":"KOTABARU SEBERIDA","idsubsls":"1403010006001300","kdsubsls":"00"},"geometry":{"type":"Polygon","coordinates":[[[102.924773,-0.782068],[102.925054,-0.786241],[102.927279,-0.791585],[102.923667,-0.794193],[102.920353,-0.781499],[102.921385,-0.777551],[102.921718,-0.758873],[102.921206,-0.749148],[102.922321,-0.748864],[102.924237,-0.748815],[102.924436,-0.777048],[102.924773,-0.782068]]]}}]}