{"type":"FeatureCollection","features":[{"type":"Feature","properties":{"kdkec":"1403110","nmkec":"MANDAH","kddesa":"1403110008","nmdesa":"BELARAS","idsubsls":"1403110008200100","kdsubsls":"00"},"geometry":{"type":"Polygon","coordinates":[[[103.626813,-0.015713],[103.626359,-0.016572],[103.628555,-0.01773],[103.629016,-0.016818],[103.62991,-0.017266],[103.635507,-0.017946],[103.63749,-0.019946],[103.640916,-0.024828],[103.641686,-0.03049],[103.647686,-0.046347],[103.648083,-0.048766],[103.646494,-0.049055],[103.640462,-0.051413],[103.630887,-0.048609],[103.626768,-0.046819],[103.622369,-0.043671],[103.618185,-0.039401],[103.615818,-0.032295],[103.614087,-0.033513],[103.614055,-0.032759],[103.613327,-0.030656],[103.610049,-0.028607],[103.60827,-0.026354],[103.605467,-0.025448],[103.602383,-0.024693],[103.600385,-0.022227],[103.599846,-0.020903],[103.599444,-0.020733],[103.599242,-0.020245],[103.608106,-0.013916],[103.614181,-0.008478],[103.615284,-0.008339],[103.616963,-0.009229],[103.622232,-0.012949],[103.625493,-0.015052],[103.626813,-0.015713]]]}}]}