{"type":"FeatureCollection","features":[{"type":"Feature","properties":{"kdkec":"1403110","nmkec":"MANDAH","kddesa":"1403110008","nmdesa":"BELARAS","idsubsls":"1403110008000400","kdsubsls":"00"},"geometry":{"type":"Polygon","coordinates":[[[103.627893,-0.013132],[103.62808,-0.013243],[103.627916,-0.013471],[103.628979,-0.014204],[103.628183,-0.015584],[103.624115,-0.012921],[103.624723,-0.011986],[103.625505,-0.011688],[103.626049,-0.012158],[103.626412,-0.01175],[103.627551,-0.012571],[103.627418,-0.012845],[103.627893,-0.013132]]]}}]}