{"type":"FeatureCollection","features":[{"type":"Feature","properties":{"kdkec":"1403110","nmkec":"MANDAH","kddesa":"1403110008","nmdesa":"BELARAS","idsubsls":"1403110008000300","kdsubsls":"00"},"geometry":{"type":"MultiPolygon","coordinates":[[[[103.629016,-0.016818],[103.628555,-0.01773],[103.626359,-0.016572],[103.626813,-0.015713],[103.629016,-0.016818]]],[[[103.629365,-0.01461],[103.629487,-0.014484],[103.629845,-0.014751],[103.630171,-0.014418],[103.631162,-0.016399],[103.629914,-0.016585],[103.628183,-0.015584],[103.628979,-0.014204],[103.629365,-0.01461]]]]}}]}