{"type":"FeatureCollection","features":[{"type":"Feature","properties":{"kdkec":"1403110","nmkec":"MANDAH","kddesa":"1403110008","nmdesa":"BELARAS","idsubsls":"1403110008200200","kdsubsls":"00"},"geometry":{"type":"Polygon","coordinates":[[[103.635815,-0.016099],[103.638544,-0.015215],[103.643605,-0.015974],[103.653717,-0.018141],[103.663974,-0.021175],[103.669896,-0.026809],[103.673797,-0.031431],[103.680008,-0.036198],[103.681164,-0.038076],[103.682464,-0.038943],[103.681742,-0.040966],[103.678708,-0.044288],[103.671196,-0.049344],[103.669896,-0.049633],[103.667007,-0.052522],[103.66205,-0.0529],[103.657448,-0.051669],[103.651581,-0.049243],[103.648165,-0.045607],[103.64615,-0.040472],[103.642658,-0.032288],[103.641185,-0.024215],[103.638698,-0.020646],[103.636298,-0.018035],[103.634804,-0.016949],[103.635815,-0.016099]]]}}]}