{"type":"FeatureCollection","features":[{"type":"Feature","properties":{"kdkec":"1403010","nmkec":"KERITANG","kddesa":"1403010013","nmdesa":"SENCALANG","idsubsls":"1403010013000100","kdsubsls":"00"},"geometry":{"type":"Polygon","coordinates":[[[102.720248,-0.659027],[102.719379,-0.658992],[102.719219,-0.666693],[102.719077,-0.667144],[102.718898,-0.670901],[102.71871,-0.680338],[102.716747,-0.690567],[102.715118,-0.697142],[102.71755,-0.709435],[102.71991,-0.72486],[102.717822,-0.739718],[102.71081,-0.73715],[102.715418,-0.719368],[102.714582,-0.708102],[102.713085,-0.695317],[102.715888,-0.674516],[102.715655,-0.673143],[102.716406,-0.666837],[102.716743,-0.665789],[102.716536,-0.664714],[102.716502,-0.660098],[102.716854,-0.656629],[102.720215,-0.656111],[102.720248,-0.659027]]]}}]}