{"type":"FeatureCollection","features":[{"type":"Feature","properties":{"kdkec":"1403010","nmkec":"KERITANG","kddesa":"1403010013","nmdesa":"SENCALANG","idsubsls":"1403010013000700","kdsubsls":"00"},"geometry":{"type":"Polygon","coordinates":[[[102.704509,-0.66522],[102.707939,-0.665391],[102.707226,-0.700519],[102.705958,-0.718672],[102.706061,-0.727827],[102.705483,-0.735191],[102.701216,-0.733622],[102.701162,-0.719572],[102.704674,-0.693582],[102.70525,-0.683544],[102.704629,-0.673914],[102.704509,-0.66522]]]}}]}