{"type":"FeatureCollection","features":[{"type":"Feature","properties":{"kdkec":"1403010","nmkec":"KERITANG","kddesa":"1403010013","nmdesa":"SENCALANG","idsubsls":"1403010013001300","kdsubsls":"00"},"geometry":{"type":"Polygon","coordinates":[[[102.699077,-0.660885],[102.698986,-0.661193],[102.700351,-0.661043],[102.700693,-0.660851],[102.701096,-0.662039],[102.699253,-0.662324],[102.699118,-0.662546],[102.693024,-0.662543],[102.693044,-0.661922],[102.694495,-0.661307],[102.696386,-0.661328],[102.696794,-0.660981],[102.698837,-0.660562],[102.699077,-0.660885]]]}}]}