{"type":"FeatureCollection","features":[{"type":"Feature","properties":{"kdkec":"1403010","nmkec":"KERITANG","kddesa":"1403010013","nmdesa":"SENCALANG","idsubsls":"1403010013001100","kdsubsls":"00"},"geometry":{"type":"Polygon","coordinates":[[[102.704509,-0.66522],[102.704629,-0.673914],[102.70525,-0.683544],[102.704674,-0.693582],[102.701162,-0.719572],[102.701216,-0.733622],[102.698813,-0.732739],[102.699023,-0.719058],[102.696945,-0.699078],[102.693768,-0.698966],[102.697194,-0.693513],[102.698135,-0.689792],[102.698562,-0.682352],[102.699396,-0.676194],[102.700166,-0.668476],[102.701096,-0.662039],[102.700736,-0.661274],[102.702637,-0.660498],[102.702999,-0.66093],[102.704431,-0.659809],[102.704509,-0.66522]]]}}]}