{"type":"FeatureCollection","features":[{"type":"Feature","properties":{"kdkec":"1403010","nmkec":"KERITANG","kddesa":"1403010013","nmdesa":"SENCALANG","idsubsls":"1403010013001800","kdsubsls":"00"},"geometry":{"type":"Polygon","coordinates":[[[102.71508,-0.656662],[102.71485,-0.658311],[102.714532,-0.65911],[102.71472,-0.661493],[102.713843,-0.66862],[102.712925,-0.679349],[102.710903,-0.692663],[102.711177,-0.693895],[102.711825,-0.694886],[102.711548,-0.696877],[102.711809,-0.698574],[102.712886,-0.703045],[102.713441,-0.713064],[102.712658,-0.718547],[102.708538,-0.736315],[102.706895,-0.73571],[102.707757,-0.731466],[102.709916,-0.700602],[102.7125,-0.65807],[102.712711,-0.65801],[102.713064,-0.656212],[102.71508,-0.656662]]]}}]}