{"type":"FeatureCollection","features":[{"type":"Feature","properties":{"kdkec":"1403110","nmkec":"MANDAH","kddesa":"1403110001","nmdesa":"PULAU CAWAN","idsubsls":"1403110001200300","kdsubsls":"00"},"geometry":{"type":"Polygon","coordinates":[[[103.59436,-0.120747],[103.590557,-0.121346],[103.589672,-0.121236],[103.589567,-0.121061],[103.589589,-0.120553],[103.593504,-0.118969],[103.597938,-0.116652],[103.599062,-0.116462],[103.599267,-0.116672],[103.598954,-0.117728],[103.597733,-0.119378],[103.596154,-0.120348],[103.59436,-0.120747]]]}}]}