{"type":"FeatureCollection","features":[{"type":"Feature","properties":{"kdkec":"1403110","nmkec":"MANDAH","kddesa":"1403110001","nmdesa":"PULAU CAWAN","idsubsls":"1403110001200100","kdsubsls":"00"},"geometry":{"type":"Polygon","coordinates":[[[103.544512,-0.095254],[103.545418,-0.095757],[103.546383,-0.09587],[103.547939,-0.097243],[103.550139,-0.101704],[103.55398,-0.10803],[103.559122,-0.11534],[103.547845,-0.119553],[103.53162,-0.122933],[103.519045,-0.119959],[103.504415,-0.118752],[103.505233,-0.113453],[103.50495,-0.111271],[103.504133,-0.109441],[103.5037,-0.108005],[103.504002,-0.106969],[103.505075,-0.106426],[103.508187,-0.106348],[103.510543,-0.106742],[103.512449,-0.106808],[103.544512,-0.095254]]]}}]}