{"type":"FeatureCollection","features":[{"type":"Feature","properties":{"kdkec":"1403110","nmkec":"MANDAH","kddesa":"1403110001","nmdesa":"PULAU CAWAN","idsubsls":"1403110001200200","kdsubsls":"00"},"geometry":{"type":"Polygon","coordinates":[[[103.518557,-0.103456],[103.518485,-0.104037],[103.517915,-0.104477],[103.514646,-0.105469],[103.51271,-0.106234],[103.507381,-0.105731],[103.504656,-0.105996],[103.503723,-0.106412],[103.503071,-0.10749],[103.50396,-0.110364],[103.504566,-0.113612],[103.503345,-0.119049],[103.503443,-0.119423],[103.503316,-0.119789],[103.502605,-0.120011],[103.497736,-0.119976],[103.494846,-0.119744],[103.492043,-0.118687],[103.482693,-0.11397],[103.479792,-0.111407],[103.474285,-0.108731],[103.473257,-0.107661],[103.472919,-0.106788],[103.473356,-0.105943],[103.475643,-0.105221],[103.480105,-0.104545],[103.483197,-0.102395],[103.48656,-0.099194],[103.488479,-0.096235],[103.489953,-0.090751],[103.491728,-0.08868],[103.499169,-0.086021],[103.501507,-0.086127],[103.503475,-0.086517],[103.505293,-0.088321],[103.507878,-0.091973],[103.510721,-0.093957],[103.513259,-0.094496],[103.515237,-0.097449],[103.518557,-0.103456]]]}}]}