{"type":"FeatureCollection","features":[{"type":"Feature","properties":{"kdkec":"1403120","nmkec":"KATEMAN","kddesa":"1403120005","nmdesa":"SARI MULYA","idsubsls":"1403120005000300","kdsubsls":"00"},"geometry":{"type":"Polygon","coordinates":[[[103.544386,0.293806],[103.546126,0.290157],[103.546447,0.287725],[103.545368,0.287784],[103.542276,0.287224],[103.538001,0.285006],[103.533345,0.283383],[103.530339,0.307376],[103.524134,0.324642],[103.529842,0.323101],[103.532639,0.31319],[103.542918,0.29343],[103.544386,0.293806]]]}}]}