{"type":"FeatureCollection","features":[{"type":"Feature","properties":{"kdkec":"1403120","nmkec":"KATEMAN","kddesa":"1403120010","nmdesa":"AMAL BAKTI","idsubsls":"1403120010000800","kdsubsls":"00"},"geometry":{"type":"Polygon","coordinates":[[[103.670906,0.246568],[103.67937,0.253603],[103.680485,0.252246],[103.671835,0.243764],[103.659557,0.239387],[103.657067,0.241327],[103.657484,0.242074],[103.658555,0.241569],[103.664032,0.243755],[103.663801,0.244282],[103.665636,0.244975],[103.665834,0.244546],[103.670906,0.246568]]]}}]}