{"type":"FeatureCollection","features":[{"type":"Feature","properties":{"kdkec":"1403090","nmkec":"GAUNG ANAK SERKA","kddesa":"1403090007","nmdesa":"TELUK PINANG","idsubsls":"1403090007004800","kdsubsls":"00"},"geometry":{"type":"Polygon","coordinates":[[[103.379503,-0.233493],[103.356975,-0.237564],[103.35749,-0.223938],[103.357868,-0.222464],[103.354644,-0.221008],[103.352419,-0.220541],[103.352412,-0.217561],[103.360622,-0.217182],[103.360568,-0.205397],[103.36042,-0.201841],[103.365483,-0.201763],[103.365452,-0.218006],[103.365817,-0.219562],[103.367088,-0.221482],[103.371417,-0.225446],[103.379503,-0.233493]]]}}]}