{"type":"FeatureCollection","features":[{"type":"Feature","properties":{"kdkec":"1403090","nmkec":"GAUNG ANAK SERKA","kddesa":"1403090007","nmdesa":"TELUK PINANG","idsubsls":"1403090007003100","kdsubsls":"00"},"geometry":{"type":"Polygon","coordinates":[[[103.368117,-0.182887],[103.368122,-0.183216],[103.368949,-0.183195],[103.368949,-0.183593],[103.370426,-0.183595],[103.370495,-0.207548],[103.392792,-0.207573],[103.392447,-0.214125],[103.390782,-0.217049],[103.388345,-0.216988],[103.388262,-0.231133],[103.384768,-0.232246],[103.379503,-0.233493],[103.371417,-0.225446],[103.367088,-0.221482],[103.365817,-0.219562],[103.365452,-0.218006],[103.365528,-0.183162],[103.366514,-0.183186],[103.366519,-0.182879],[103.368117,-0.182887]]]}}]}