{"type":"FeatureCollection","features":[{"type":"Feature","properties":{"kdkec":"1403090","nmkec":"GAUNG ANAK SERKA","kddesa":"1403090007","nmdesa":"TELUK PINANG","idsubsls":"1403090007000200","kdsubsls":"00"},"geometry":{"type":"Polygon","coordinates":[[[103.363254,-0.182173],[103.363262,-0.180958],[103.36248,-0.180879],[103.362488,-0.18106],[103.36189,-0.18111],[103.361835,-0.180749],[103.365757,-0.180419],[103.365748,-0.18082],[103.365529,-0.180826],[103.365535,-0.182574],[103.364411,-0.18262],[103.364402,-0.182262],[103.363586,-0.182333],[103.363577,-0.182165],[103.363254,-0.182173]]]}}]}