{"type":"FeatureCollection","features":[{"type":"Feature","properties":{"kdkec":"1403030","nmkec":"ENOK","kddesa":"1403030014","nmdesa":"SIMPANG TIGA DARATAN","idsubsls":"1403030014000600","kdsubsls":"00"},"geometry":{"type":"Polygon","coordinates":[[[103.173046,-0.462842],[103.173043,-0.462976],[103.171791,-0.463008],[103.171732,-0.461262],[103.167158,-0.453059],[103.158629,-0.443605],[103.157262,-0.442733],[103.149591,-0.433621],[103.153089,-0.431624],[103.16036,-0.440224],[103.160484,-0.440426],[103.159808,-0.440872],[103.16194,-0.443402],[103.163451,-0.444913],[103.16667,-0.449563],[103.171588,-0.458763],[103.171892,-0.459457],[103.171946,-0.460109],[103.172213,-0.460482],[103.172159,-0.460787],[103.172795,-0.461999],[103.173046,-0.462842]]]}}]}