{"type":"FeatureCollection","features":[{"type":"Feature","properties":{"kdkec":"1403030","nmkec":"ENOK","kddesa":"1403030014","nmdesa":"SIMPANG TIGA DARATAN","idsubsls":"1403030014000800","kdsubsls":"00"},"geometry":{"type":"Polygon","coordinates":[[[103.156592,-0.445866],[103.143489,-0.436247],[103.146366,-0.435155],[103.156687,-0.444964],[103.157541,-0.445463],[103.165583,-0.454262],[103.167419,-0.45795],[103.1659,-0.456795],[103.164316,-0.454787],[103.160629,-0.450843],[103.156239,-0.446513],[103.156592,-0.445866]]]}}]}