{"type":"FeatureCollection","features":[{"type":"Feature","properties":{"kdkec":"1403030","nmkec":"ENOK","kddesa":"1403030014","nmdesa":"SIMPANG TIGA DARATAN","idsubsls":"1403030014000400","kdsubsls":"00"},"geometry":{"type":"Polygon","coordinates":[[[103.185507,-0.448964],[103.190252,-0.458076],[103.19078,-0.458738],[103.191246,-0.462741],[103.190537,-0.465473],[103.190293,-0.470352],[103.189001,-0.475647],[103.188626,-0.474938],[103.188038,-0.471782],[103.18373,-0.465937],[103.182997,-0.465289],[103.180381,-0.465033],[103.176143,-0.448729],[103.180568,-0.448666],[103.185507,-0.448964]]]}}]}