{"type":"FeatureCollection","features":[{"type":"Feature","properties":{"kdkec":"1403090","nmkec":"GAUNG ANAK SERKA","kddesa":"1403090002","nmdesa":"SUNGAI EMPAT","idsubsls":"1403090002000700","kdsubsls":"00"},"geometry":{"type":"Polygon","coordinates":[[[103.201573,-0.152737],[103.201314,-0.152481],[103.200702,-0.153182],[103.198872,-0.15157],[103.199009,-0.151275],[103.198965,-0.150412],[103.198588,-0.150428],[103.198559,-0.14979],[103.198611,-0.146274],[103.201488,-0.145557],[103.20158,-0.148514],[103.202461,-0.150322],[103.202508,-0.151138],[103.202183,-0.152056],[103.201573,-0.152737]]]}}]}