{"type":"FeatureCollection","features":[{"type":"Feature","properties":{"kdkec":"1403090","nmkec":"GAUNG ANAK SERKA","kddesa":"1403090002","nmdesa":"SUNGAI EMPAT","idsubsls":"1403090002100100","kdsubsls":"00"},"geometry":{"type":"Polygon","coordinates":[[[103.181877,-0.123251],[103.188075,-0.12468],[103.190933,-0.126163],[103.199044,-0.128184],[103.205381,-0.131356],[103.211982,-0.132289],[103.212227,-0.144585],[103.211116,-0.143963],[103.209451,-0.144639],[103.207502,-0.145985],[103.207051,-0.147177],[103.207937,-0.152431],[103.20766,-0.153916],[103.206322,-0.155535],[103.205212,-0.156351],[103.204799,-0.15653],[103.204201,-0.156472],[103.2035,-0.15583],[103.204172,-0.155189],[103.201573,-0.152737],[103.202183,-0.152056],[103.202508,-0.151138],[103.202461,-0.150322],[103.20158,-0.148514],[103.201488,-0.145557],[103.198611,-0.146274],[103.193985,-0.146193],[103.192763,-0.141909],[103.192143,-0.138908],[103.191209,-0.132471],[103.190866,-0.128198],[103.18881,-0.127582],[103.187169,-0.127589],[103.1871,-0.129381],[103.187619,-0.137514],[103.187593,-0.143196],[103.188227,-0.148551],[103.188508,-0.149076],[103.189304,-0.14951],[103.19028,-0.15039],[103.190527,-0.150883],[103.190885,-0.150942],[103.191227,-0.15122],[103.19196,-0.15211],[103.193313,-0.152852],[103.193844,-0.152918],[103.193125,-0.159188],[103.193202,-0.160815],[103.192567,-0.162353],[103.191716,-0.163236],[103.190142,-0.16427],[103.189148,-0.164791],[103.188762,-0.164336],[103.185917,-0.165889],[103.18602,-0.166356],[103.184866,-0.166668],[103.184028,-0.166639],[103.181779,-0.16577],[103.181321,-0.165452],[103.180988,-0.164686],[103.180916,-0.163938],[103.180915,-0.158628],[103.182652,-0.156758],[103.180412,-0.122949],[103.181877,-0.123251]]]}}]}