{"type":"FeatureCollection","features":[{"type":"Feature","properties":{"kdkec":"1403090","nmkec":"GAUNG ANAK SERKA","kddesa":"1403090002","nmdesa":"SUNGAI EMPAT","idsubsls":"1403090002001600","kdsubsls":"00"},"geometry":{"type":"Polygon","coordinates":[[[103.208698,-0.185825],[103.204239,-0.18591],[103.206019,-0.158123],[103.205593,-0.155989],[103.206322,-0.155535],[103.20766,-0.153916],[103.208789,-0.155282],[103.210005,-0.1597],[103.209915,-0.16512],[103.208683,-0.175339],[103.208698,-0.185825]]]}}]}