{"type":"FeatureCollection","features":[{"type":"Feature","properties":{"kdkec":"1403090","nmkec":"GAUNG ANAK SERKA","kddesa":"1403090002","nmdesa":"SUNGAI EMPAT","idsubsls":"1403090002001100","kdsubsls":"00"},"geometry":{"type":"Polygon","coordinates":[[[103.177135,-0.122803],[103.178042,-0.122843],[103.178527,-0.133602],[103.179222,-0.155887],[103.179006,-0.155675],[103.176889,-0.155193],[103.17544,-0.155612],[103.17388,-0.156972],[103.172036,-0.154975],[103.171181,-0.154369],[103.171145,-0.146888],[103.171454,-0.134845],[103.169326,-0.123594],[103.173139,-0.122624],[103.177135,-0.122803]]]}}]}