{"type":"FeatureCollection","features":[{"type":"Feature","properties":{"kdkec":"1403011","nmkec":"KEMUNING","kddesa":"1403011005","nmdesa":"TUK JIMUN","idsubsls":"1403011005000900","kdsubsls":"00"},"geometry":{"type":"Polygon","coordinates":[[[102.777914,-0.944594],[102.785841,-0.939749],[102.787219,-0.939158],[102.79109,-0.937025],[102.794385,-0.93488],[102.793959,-0.934197],[102.798839,-0.931748],[102.810023,-0.938942],[102.803891,-0.946501],[102.79571,-0.959643],[102.77855,-0.945678],[102.777914,-0.944594]]]}}]}