{"type":"FeatureCollection","features":[{"type":"Feature","properties":{"kdkec":"1403011","nmkec":"KEMUNING","kddesa":"1403011005","nmdesa":"TUK JIMUN","idsubsls":"1403011005000300","kdsubsls":"00"},"geometry":{"type":"Polygon","coordinates":[[[102.777657,-0.924192],[102.777066,-0.924471],[102.772209,-0.930677],[102.76957,-0.928766],[102.770447,-0.928415],[102.770479,-0.928207],[102.770295,-0.928075],[102.769891,-0.928055],[102.769207,-0.928379],[102.768347,-0.928095],[102.768395,-0.927515],[102.768823,-0.926967],[102.768827,-0.926767],[102.768343,-0.926151],[102.768443,-0.925939],[102.768931,-0.925887],[102.769559,-0.926123],[102.769639,-0.926003],[102.769527,-0.925631],[102.768851,-0.925027],[102.768987,-0.924767],[102.769635,-0.924371],[102.769279,-0.923691],[102.769947,-0.922916],[102.770427,-0.9228],[102.770643,-0.922984],[102.771191,-0.924114],[102.771502,-0.923611],[102.771622,-0.923029],[102.771355,-0.922504],[102.771503,-0.922148],[102.772191,-0.921628],[102.772667,-0.921752],[102.772707,-0.922008],[102.772675,-0.922352],[102.772242,-0.922822],[102.772319,-0.923059],[102.772635,-0.923095],[102.774058,-0.922068],[102.774042,-0.921696],[102.773738,-0.92148],[102.773838,-0.92114],[102.77439,-0.921288],[102.774674,-0.921576],[102.774771,-0.922142],[102.775465,-0.922212],[102.775657,-0.922088],[102.775581,-0.92167],[102.774446,-0.920552],[102.774454,-0.920392],[102.774774,-0.92032],[102.775286,-0.92044],[102.776231,-0.921884],[102.776791,-0.922222],[102.777045,-0.922044],[102.776911,-0.921196],[102.777194,-0.920716],[102.777466,-0.920616],[102.778154,-0.920986],[102.77837,-0.919996],[102.778586,-0.919944],[102.779277,-0.920232],[102.779637,-0.920104],[102.779765,-0.919852],[102.779633,-0.919004],[102.779777,-0.918864],[102.781033,-0.919712],[102.781569,-0.919756],[102.781625,-0.919572],[102.781349,-0.919112],[102.780689,-0.91882],[102.780653,-0.918312],[102.781232,-0.917947],[102.783297,-0.921176],[102.781557,-0.921864],[102.780805,-0.922461],[102.777657,-0.924192]]]}}]}