{"type":"FeatureCollection","features":[{"type":"Feature","properties":{"kdkec":"1403011","nmkec":"KEMUNING","kddesa":"1403011005","nmdesa":"TUK JIMUN","idsubsls":"1403011005000800","kdsubsls":"00"},"geometry":{"type":"Polygon","coordinates":[[[102.789044,-0.925446],[102.798839,-0.931748],[102.793959,-0.934197],[102.794385,-0.93488],[102.79109,-0.937025],[102.787219,-0.939158],[102.785841,-0.939749],[102.777914,-0.944594],[102.77753,-0.944152],[102.77596,-0.943597],[102.772747,-0.941016],[102.780128,-0.933295],[102.786095,-0.927895],[102.789044,-0.925446]]]}}]}