{"type":"FeatureCollection","features":[{"type":"Feature","properties":{"kdkec":"1403011","nmkec":"KEMUNING","kddesa":"1403011005","nmdesa":"TUK JIMUN","idsubsls":"1403011005000400","kdsubsls":"00"},"geometry":{"type":"Polygon","coordinates":[[[102.771865,-0.934267],[102.771728,-0.935072],[102.770964,-0.936907],[102.769845,-0.937867],[102.769703,-0.938168],[102.769349,-0.937852],[102.769571,-0.937441],[102.769399,-0.937157],[102.768739,-0.936785],[102.768659,-0.936461],[102.768839,-0.935869],[102.769375,-0.935569],[102.769051,-0.934558],[102.770407,-0.935258],[102.771127,-0.93499],[102.771223,-0.93433],[102.770759,-0.93395],[102.769975,-0.934054],[102.769771,-0.933938],[102.770063,-0.932638],[102.769819,-0.932366],[102.769023,-0.93213],[102.768931,-0.930034],[102.768343,-0.929682],[102.768467,-0.929342],[102.76957,-0.928766],[102.772201,-0.930672],[102.771879,-0.931291],[102.771817,-0.931947],[102.771865,-0.934267]]]}}]}