{"type":"FeatureCollection","features":[{"type":"Feature","properties":{"kdkec":"1403120","nmkec":"KATEMAN","kddesa":"1403120011","nmdesa":"BANDAR SRI GEMILANG","idsubsls":"1403120011001300","kdsubsls":"00"},"geometry":{"type":"Polygon","coordinates":[[[103.622812,0.317097],[103.630662,0.319364],[103.638076,0.315744],[103.640312,0.314462],[103.641118,0.314198],[103.637655,0.301567],[103.635048,0.302542],[103.635204,0.30282],[103.633237,0.303644],[103.633269,0.303802],[103.626081,0.30691],[103.626689,0.306941],[103.626579,0.310358],[103.622046,0.310132],[103.621693,0.314533],[103.619032,0.314471],[103.619011,0.315505],[103.622823,0.315755],[103.622812,0.317097]]]}}]}