{"type":"FeatureCollection","features":[{"type":"Feature","properties":{"kdkec":"1403030","nmkec":"ENOK","kddesa":"1403030001","nmdesa":"BAGAN JAYA","idsubsls":"1403030001003000","kdsubsls":"00"},"geometry":{"type":"Polygon","coordinates":[[[102.962213,-0.561678],[102.961947,-0.561167],[102.963347,-0.560451],[102.966782,-0.566664],[102.958343,-0.57117],[102.956923,-0.568714],[102.962113,-0.565851],[102.961729,-0.565197],[102.961075,-0.565582],[102.960547,-0.564584],[102.963005,-0.563298],[102.962213,-0.561678]]]}}]}