{"type":"FeatureCollection","features":[{"type":"Feature","properties":{"kdkec":"1403050","nmkec":"KUALA INDRAGIRI","kddesa":"1403050012","nmdesa":"TANJUNG MELAYU","idsubsls":"1403050012000600","kdsubsls":"00"},"geometry":{"type":"Polygon","coordinates":[[[103.469493,-0.243259],[103.463124,-0.235077],[103.458607,-0.234615],[103.45925,-0.230262],[103.459868,-0.227492],[103.487552,-0.206974],[103.489749,-0.206794],[103.498115,-0.205181],[103.498161,-0.208828],[103.497424,-0.213827],[103.495779,-0.217523],[103.487661,-0.22594],[103.474959,-0.236185],[103.474915,-0.240623],[103.469493,-0.243259]]]}}]}