{"type":"FeatureCollection","features":[{"type":"Feature","properties":{"kdkec":"1403100","nmkec":"GAUNG","kddesa":"1403100011","nmdesa":"TERUSAN KEMPAS","idsubsls":"1403100011001100","kdsubsls":"00"},"geometry":{"type":"Polygon","coordinates":[[[103.360956,-0.118409],[103.360163,-0.092193],[103.36701,-0.091642],[103.370769,-0.091506],[103.372567,-0.091969],[103.374856,-0.093167],[103.378315,-0.097689],[103.382619,-0.103901],[103.384738,-0.106424],[103.381755,-0.107656],[103.38153,-0.108317],[103.380277,-0.110223],[103.379951,-0.111179],[103.378939,-0.112369],[103.37344,-0.117091],[103.369209,-0.121128],[103.365056,-0.12217],[103.360956,-0.118409]]]}}]}