{"type":"FeatureCollection","features":[{"type":"Feature","properties":{"kdkec":"1403100","nmkec":"GAUNG","kddesa":"1403100011","nmdesa":"TERUSAN KEMPAS","idsubsls":"1403100011200100","kdsubsls":"00"},"geometry":{"type":"Polygon","coordinates":[[[103.393314,-0.113971],[103.390996,-0.108057],[103.390415,-0.107121],[103.389571,-0.107551],[103.389313,-0.107066],[103.388983,-0.107233],[103.385015,-0.100011],[103.378573,-0.091431],[103.384042,-0.080287],[103.377867,-0.075493],[103.371028,-0.072594],[103.364548,-0.068246],[103.342491,-0.056886],[103.342256,-0.056521],[103.333966,-0.050303],[103.323809,-0.045492],[103.325361,-0.038267],[103.327048,-0.032038],[103.328032,-0.031137],[103.329235,-0.03535],[103.331256,-0.037611],[103.3329,-0.038056],[103.335561,-0.037821],[103.337533,-0.038476],[103.339254,-0.039983],[103.340907,-0.043271],[103.341857,-0.04405],[103.343587,-0.044068],[103.344889,-0.043785],[103.346456,-0.043871],[103.347757,-0.044333],[103.348682,-0.044873],[103.354111,-0.048503],[103.355165,-0.04888],[103.358898,-0.049582],[103.361698,-0.050422],[103.365312,-0.051894],[103.366186,-0.051672],[103.366682,-0.050473],[103.367641,-0.048863],[103.367402,-0.047493],[103.366716,-0.045849],[103.366956,-0.044684],[103.370964,-0.041721],[103.373053,-0.039974],[103.376337,-0.037798],[103.377502,-0.039407],[103.378964,-0.040389],[103.381383,-0.041275],[103.383707,-0.041539],[103.385644,-0.042553],[103.386023,-0.045358],[103.387835,-0.049741],[103.393679,-0.05202],[103.398092,-0.054738],[103.407747,-0.063391],[103.40516,-0.068222],[103.403624,-0.073345],[103.404785,-0.10773],[103.393314,-0.113971]]]}}]}