{"type":"FeatureCollection","features":[{"type":"Feature","properties":{"kdkec":"1403021","nmkec":"SUNGAI BATANG","kddesa":"1403021004","nmdesa":"BENTENG","idsubsls":"1403021004001500","kdsubsls":"00"},"geometry":{"type":"Polygon","coordinates":[[[103.236813,-0.634268],[103.236971,-0.636345],[103.236925,-0.659525],[103.232239,-0.659571],[103.232546,-0.635505],[103.231759,-0.63215],[103.234801,-0.631016],[103.234323,-0.632774],[103.235228,-0.632967],[103.236682,-0.632542],[103.236813,-0.634268]]]}}]}