{"type":"FeatureCollection","features":[{"type":"Feature","properties":{"kdkec":"1403021","nmkec":"SUNGAI BATANG","kddesa":"1403021004","nmdesa":"BENTENG","idsubsls":"1403021004100300","kdsubsls":"00"},"geometry":{"type":"Polygon","coordinates":[[[103.248476,-0.659072],[103.244181,-0.659173],[103.24434,-0.64554],[103.246155,-0.645605],[103.246677,-0.642828],[103.246788,-0.637138],[103.246468,-0.631946],[103.245904,-0.629206],[103.248934,-0.628415],[103.249501,-0.635849],[103.248476,-0.659072]]]}}]}