{"type":"FeatureCollection","features":[{"type":"Feature","properties":{"kdkec":"1403030","nmkec":"ENOK","kddesa":"1403030009","nmdesa":"RANTAU PANJANG","idsubsls":"1403030009000300","kdsubsls":"00"},"geometry":{"type":"Polygon","coordinates":[[[103.237642,-0.451986],[103.236783,-0.452038],[103.236263,-0.452259],[103.236176,-0.452453],[103.235496,-0.452481],[103.234137,-0.449477],[103.231754,-0.4471],[103.231832,-0.445316],[103.231049,-0.442532],[103.23268,-0.433615],[103.233921,-0.42997],[103.235237,-0.427591],[103.241708,-0.419999],[103.242506,-0.422558],[103.238247,-0.452045],[103.237642,-0.451986]]]}}]}