{"type":"FeatureCollection","features":[{"type":"Feature","properties":{"kdkec":"1403030","nmkec":"ENOK","kddesa":"1403030009","nmdesa":"RANTAU PANJANG","idsubsls":"1403030009000700","kdsubsls":"00"},"geometry":{"type":"Polygon","coordinates":[[[103.230972,-0.447773],[103.229412,-0.446786],[103.229339,-0.446135],[103.229062,-0.445593],[103.228519,-0.445316],[103.227531,-0.445484],[103.224167,-0.44247],[103.223371,-0.441578],[103.222272,-0.439738],[103.219388,-0.400323],[103.219412,-0.390492],[103.218848,-0.384535],[103.221994,-0.388313],[103.224422,-0.387124],[103.227253,-0.403594],[103.227116,-0.442204],[103.227483,-0.442837],[103.228559,-0.4429],[103.229913,-0.444659],[103.230521,-0.445014],[103.231268,-0.445026],[103.231832,-0.445316],[103.231754,-0.4471],[103.230972,-0.447773]]]}}]}